{"type":"FeatureCollection","name":"ne_50m_admin_0_tiny_countries","crs":{"type":"name","properties":{"name":"urn:ogc:def:crs:OGC:1.3:CRS84"}},"features":[{"type":"Feature","properties":{"scalerank":6,"featurecla":"Admin-0 Tiny Countries","sr_label_i":4,"sr_label_o":4,"LABELRANK":6,"SOVEREIGNT":"United Kingdom","SOV_A3":"GB1","ADM0_DIF":1,"LEVEL":2,"TYPE":"Dependency","ADMIN":"British Virgin Islands","ADM0_A3":"VGB","GEOU_DIF":0,"GEOUNIT":"British Virgin Islands","GU_A3":"VGB","SU_DIF":0,"SUBUNIT":"British Virgin Islands","SU_A3":"VGB","BRK_DIFF":0,"NAME":"British Virgin Is.","NAME_LONG":"British Virgin Islands","BRK_A3":"VGB","BRK_NAME":"British Virgin Is.","BRK_GROUP":null,"ABBREV":"V.I. (Br.)","POSTAL":"VG","FORMAL_EN":"British Virgin Islands","FORMAL_FR":null,"NAME_CIAWF":"British Virgin Islands","NOTE_ADM0":"U.K.","NOTE_BRK":null,"NAME_SORT":"British Virgin Islands","NAME_ALT":null,"MAPCOLOR7":6,"MAPCOLOR8":6,"MAPCOLOR9":6,"MAPCOLOR13":3,"POP_EST":35015,"POP_RANK":7,"GDP_MD_EST":500,"POP_YEAR":2017,"LASTCENSUS":-99,"GDP_YEAR":2010,"ECONOMY":"2. Developed region: nonG7","INCOME_GRP":"1. High income: OECD","WIKIPEDIA":-99,"FIPS_10_":"VI","ISO_A2":"VG","ISO_A3":"VGB","ISO_A3_EH":"VGB","ISO_N3":"092","UN_A3":"092","WB_A2":"-99","WB_A3":"-99","WOE_ID":23424983,"WOE_ID_EH":23424983,"WOE_NOTE":"Exact WOE match as country","ADM0_A3_IS":"VGB","ADM0_A3_US":"VGB","ADM0_A3_UN":-99,"ADM0_A3_WB":-99,"CONTINENT":"North America","REGION_UN":"Americas","SUBREGION":"Caribbean","REGION_WB":"Latin America & Caribbean","NAME_LEN":18,"LONG_LEN":22,"ABBREV_LEN":10,"TINY":3,"HOMEPART":-99,"MIN_ZOOM":0,"MIN_LABEL":5,"MAX_LABEL":9.5,"NE_ID":1159320739,"WIKIDATAID":"Q25305","NAME_AR":"جزر العذراء البريطانية","NAME_BN":"ব্রিটিশ ভার্জিন দ্বীপপুঞ্জ","NAME_DE":"Britische Jungferninseln","NAME_EN":"British Virgin Islands","NAME_ES":"Islas Vírgenes Británicas","NAME_FR":"îles Vierges britanniques","NAME_EL":"Βρετανικές Παρθένοι Νήσοι","NAME_HI":"ब्रिटिश वर्जिन द्वीपसमूह","NAME_HU":"Brit Virgin-szigetek","NAME_ID":"Kepulauan Virgin Britania Raya","NAME_IT":"Isole Vergini britanniche","NAME_JA":"イギリス領ヴァージン諸島","NAME_KO":"영국령 버진아일랜드","NAME_NL":"Britse Maagdeneilanden","NAME_PL":"Brytyjskie Wyspy Dziewicze","NAME_PT":"Ilhas Virgens Britânicas","NAME_RU":"Британские Виргинские острова","NAME_SV":"Brittiska Jungfruöarna","NAME_TR":"Britanya Virjin Adaları","NAME_VI":"Quần đảo Virgin thuộc Anh","NAME_ZH":"英屬維爾京群島"},"bbox":[-64.39935,18.490001,-64.39935,18.490001],"geometry":{"type":"Point","coordinates":[-64.39935,18.490001]}},{"type":"Feature","properties":{"scalerank":2,"featurecla":"Admin-0 Tiny Countries","sr_label_i":3,"sr_label_o":6,"LABELRANK":6,"SOVEREIGNT":"United Kingdom","SOV_A3":"GB1","ADM0_DIF":1,"LEVEL":2,"TYPE":"Dependency","ADMIN":"Turks and Caicos Islands","ADM0_A3":"TCA","GEOU_DIF":0,"GEOUNIT":"Turks and Caicos Islands","GU_A3":"TCA","SU_DIF":0,"SUBUNIT":"Turks and Caicos Islands","SU_A3":"TCA","BRK_DIFF":0,"NAME":"Turks and Caicos Is.","NAME_LONG":"Turks and Caicos Islands","BRK_A3":"TCA","BRK_NAME":"Turks and Caicos Is.","BRK_GROUP":null,"ABBREV":"T.C. Is.","POSTAL":"TC","FORMAL_EN":"Turks and Caicos Islands","FORMAL_FR":null,"NAME_CIAWF":"Turks and Caicos Islands","NOTE_ADM0":"U.K.","NOTE_BRK":null,"NAME_SORT":"Turks and Caicos Islands","NAME_ALT":null,"MAPCOLOR7":6,"MAPCOLOR8":6,"MAPCOLOR9":6,"MAPCOLOR13":3,"POP_EST":52570,"POP_RANK":8,"GDP_MD_EST":632,"POP_YEAR":2017,"LASTCENSUS":2001,"GDP_YEAR":2007,"ECONOMY":"6. Developing region","INCOME_GRP":"2. High income: nonOECD","WIKIPEDIA":-99,"FIPS_10_":"TK","ISO_A2":"TC","ISO_A3":"TCA","ISO_A3_EH":"TCA","ISO_N3":"796","UN_A3":"796","WB_A2":"TC","WB_A3":"TCA","WOE_ID":23424962,"WOE_ID_EH":23424962,"WOE_NOTE":"Exact WOE match as country","ADM0_A3_IS":"TCA","ADM0_A3_US":"TCA","ADM0_A3_UN":-99,"ADM0_A3_WB":-99,"CONTINENT":"North America","REGION_UN":"Americas","SUBREGION":"Caribbean","REGION_WB":"Latin America & Caribbean","NAME_LEN":20,"LONG_LEN":24,"ABBREV_LEN":8,"TINY":-99,"HOMEPART":-99,"MIN_ZOOM":0,"MIN_LABEL":5,"MAX_LABEL":10,"NE_ID":1159320737,"WIKIDATAID":"Q18221","NAME_AR":"جزر توركس وكايكوس","NAME_BN":"টার্কস্‌ ও কেইকোস দ্বীপপুঞ্জ","NAME_DE":"Turks- und Caicosinseln","NAME_EN":"Turks and Caicos Islands","NAME_ES":"Islas Turcas y Caicos","NAME_FR":"îles Turques-et-Caïques","NAME_EL":"Τερκ και Κάικος","NAME_HI":"तुर्क और केकोस द्वीपसमूह","NAME_HU":"Turks- és Caicos-szigetek","NAME_ID":"Kepulauan Turks dan Caicos","NAME_IT":"Turks e Caicos","NAME_JA":"タークス・カイコス諸島","NAME_KO":"터크스 케이커스 제도","NAME_NL":"Turks- en Caicoseilanden","NAME_PL":"Turks i Caicos","NAME_PT":"Turks e Caicos","NAME_RU":"Тёркс и Кайкос","NAME_SV":"Turks- och Caicosöarna","NAME_TR":"Turks ve Caicos Adaları","NAME_VI":"Quần đảo Turks và Caicos","NAME_ZH":"特克斯和凯科斯群岛"},"bbox":[-71.953904,21.912993,-71.953904,21.912993],"geometry":{"type":"Point","coordinates":[-71.953904,21.912993]}},{"type":"Feature","properties":{"scalerank":4,"featurecla":"Admin-0 Tiny Countries","sr_label_i":4,"sr_label_o":6,"LABELRANK":5,"SOVEREIGNT":"Netherlands","SOV_A3":"NL1","ADM0_DIF":1,"LEVEL":2,"TYPE":"Country","ADMIN":"Curaçao","ADM0_A3":"CUW","GEOU_DIF":0,"GEOUNIT":"Curaçao","GU_A3":"CUW","SU_DIF":0,"SUBUNIT":"Curaçao","SU_A3":"CUW","BRK_DIFF":0,"NAME":"Curaçao","NAME_LONG":"Curaçao","BRK_A3":"CUW","BRK_NAME":"Curaçao","BRK_GROUP":null,"ABBREV":"Cur.","POSTAL":"CW","FORMAL_EN":"Curaçao","FORMAL_FR":null,"NAME_CIAWF":"Curacao","NOTE_ADM0":"Neth.","NOTE_BRK":null,"NAME_SORT":"Curaçao","NAME_ALT":null,"MAPCOLOR7":4,"MAPCOLOR8":2,"MAPCOLOR9":2,"MAPCOLOR13":9,"POP_EST":149648,"POP_RANK":9,"GDP_MD_EST":3128,"POP_YEAR":2017,"LASTCENSUS":-99,"GDP_YEAR":2012,"ECONOMY":"6. Developing region","INCOME_GRP":"2. High income: nonOECD","WIKIPEDIA":-99,"FIPS_10_":"NT","ISO_A2":"CW","ISO_A3":"CUW","ISO_A3_EH":"CUW","ISO_N3":"531","UN_A3":"531","WB_A2":"CW","WB_A3":"CUW","WOE_ID":-90,"WOE_ID_EH":24549810,"WOE_NOTE":"Expired subunits of Netherlands Antilles (23424914).","ADM0_A3_IS":"CUW","ADM0_A3_US":"CUW","ADM0_A3_UN":-99,"ADM0_A3_WB":-99,"CONTINENT":"North America","REGION_UN":"Americas","SUBREGION":"Caribbean","REGION_WB":"Latin America & Caribbean","NAME_LEN":7,"LONG_LEN":7,"ABBREV_LEN":4,"TINY":4,"HOMEPART":-99,"MIN_ZOOM":0,"MIN_LABEL":5,"MAX_LABEL":10,"NE_ID":1159321099,"WIKIDATAID":"Q25279","NAME_AR":"كوراساو","NAME_BN":"কিউরাসাও","NAME_DE":"Curaçao","NAME_EN":"Curaçao","NAME_ES":"Curazao","NAME_FR":"Curaçao","NAME_EL":"Κουρασάο","NAME_HI":"कुराकाओ","NAME_HU":"Curaçao","NAME_ID":"Curaçao","NAME_IT":"Curaçao","NAME_JA":"キュラソー島","NAME_KO":"퀴라소","NAME_NL":"Curaçao","NAME_PL":"Curaçao","NAME_PT":"Curaçao","NAME_RU":"Кюрасао","NAME_SV":"Curaçao","NAME_TR":"Curaçao","NAME_VI":"Curaçao","NAME_ZH":"库拉索"},"bbox":[-68.852705,12.121957,-68.852705,12.121957],"geometry":{"type":"Point","coordinates":[-68.852705,12.121957]}},{"type":"Feature","properties":{"scalerank":4,"featurecla":"Admin-0 Tiny Countries","sr_label_i":4,"sr_label_o":6,"LABELRANK":5,"SOVEREIGNT":"Netherlands","SOV_A3":"NL1","ADM0_DIF":1,"LEVEL":2,"TYPE":"Country","ADMIN":"Aruba","ADM0_A3":"ABW","GEOU_DIF":0,"GEOUNIT":"Aruba","GU_A3":"ABW","SU_DIF":0,"SUBUNIT":"Aruba","SU_A3":"ABW","BRK_DIFF":0,"NAME":"Aruba","NAME_LONG":"Aruba","BRK_A3":"ABW","BRK_NAME":"Aruba","BRK_GROUP":null,"ABBREV":"Aruba","POSTAL":"AW","FORMAL_EN":"Aruba","FORMAL_FR":null,"NAME_CIAWF":"Aruba","NOTE_ADM0":"Neth.","NOTE_BRK":null,"NAME_SORT":"Aruba","NAME_ALT":null,"MAPCOLOR7":4,"MAPCOLOR8":2,"MAPCOLOR9":2,"MAPCOLOR13":9,"POP_EST":115120,"POP_RANK":9,"GDP_MD_EST":2516,"POP_YEAR":2017,"LASTCENSUS":2010,"GDP_YEAR":2009,"ECONOMY":"6. Developing region","INCOME_GRP":"2. High income: nonOECD","WIKIPEDIA":-99,"FIPS_10_":"AA","ISO_A2":"AW","ISO_A3":"ABW","ISO_A3_EH":"ABW","ISO_N3":"533","UN_A3":"533","WB_A2":"AW","WB_A3":"ABW","WOE_ID":23424736,"WOE_ID_EH":23424736,"WOE_NOTE":"Exact WOE match as country","ADM0_A3_IS":"ABW","ADM0_A3_US":"ABW","ADM0_A3_UN":-99,"ADM0_A3_WB":-99,"CONTINENT":"North America","REGION_UN":"Americas","SUBREGION":"Caribbean","REGION_WB":"Latin America & Caribbean","NAME_LEN":5,"LONG_LEN":5,"ABBREV_LEN":5,"TINY":4,"HOMEPART":-99,"MIN_ZOOM":0,"MIN_LABEL":5,"MAX_LABEL":10,"NE_ID":1159321097,"WIKIDATAID":"Q21203","NAME_AR":"أروبا","NAME_BN":"আরুবা","NAME_DE":"Aruba","NAME_EN":"Aruba","NAME_ES":"Aruba","NAME_FR":"Aruba","NAME_EL":"Αρούμπα","NAME_HI":"अरूबा","NAME_HU":"Aruba","NAME_ID":"Aruba","NAME_IT":"Aruba","NAME_JA":"アルバ","NAME_KO":"아루바","NAME_NL":"Aruba","NAME_PL":"Aruba","NAME_PT":"Aruba","NAME_RU":"Аруба","NAME_SV":"Aruba","NAME_TR":"Aruba","NAME_VI":"Aruba","NAME_ZH":"阿魯巴"},"bbox":[-69.975794,12.513677,-69.975794,12.513677],"geometry":{"type":"Point","coordinates":[-69.975794,12.513677]}},{"type":"Feature","properties":{"scalerank":4,"featurecla":"Admin-0 Tiny Countries","sr_label_i":3,"sr_label_o":6,"LABELRANK":5,"SOVEREIGNT":"United Kingdom","SOV_A3":"GB1","ADM0_DIF":1,"LEVEL":2,"TYPE":"Dependency","ADMIN":"Cayman Islands","ADM0_A3":"CYM","GEOU_DIF":0,"GEOUNIT":"Cayman Islands","GU_A3":"CYM","SU_DIF":0,"SUBUNIT":"Cayman Islands","SU_A3":"CYM","BRK_DIFF":0,"NAME":"Cayman Is.","NAME_LONG":"Cayman Islands","BRK_A3":"CYM","BRK_NAME":"Cayman Is.","BRK_GROUP":null,"ABBREV":"Cym. Is.","POSTAL":"KY","FORMAL_EN":"Cayman Islands","FORMAL_FR":null,"NAME_CIAWF":"Cayman Islands","NOTE_ADM0":"U.K.","NOTE_BRK":null,"NAME_SORT":"Cayman Islands","NAME_ALT":null,"MAPCOLOR7":6,"MAPCOLOR8":6,"MAPCOLOR9":6,"MAPCOLOR13":3,"POP_EST":58441,"POP_RANK":8,"GDP_MD_EST":2507,"POP_YEAR":2017,"LASTCENSUS":2010,"GDP_YEAR":2014,"ECONOMY":"5. Emerging region: G20","INCOME_GRP":"2. High income: nonOECD","WIKIPEDIA":-99,"FIPS_10_":"CJ","ISO_A2":"KY","ISO_A3":"CYM","ISO_A3_EH":"CYM","ISO_N3":"136","UN_A3":"136","WB_A2":"KY","WB_A3":"CYM","WOE_ID":23424783,"WOE_ID_EH":23424783,"WOE_NOTE":"Exact WOE match as country","ADM0_A3_IS":"CYM","ADM0_A3_US":"CYM","ADM0_A3_UN":-99,"ADM0_A3_WB":-99,"CONTINENT":"North America","REGION_UN":"Americas","SUBREGION":"Caribbean","REGION_WB":"Latin America & Caribbean","NAME_LEN":10,"LONG_LEN":14,"ABBREV_LEN":8,"TINY":2,"HOMEPART":-99,"MIN_ZOOM":0,"MIN_LABEL":5,"MAX_LABEL":9.5,"NE_ID":1159320707,"WIKIDATAID":"Q5785","NAME_AR":"جزر كايمان","NAME_BN":"কেইম্যান দ্বীপপুঞ্জ","NAME_DE":"Cayman Islands","NAME_EN":"Cayman Islands","NAME_ES":"Islas Caimán","NAME_FR":"îles Caïmans","NAME_EL":"Νησιά Καϋμάν","NAME_HI":"केमन द्वीपसमूह","NAME_HU":"Kajmán-szigetek","NAME_ID":"Kepulauan Cayman","NAME_IT":"Isole Cayman","NAME_JA":"ケイマン諸島","NAME_KO":"케이맨 제도","NAME_NL":"Kaaimaneilanden","NAME_PL":"Kajmany","NAME_PT":"Ilhas Cayman","NAME_RU":"острова Кайман","NAME_SV":"Caymanöarna","NAME_TR":"Cayman Adaları","NAME_VI":"Quần đảo Cayman","NAME_ZH":"開曼群島"},"bbox":[-81.266036,19.325872,-81.266036,19.325872],"geometry":{"type":"Point","coordinates":[-81.266036,19.325872]}},{"type":"Feature","properties":{"scalerank":2,"featurecla":"Admin-0 Tiny Countries","sr_label_i":3,"sr_label_o":6,"LABELRANK":4,"SOVEREIGNT":"New Zealand","SOV_A3":"NZ1","ADM0_DIF":1,"LEVEL":2,"TYPE":"Dependency","ADMIN":"Cook Islands","ADM0_A3":"COK","GEOU_DIF":0,"GEOUNIT":"Cook Islands","GU_A3":"COK","SU_DIF":0,"SUBUNIT":"Cook Islands","SU_A3":"COK","BRK_DIFF":0,"NAME":"Cook Is.","NAME_LONG":"Cook Islands","BRK_A3":"COK","BRK_NAME":"Cook Is.","BRK_GROUP":null,"ABBREV":"Cook Is.","POSTAL":"CK","FORMAL_EN":null,"FORMAL_FR":null,"NAME_CIAWF":"Cook Islands","NOTE_ADM0":"Assoc. with N.Z.","NOTE_BRK":null,"NAME_SORT":"Cook Islands","NAME_ALT":null,"MAPCOLOR7":3,"MAPCOLOR8":3,"MAPCOLOR9":4,"MAPCOLOR13":4,"POP_EST":9290,"POP_RANK":5,"GDP_MD_EST":244.1,"POP_YEAR":2017,"LASTCENSUS":-99,"GDP_YEAR":2010,"ECONOMY":"6. Developing region","INCOME_GRP":"3. Upper middle income","WIKIPEDIA":-99,"FIPS_10_":"CW","ISO_A2":"CK","ISO_A3":"COK","ISO_A3_EH":"COK","ISO_N3":"184","UN_A3":"184","WB_A2":"-99","WB_A3":"-99","WOE_ID":23424795,"WOE_ID_EH":23424795,"WOE_NOTE":"Exact WOE match as country","ADM0_A3_IS":"COK","ADM0_A3_US":"COK","ADM0_A3_UN":-99,"ADM0_A3_WB":-99,"CONTINENT":"Oceania","REGION_UN":"Oceania","SUBREGION":"Polynesia","REGION_WB":"East Asia & Pacific","NAME_LEN":8,"LONG_LEN":12,"ABBREV_LEN":8,"TINY":3,"HOMEPART":-99,"MIN_ZOOM":0,"MIN_LABEL":4,"MAX_LABEL":9,"NE_ID":1159321129,"WIKIDATAID":"Q26988","NAME_AR":"جزر كوك","NAME_BN":"কুক দ্বীপপুঞ্জ","NAME_DE":"Cookinseln","NAME_EN":"Cook Islands","NAME_ES":"Islas Cook","NAME_FR":"Îles Cook","NAME_EL":"Νήσοι Κουκ","NAME_HI":"कुक द्वीपसमूह","NAME_HU":"Cook-szigetek","NAME_ID":"Kepulauan Cook","NAME_IT":"Isole Cook","NAME_JA":"クック諸島","NAME_KO":"쿡 제도","NAME_NL":"Cookeilanden","NAME_PL":"Wyspy Cooka","NAME_PT":"Ilhas Cook","NAME_RU":"Острова Кука","NAME_SV":"Cooköarna","NAME_TR":"Cook Adaları","NAME_VI":"Quần đảo Cook","NAME_ZH":"库克群岛"},"bbox":[-159.789227,-21.220087,-159.789227,-21.220087],"geometry":{"type":"Point","coordinates":[-159.789227,-21.220087]}},{"type":"Feature","properties":{"scalerank":2,"featurecla":"Admin-0 Tiny Countries","sr_label_i":2,"sr_label_o":4,"LABELRANK":4,"SOVEREIGNT":"Samoa","SOV_A3":"WSM","ADM0_DIF":0,"LEVEL":2,"TYPE":"Sovereign country","ADMIN":"Samoa","ADM0_A3":"WSM","GEOU_DIF":0,"GEOUNIT":"Samoa","GU_A3":"WSM","SU_DIF":0,"SUBUNIT":"Samoa","SU_A3":"WSM","BRK_DIFF":0,"NAME":"Samoa","NAME_LONG":"Samoa","BRK_A3":"WSM","BRK_NAME":"Samoa","BRK_GROUP":null,"ABBREV":"Samoa","POSTAL":"WS","FORMAL_EN":"Independent State of Samoa","FORMAL_FR":null,"NAME_CIAWF":"Samoa","NOTE_ADM0":null,"NOTE_BRK":null,"NAME_SORT":"Samoa","NAME_ALT":null,"MAPCOLOR7":3,"MAPCOLOR8":3,"MAPCOLOR9":4,"MAPCOLOR13":6,"POP_EST":200108,"POP_RANK":10,"GDP_MD_EST":1046,"POP_YEAR":2017,"LASTCENSUS":2006,"GDP_YEAR":2016,"ECONOMY":"7. Least developed region","INCOME_GRP":"4. Lower middle income","WIKIPEDIA":-99,"FIPS_10_":"WS","ISO_A2":"WS","ISO_A3":"WSM","ISO_A3_EH":"WSM","ISO_N3":"882","UN_A3":"882","WB_A2":"WS","WB_A3":"WSM","WOE_ID":23424992,"WOE_ID_EH":23424992,"WOE_NOTE":"Exact WOE match as country","ADM0_A3_IS":"WSM","ADM0_A3_US":"WSM","ADM0_A3_UN":-99,"ADM0_A3_WB":-99,"CONTINENT":"Oceania","REGION_UN":"Oceania","SUBREGION":"Polynesia","REGION_WB":"East Asia & Pacific","NAME_LEN":5,"LONG_LEN":5,"ABBREV_LEN":5,"TINY":-99,"HOMEPART":1,"MIN_ZOOM":0,"MIN_LABEL":3,"MAX_LABEL":8,"NE_ID":1159321423,"WIKIDATAID":"Q683","NAME_AR":"ساموا","NAME_BN":"সামোয়া","NAME_DE":"Samoa","NAME_EN":"Samoa","NAME_ES":"Samoa","NAME_FR":"Samoa","NAME_EL":"Σαμόα","NAME_HI":"समोआ","NAME_HU":"Szamoa","NAME_ID":"Samoa","NAME_IT":"Samoa","NAME_JA":"サモア","NAME_KO":"사모아","NAME_NL":"Samoa","NAME_PL":"Samoa","NAME_PT":"Samoa","NAME_RU":"Самоа","NAME_SV":"Samoa","NAME_TR":"Samoa","NAME_VI":"Samoa","NAME_ZH":"萨摩亚"},"bbox":[-172.41373,-13.63737,-172.41373,-13.63737],"geometry":{"type":"Point","coordinates":[-172.41373,-13.63737]}},{"type":"Feature","properties":{"scalerank":3,"featurecla":"Admin-0 Tiny Countries","sr_label_i":3,"sr_label_o":5,"LABELRANK":4,"SOVEREIGNT":"United States of America","SOV_A3":"US1","ADM0_DIF":1,"LEVEL":2,"TYPE":"Dependency","ADMIN":"American Samoa","ADM0_A3":"ASM","GEOU_DIF":0,"GEOUNIT":"American Samoa","GU_A3":"ASM","SU_DIF":0,"SUBUNIT":"American Samoa","SU_A3":"ASM","BRK_DIFF":0,"NAME":"American Samoa","NAME_LONG":"American Samoa","BRK_A3":"ASM","BRK_NAME":"American Samoa","BRK_GROUP":null,"ABBREV":"Am. Samoa","POSTAL":"AS","FORMAL_EN":"American Samoa","FORMAL_FR":null,"NAME_CIAWF":"American Samoa","NOTE_ADM0":"U.S.A.","NOTE_BRK":null,"NAME_SORT":"American Samoa","NAME_ALT":null,"MAPCOLOR7":4,"MAPCOLOR8":5,"MAPCOLOR9":1,"MAPCOLOR13":1,"POP_EST":51504,"POP_RANK":8,"GDP_MD_EST":711,"POP_YEAR":2017,"LASTCENSUS":2010,"GDP_YEAR":2013,"ECONOMY":"6. Developing region","INCOME_GRP":"3. Upper middle income","WIKIPEDIA":-99,"FIPS_10_":"AQ","ISO_A2":"AS","ISO_A3":"ASM","ISO_A3_EH":"ASM","ISO_N3":"016","UN_A3":"016","WB_A2":"AS","WB_A3":"ASM","WOE_ID":23424746,"WOE_ID_EH":23424746,"WOE_NOTE":"Exact WOE match as country","ADM0_A3_IS":"ASM","ADM0_A3_US":"ASM","ADM0_A3_UN":-99,"ADM0_A3_WB":-99,"CONTINENT":"Oceania","REGION_UN":"Oceania","SUBREGION":"Polynesia","REGION_WB":"East Asia & Pacific","NAME_LEN":14,"LONG_LEN":14,"ABBREV_LEN":9,"TINY":3,"HOMEPART":-99,"MIN_ZOOM":0,"MIN_LABEL":4,"MAX_LABEL":9,"NE_ID":1159321357,"WIKIDATAID":"Q16641","NAME_AR":"ساموا الأمريكية","NAME_BN":"আমেরিকান সামোয়া","NAME_DE":"Amerikanisch-Samoa","NAME_EN":"American Samoa","NAME_ES":"Samoa Estadounidense","NAME_FR":"Samoa américaines","NAME_EL":"Αμερικανική Σαμόα","NAME_HI":"अमेरिकी समोआ","NAME_HU":"Amerikai Szamoa","NAME_ID":"Samoa Amerika","NAME_IT":"Samoa Americane","NAME_JA":"アメリカ領サモア","NAME_KO":"아메리칸사모아","NAME_NL":"Amerikaans-Samoa","NAME_PL":"Samoa Amerykańskie","NAME_PT":"Samoa Americana","NAME_RU":"Американское Самоа","NAME_SV":"Amerikanska Samoa","NAME_TR":"Amerikan Samoası","NAME_VI":"Samoa thuộc Mỹ","NAME_ZH":"美屬薩摩亞"},"bbox":[-170.728298,-14.310235,-170.728298,-14.310235],"geometry":{"type":"Point","coordinates":[-170.728298,-14.310235]}},{"type":"Feature","properties":{"scalerank":3,"featurecla":"Admin-0 Tiny Countries","sr_label_i":3,"sr_label_o":6,"LABELRANK":4,"SOVEREIGNT":"New Zealand","SOV_A3":"NZ1","ADM0_DIF":1,"LEVEL":2,"TYPE":"Dependency","ADMIN":"Niue","ADM0_A3":"NIU","GEOU_DIF":0,"GEOUNIT":"Niue","GU_A3":"NIU","SU_DIF":0,"SUBUNIT":"Niue","SU_A3":"NIU","BRK_DIFF":0,"NAME":"Niue","NAME_LONG":"Niue","BRK_A3":"NIU","BRK_NAME":"Niue","BRK_GROUP":null,"ABBREV":"Niue","POSTAL":"NU","FORMAL_EN":null,"FORMAL_FR":null,"NAME_CIAWF":"Niue","NOTE_ADM0":"Assoc. with N.Z.","NOTE_BRK":null,"NAME_SORT":"Niue","NAME_ALT":null,"MAPCOLOR7":3,"MAPCOLOR8":3,"MAPCOLOR9":4,"MAPCOLOR13":4,"POP_EST":1626,"POP_RANK":3,"GDP_MD_EST":10,"POP_YEAR":2015,"LASTCENSUS":-99,"GDP_YEAR":2003,"ECONOMY":"6. Developing region","INCOME_GRP":"3. Upper middle income","WIKIPEDIA":-99,"FIPS_10_":"NE","ISO_A2":"NU","ISO_A3":"NIU","ISO_A3_EH":"NIU","ISO_N3":"570","UN_A3":"570","WB_A2":"-99","WB_A3":"-99","WOE_ID":23424904,"WOE_ID_EH":23424904,"WOE_NOTE":"Exact WOE match as country","ADM0_A3_IS":"NIU","ADM0_A3_US":"NIU","ADM0_A3_UN":-99,"ADM0_A3_WB":-99,"CONTINENT":"Oceania","REGION_UN":"Oceania","SUBREGION":"Polynesia","REGION_WB":"East Asia & Pacific","NAME_LEN":4,"LONG_LEN":4,"ABBREV_LEN":4,"TINY":3,"HOMEPART":-99,"MIN_ZOOM":0,"MIN_LABEL":4,"MAX_LABEL":9,"NE_ID":1159321133,"WIKIDATAID":"Q34020","NAME_AR":"نييوي","NAME_BN":"নিউয়ে","NAME_DE":"Niue","NAME_EN":"Niue","NAME_ES":"Niue","NAME_FR":"Niue","NAME_EL":"Νιούε","NAME_HI":"निउए","NAME_HU":"Niue","NAME_ID":"Niue","NAME_IT":"Niue","NAME_JA":"ニウエ","NAME_KO":"니우에","NAME_NL":"Niue","NAME_PL":"Niue","NAME_PT":"Niue","NAME_RU":"Ниуэ","NAME_SV":"Niue","NAME_TR":"Niue","NAME_VI":"Niue","NAME_ZH":"紐埃"},"bbox":[-169.869892,-19.054762,-169.869892,-19.054762],"geometry":{"type":"Point","coordinates":[-169.869892,-19.054762]}},{"type":"Feature","properties":{"scalerank":3,"featurecla":"Admin-0 Tiny Countries","sr_label_i":4,"sr_label_o":6,"LABELRANK":6,"SOVEREIGNT":"New Zealand","SOV_A3":"NZ1","ADM0_DIF":1,"LEVEL":3,"TYPE":"Geo unit","ADMIN":"New Zealand","ADM0_A3":"NZL","GEOU_DIF":1,"GEOUNIT":"Tokelau","GU_A3":"TKL","SU_DIF":0,"SUBUNIT":"Tokelau","SU_A3":"TKL","BRK_DIFF":0,"NAME":"Tokelau","NAME_LONG":"Tokelau","BRK_A3":"TKL","BRK_NAME":"Tokelau","BRK_GROUP":null,"ABBREV":"Tkl.","POSTAL":"TK","FORMAL_EN":null,"FORMAL_FR":null,"NAME_CIAWF":"Tokelau","NOTE_ADM0":"N.Z.","NOTE_BRK":null,"NAME_SORT":"Tokelau","NAME_ALT":null,"MAPCOLOR7":3,"MAPCOLOR8":3,"MAPCOLOR9":4,"MAPCOLOR13":4,"POP_EST":1285,"POP_RANK":3,"GDP_MD_EST":1.5,"POP_YEAR":2016,"LASTCENSUS":-99,"GDP_YEAR":1993,"ECONOMY":"7. Least developed region","INCOME_GRP":"5. Low income","WIKIPEDIA":-99,"FIPS_10_":"TL","ISO_A2":"TK","ISO_A3":"TKL","ISO_A3_EH":"TKL","ISO_N3":"772","UN_A3":"772","WB_A2":"-99","WB_A3":"-99","WOE_ID":23424963,"WOE_ID_EH":23424963,"WOE_NOTE":"NE mapunit match","ADM0_A3_IS":"TKL","ADM0_A3_US":"NZL","ADM0_A3_UN":-99,"ADM0_A3_WB":-99,"CONTINENT":"Oceania","REGION_UN":"Oceania","SUBREGION":"Polynesia","REGION_WB":"East Asia & Pacific","NAME_LEN":7,"LONG_LEN":7,"ABBREV_LEN":4,"TINY":-99,"HOMEPART":-99,"MIN_ZOOM":0,"MIN_LABEL":5,"MAX_LABEL":10,"NE_ID":1159321137,"WIKIDATAID":"Q36823","NAME_AR":"توكيلاو","NAME_BN":"টকেল্যু","NAME_DE":"Tokelau","NAME_EN":"Tokelau","NAME_ES":"Tokelau","NAME_FR":"Tokelau","NAME_EL":"Τοκελάου","NAME_HI":null,"NAME_HU":"Tokelau-szigetek","NAME_ID":"Tokelau","NAME_IT":"Tokelau","NAME_JA":"トケラウ","NAME_KO":"토켈라우","NAME_NL":"Tokelau-eilanden","NAME_PL":"Tokelau","NAME_PT":"Tokelau","NAME_RU":"Токелау","NAME_SV":"Tokelau","NAME_TR":"Tokelau","NAME_VI":"Tokelau","NAME_ZH":"托克劳群岛"},"bbox":[-172.485089,-8.564862,-172.485089,-8.564862],"geometry":{"type":"Point","coordinates":[-172.485089,-8.564862]}},{"type":"Feature","properties":{"scalerank":3,"featurecla":"Admin-0 Tiny Countries","sr_label_i":3,"sr_label_o":6,"LABELRANK":4,"SOVEREIGNT":"France","SOV_A3":"FR1","ADM0_DIF":1,"LEVEL":2,"TYPE":"Dependency","ADMIN":"Wallis and Futuna","ADM0_A3":"WLF","GEOU_DIF":0,"GEOUNIT":"Wallis and Futuna","GU_A3":"WLF","SU_DIF":0,"SUBUNIT":"Wallis and Futuna","SU_A3":"WLF","BRK_DIFF":0,"NAME":"Wallis and Futuna Is.","NAME_LONG":"Wallis and Futuna Islands","BRK_A3":"WLF","BRK_NAME":"Wallis and Futuna Islands","BRK_GROUP":null,"ABBREV":"Wlf.","POSTAL":"WF","FORMAL_EN":"Wallis and Futuna Islands","FORMAL_FR":null,"NAME_CIAWF":"Wallis and Futuna","NOTE_ADM0":"Fr.","NOTE_BRK":null,"NAME_SORT":"Wallis and Futuna","NAME_ALT":null,"MAPCOLOR7":7,"MAPCOLOR8":5,"MAPCOLOR9":9,"MAPCOLOR13":11,"POP_EST":15714,"POP_RANK":6,"GDP_MD_EST":60,"POP_YEAR":2017,"LASTCENSUS":-99,"GDP_YEAR":2016,"ECONOMY":"6. Developing region","INCOME_GRP":"4. Lower middle income","WIKIPEDIA":-99,"FIPS_10_":"WF","ISO_A2":"WF","ISO_A3":"WLF","ISO_A3_EH":"WLF","ISO_N3":"876","UN_A3":"876","WB_A2":"-99","WB_A3":"-99","WOE_ID":23424989,"WOE_ID_EH":23424989,"WOE_NOTE":"Exact WOE match as country","ADM0_A3_IS":"WLF","ADM0_A3_US":"WLF","ADM0_A3_UN":-99,"ADM0_A3_WB":-99,"CONTINENT":"Oceania","REGION_UN":"Oceania","SUBREGION":"Polynesia","REGION_WB":"East Asia & Pacific","NAME_LEN":21,"LONG_LEN":25,"ABBREV_LEN":4,"TINY":3,"HOMEPART":-99,"MIN_ZOOM":0,"MIN_LABEL":4.7,"MAX_LABEL":9,"NE_ID":1159320649,"WIKIDATAID":"Q35555","NAME_AR":"واليس وفوتونا","NAME_BN":"ওয়ালিস ও ফুটুনা","NAME_DE":"Wallis und Futuna","NAME_EN":"Wallis and Futuna","NAME_ES":"Wallis y Futuna","NAME_FR":"Wallis-et-Futuna","NAME_EL":"Ουαλίς και Φουτουνά","NAME_HI":"वालिस और फ्यूटुना","NAME_HU":"Wallis és Futuna","NAME_ID":"Wallis dan Futuna","NAME_IT":"Wallis e Futuna","NAME_JA":"ウォリス・フツナ","NAME_KO":"왈리스 퓌튀나","NAME_NL":"Wallis en Futuna","NAME_PL":"Wallis i Futuna","NAME_PT":"Wallis e Futuna","NAME_RU":"Уоллис и Футуна","NAME_SV":"Wallis- och Futunaöarna","NAME_TR":"Wallis ve Futuna Adaları","NAME_VI":"Wallis và Futuna","NAME_ZH":"瓦利斯和富圖納"},"bbox":[-176.164162,-13.27976,-176.164162,-13.27976],"geometry":{"type":"Point","coordinates":[-176.164162,-13.27976]}},{"type":"Feature","properties":{"scalerank":2,"featurecla":"Admin-0 Tiny Countries","sr_label_i":3,"sr_label_o":4,"LABELRANK":4,"SOVEREIGNT":"Tonga","SOV_A3":"TON","ADM0_DIF":0,"LEVEL":2,"TYPE":"Sovereign country","ADMIN":"Tonga","ADM0_A3":"TON","GEOU_DIF":0,"GEOUNIT":"Tonga","GU_A3":"TON","SU_DIF":0,"SUBUNIT":"Tonga","SU_A3":"TON","BRK_DIFF":0,"NAME":"Tonga","NAME_LONG":"Tonga","BRK_A3":"TON","BRK_NAME":"Tonga","BRK_GROUP":null,"ABBREV":"Tongo","POSTAL":"TO","FORMAL_EN":"Kingdom of Tonga","FORMAL_FR":null,"NAME_CIAWF":"Tonga","NOTE_ADM0":null,"NOTE_BRK":null,"NAME_SORT":"Tonga","NAME_ALT":null,"MAPCOLOR7":2,"MAPCOLOR8":1,"MAPCOLOR9":1,"MAPCOLOR13":8,"POP_EST":106479,"POP_RANK":9,"GDP_MD_EST":557,"POP_YEAR":2017,"LASTCENSUS":2006,"GDP_YEAR":2016,"ECONOMY":"6. Developing region","INCOME_GRP":"4. Lower middle income","WIKIPEDIA":-99,"FIPS_10_":"TN","ISO_A2":"TO","ISO_A3":"TON","ISO_A3_EH":"TON","ISO_N3":"776","UN_A3":"776","WB_A2":"TO","WB_A3":"TON","WOE_ID":23424964,"WOE_ID_EH":23424964,"WOE_NOTE":"Exact WOE match as country","ADM0_A3_IS":"TON","ADM0_A3_US":"TON","ADM0_A3_UN":-99,"ADM0_A3_WB":-99,"CONTINENT":"Oceania","REGION_UN":"Oceania","SUBREGION":"Polynesia","REGION_WB":"East Asia & Pacific","NAME_LEN":5,"LONG_LEN":5,"ABBREV_LEN":5,"TINY":3,"HOMEPART":1,"MIN_ZOOM":0,"MIN_LABEL":4,"MAX_LABEL":9,"NE_ID":1159321319,"WIKIDATAID":"Q678","NAME_AR":"تونغا","NAME_BN":"টোঙ্গা","NAME_DE":"Tonga","NAME_EN":"Tonga","NAME_ES":"Tonga","NAME_FR":"Tonga","NAME_EL":"Τόνγκα","NAME_HI":"टोंगा","NAME_HU":"Tonga","NAME_ID":"Tonga","NAME_IT":"Tonga","NAME_JA":"トンガ","NAME_KO":"통가","NAME_NL":"Tonga","NAME_PL":"Tonga","NAME_PT":"Tonga","NAME_RU":"Тонга","NAME_SV":"Tonga","NAME_TR":"Tonga","NAME_VI":"Tonga","NAME_ZH":"東加"},"bbox":[-175.235333,-21.158188,-175.235333,-21.158188],"geometry":{"type":"Point","coordinates":[-175.235333,-21.158188]}},{"type":"Feature","properties":{"scalerank":2,"featurecla":"Admin-0 Tiny Countries","sr_label_i":2,"sr_label_o":5,"LABELRANK":4,"SOVEREIGNT":"France","SOV_A3":"FR1","ADM0_DIF":1,"LEVEL":2,"TYPE":"Dependency","ADMIN":"French Polynesia","ADM0_A3":"PYF","GEOU_DIF":0,"GEOUNIT":"French Polynesia","GU_A3":"PYF","SU_DIF":0,"SUBUNIT":"French Polynesia","SU_A3":"PYF","BRK_DIFF":0,"NAME":"Fr. Polynesia","NAME_LONG":"French Polynesia","BRK_A3":"PYF","BRK_NAME":"Fr. Polynesia","BRK_GROUP":null,"ABBREV":"Fr. Poly.","POSTAL":"PF","FORMAL_EN":"French Polynesia","FORMAL_FR":null,"NAME_CIAWF":"French Polynesia","NOTE_ADM0":"Fr.","NOTE_BRK":null,"NAME_SORT":"French Polynesia","NAME_ALT":null,"MAPCOLOR7":7,"MAPCOLOR8":5,"MAPCOLOR9":9,"MAPCOLOR13":11,"POP_EST":287881,"POP_RANK":10,"GDP_MD_EST":5490,"POP_YEAR":2017,"LASTCENSUS":2007,"GDP_YEAR":2016,"ECONOMY":"6. Developing region","INCOME_GRP":"2. High income: nonOECD","WIKIPEDIA":-99,"FIPS_10_":"FP","ISO_A2":"PF","ISO_A3":"PYF","ISO_A3_EH":"PYF","ISO_N3":"258","UN_A3":"258","WB_A2":"PF","WB_A3":"PYF","WOE_ID":23424817,"WOE_ID_EH":23424817,"WOE_NOTE":"Exact WOE match as country","ADM0_A3_IS":"PYF","ADM0_A3_US":"PYF","ADM0_A3_UN":-99,"ADM0_A3_WB":-99,"CONTINENT":"Oceania","REGION_UN":"Oceania","SUBREGION":"Polynesia","REGION_WB":"East Asia & Pacific","NAME_LEN":13,"LONG_LEN":16,"ABBREV_LEN":9,"TINY":2,"HOMEPART":-99,"MIN_ZOOM":0,"MIN_LABEL":3.5,"MAX_LABEL":8.5,"NE_ID":1159320643,"WIKIDATAID":"Q30971","NAME_AR":"بولينزيا الفرنسية","NAME_BN":"ফরাসি পলিনেশিয়া","NAME_DE":"Französisch-Polynesien","NAME_EN":"French Polynesia","NAME_ES":"Polinesia Francesa","NAME_FR":"Polynésie française","NAME_EL":"Γαλλική Πολυνησία","NAME_HI":"फ़्रान्सीसी पॉलिनेशिया","NAME_HU":"Francia Polinézia","NAME_ID":"Polinesia Perancis","NAME_IT":"Polinesia Francese","NAME_JA":"フランス領ポリネシア","NAME_KO":"프랑스령 폴리네시아","NAME_NL":"Frans-Polynesië","NAME_PL":"Polinezja Francuska","NAME_PT":"Polinésia Francesa","NAME_RU":"Французская Полинезия","NAME_SV":"Franska Polynesien","NAME_TR":"Fransız Polinezyası","NAME_VI":"Polynésie thuộc Pháp","NAME_ZH":"法屬玻里尼西亞"},"bbox":[-149.475496,-17.625005,-149.475496,-17.625005],"geometry":{"type":"Point","coordinates":[-149.475496,-17.625005]}},{"type":"Feature","properties":{"scalerank":2,"featurecla":"Admin-0 Tiny Countries","sr_label_i":3,"sr_label_o":6,"LABELRANK":4,"SOVEREIGNT":"United Kingdom","SOV_A3":"GB1","ADM0_DIF":1,"LEVEL":2,"TYPE":"Dependency","ADMIN":"Pitcairn Islands","ADM0_A3":"PCN","GEOU_DIF":0,"GEOUNIT":"Pitcairn Islands","GU_A3":"PCN","SU_DIF":0,"SUBUNIT":"Pitcairn Islands","SU_A3":"PCN","BRK_DIFF":0,"NAME":"Pitcairn Is.","NAME_LONG":"Pitcairn Islands","BRK_A3":"PCN","BRK_NAME":"Pitcairn Is.","BRK_GROUP":null,"ABBREV":"Pit. Is.","POSTAL":"PN","FORMAL_EN":"Pitcairn, Henderson, Ducie and Oeno Islands","FORMAL_FR":null,"NAME_CIAWF":"Pitcairn Islands","NOTE_ADM0":"U.K.","NOTE_BRK":null,"NAME_SORT":"Pitcairn Islands","NAME_ALT":null,"MAPCOLOR7":6,"MAPCOLOR8":6,"MAPCOLOR9":6,"MAPCOLOR13":3,"POP_EST":54,"POP_RANK":1,"GDP_MD_EST":0,"POP_YEAR":2016,"LASTCENSUS":-99,"GDP_YEAR":2016,"ECONOMY":"7. Least developed region","INCOME_GRP":"5. Low income","WIKIPEDIA":-99,"FIPS_10_":"PC","ISO_A2":"PN","ISO_A3":"PCN","ISO_A3_EH":"PCN","ISO_N3":"612","UN_A3":"612","WB_A2":"-99","WB_A3":"-99","WOE_ID":23424918,"WOE_ID_EH":23424918,"WOE_NOTE":"Exact WOE match as country","ADM0_A3_IS":"PCN","ADM0_A3_US":"PCN","ADM0_A3_UN":-99,"ADM0_A3_WB":-99,"CONTINENT":"Oceania","REGION_UN":"Oceania","SUBREGION":"Polynesia","REGION_WB":"East Asia & Pacific","NAME_LEN":12,"LONG_LEN":16,"ABBREV_LEN":8,"TINY":-99,"HOMEPART":-99,"MIN_ZOOM":0,"MIN_LABEL":5,"MAX_LABEL":9,"NE_ID":1159320729,"WIKIDATAID":"Q35672","NAME_AR":"جزر بيتكيرن","NAME_BN":"পীটকেয়ার্ন দ্বীপপুঞ্জ","NAME_DE":"Pitcairninseln","NAME_EN":"Pitcairn Islands","NAME_ES":"Islas Pitcairn","NAME_FR":"Îles Pitcairn","NAME_EL":"Νήσοι Πίτκερν","NAME_HI":"पिटकेम द्वीप समूह","NAME_HU":"Pitcairn-szigetek","NAME_ID":"Kepulauan Pitcairn","NAME_IT":"Isole Pitcairn","NAME_JA":"ピトケアン諸島","NAME_KO":"핏케언 제도","NAME_NL":"Pitcairneilanden","NAME_PL":"Pitcairn","NAME_PT":"Ilhas Pitcairn","NAME_RU":"Острова Питкэрн","NAME_SV":"Pitcairnöarna","NAME_TR":"Pitcairn Adaları","NAME_VI":"Quần đảo Pitcairn","NAME_ZH":"皮特凯恩群岛"},"bbox":[-128.3178,-24.36414,-128.3178,-24.36414],"geometry":{"type":"Point","coordinates":[-128.3178,-24.36414]}},{"type":"Feature","properties":{"scalerank":6,"featurecla":"Admin-0 Tiny Countries","sr_label_i":4,"sr_label_o":4,"LABELRANK":6,"SOVEREIGNT":"Antigua and Barbuda","SOV_A3":"ATG","ADM0_DIF":0,"LEVEL":2,"TYPE":"Sovereign country","ADMIN":"Antigua and Barbuda","ADM0_A3":"ATG","GEOU_DIF":0,"GEOUNIT":"Antigua and Barbuda","GU_A3":"ATG","SU_DIF":0,"SUBUNIT":"Antigua and Barbuda","SU_A3":"ATG","BRK_DIFF":0,"NAME":"Antigua and Barb.","NAME_LONG":"Antigua and Barbuda","BRK_A3":"ATG","BRK_NAME":"Antigua and Barb.","BRK_GROUP":null,"ABBREV":"Ant.B.","POSTAL":"AG","FORMAL_EN":"Antigua and Barbuda","FORMAL_FR":null,"NAME_CIAWF":"Antigua and Barbuda","NOTE_ADM0":null,"NOTE_BRK":null,"NAME_SORT":"Antigua and Barbuda","NAME_ALT":null,"MAPCOLOR7":2,"MAPCOLOR8":2,"MAPCOLOR9":5,"MAPCOLOR13":5,"POP_EST":94731,"POP_RANK":8,"GDP_MD_EST":2171,"POP_YEAR":2017,"LASTCENSUS":2011,"GDP_YEAR":2016,"ECONOMY":"6. Developing region","INCOME_GRP":"3. Upper middle income","WIKIPEDIA":-99,"FIPS_10_":"AC","ISO_A2":"AG","ISO_A3":"ATG","ISO_A3_EH":"ATG","ISO_N3":"028","UN_A3":"028","WB_A2":"AG","WB_A3":"ATG","WOE_ID":23424737,"WOE_ID_EH":23424737,"WOE_NOTE":"Exact WOE match as country","ADM0_A3_IS":"ATG","ADM0_A3_US":"ATG","ADM0_A3_UN":-99,"ADM0_A3_WB":-99,"CONTINENT":"North America","REGION_UN":"Americas","SUBREGION":"Caribbean","REGION_WB":"Latin America & Caribbean","NAME_LEN":17,"LONG_LEN":19,"ABBREV_LEN":6,"TINY":4,"HOMEPART":1,"MIN_ZOOM":0,"MIN_LABEL":5,"MAX_LABEL":9.5,"NE_ID":1159320345,"WIKIDATAID":"Q781","NAME_AR":"أنتيغوا وباربودا","NAME_BN":"অ্যান্টিগুয়া ও বার্বুডা","NAME_DE":"Antigua und Barbuda","NAME_EN":"Antigua and Barbuda","NAME_ES":"Antigua y Barbuda","NAME_FR":"Antigua-et-Barbuda","NAME_EL":"Αντίγκουα και Μπαρμπούντα","NAME_HI":"अण्टीगुआ और बारबूडा","NAME_HU":"Antigua és Barbuda","NAME_ID":"Antigua dan Barbuda","NAME_IT":"Antigua e Barbuda","NAME_JA":"アンティグア・バーブーダ","NAME_KO":"앤티가 바부다","NAME_NL":"Antigua en Barbuda","NAME_PL":"Antigua i Barbuda","NAME_PT":"Antígua e Barbuda","NAME_RU":"Антигуа и Барбуда","NAME_SV":"Antigua och Barbuda","NAME_TR":"Antigua ve Barbuda","NAME_VI":"Antigua và Barbuda","NAME_ZH":"安提瓜和巴布达"},"bbox":[-61.785804,17.072942,-61.785804,17.072942],"geometry":{"type":"Point","coordinates":[-61.785804,17.072942]}},{"type":"Feature","properties":{"scalerank":4,"featurecla":"Admin-0 Tiny Countries","sr_label_i":4,"sr_label_o":4,"LABELRANK":6,"SOVEREIGNT":"Saint Kitts and Nevis","SOV_A3":"KNA","ADM0_DIF":0,"LEVEL":2,"TYPE":"Sovereign country","ADMIN":"Saint Kitts and Nevis","ADM0_A3":"KNA","GEOU_DIF":0,"GEOUNIT":"Saint Kitts and Nevis","GU_A3":"KNA","SU_DIF":0,"SUBUNIT":"Saint Kitts and Nevis","SU_A3":"KNA","BRK_DIFF":0,"NAME":"St. Kitts and Nevis","NAME_LONG":"Saint Kitts and Nevis","BRK_A3":"KNA","BRK_NAME":"Saint Kitts and Nevis","BRK_GROUP":null,"ABBREV":"St.K.N.","POSTAL":"KN","FORMAL_EN":"Federation of Saint Kitts and Nevis","FORMAL_FR":null,"NAME_CIAWF":"Saint Kitts and Nevis","NOTE_ADM0":null,"NOTE_BRK":null,"NAME_SORT":"St. Kitts and Nevis","NAME_ALT":null,"MAPCOLOR7":1,"MAPCOLOR8":4,"MAPCOLOR9":1,"MAPCOLOR13":8,"POP_EST":52715,"POP_RANK":8,"GDP_MD_EST":1427,"POP_YEAR":2017,"LASTCENSUS":2011,"GDP_YEAR":2016,"ECONOMY":"6. Developing region","INCOME_GRP":"2. High income: nonOECD","WIKIPEDIA":-99,"FIPS_10_":"SC","ISO_A2":"KN","ISO_A3":"KNA","ISO_A3_EH":"KNA","ISO_N3":"659","UN_A3":"659","WB_A2":"KN","WB_A3":"KNA","WOE_ID":23424940,"WOE_ID_EH":23424940,"WOE_NOTE":"Exact WOE match as country","ADM0_A3_IS":"KNA","ADM0_A3_US":"KNA","ADM0_A3_UN":-99,"ADM0_A3_WB":-99,"CONTINENT":"North America","REGION_UN":"Americas","SUBREGION":"Caribbean","REGION_WB":"Latin America & Caribbean","NAME_LEN":19,"LONG_LEN":21,"ABBREV_LEN":7,"TINY":4,"HOMEPART":1,"MIN_ZOOM":0,"MIN_LABEL":5,"MAX_LABEL":10,"NE_ID":1159320983,"WIKIDATAID":"Q763","NAME_AR":"سانت كيتس ونيفيس","NAME_BN":"সেন্ট কিট্‌স ও নেভিস","NAME_DE":"St. Kitts und Nevis","NAME_EN":"Saint Kitts and Nevis","NAME_ES":"San Cristóbal y Nieves","NAME_FR":"Saint-Christophe-et-Niévès","NAME_EL":"Άγιος Χριστόφορος και Νέβις","NAME_HI":"सन्त किट्स और नेविस","NAME_HU":"Saint Kitts és Nevis","NAME_ID":"Saint Kitts dan Nevis","NAME_IT":"Saint Kitts e Nevis","NAME_JA":"セントクリストファー・ネイビス","NAME_KO":"세인트키츠 네비스","NAME_NL":"Saint Kitts en Nevis","NAME_PL":"Saint Kitts i Nevis","NAME_PT":"São Cristóvão e Nevis","NAME_RU":"Сент-Китс и Невис","NAME_SV":"Saint Kitts och Nevis","NAME_TR":"Saint Kitts ve Nevis","NAME_VI":"Saint Kitts và Nevis","NAME_ZH":"聖克里斯多福與尼維斯"},"bbox":[-62.578066,17.147172,-62.578066,17.147172],"geometry":{"type":"Point","coordinates":[-62.578066,17.147172]}},{"type":"Feature","properties":{"scalerank":6,"featurecla":"Admin-0 Tiny Countries","sr_label_i":4,"sr_label_o":4,"LABELRANK":6,"SOVEREIGNT":"France","SOV_A3":"FR1","ADM0_DIF":1,"LEVEL":2,"TYPE":"Dependency","ADMIN":"Saint Martin","ADM0_A3":"MAF","GEOU_DIF":0,"GEOUNIT":"Saint Martin","GU_A3":"MAF","SU_DIF":0,"SUBUNIT":"Saint Martin","SU_A3":"MAF","BRK_DIFF":0,"NAME":"St-Martin","NAME_LONG":"Saint-Martin","BRK_A3":"MAF","BRK_NAME":"Saint-Martin","BRK_GROUP":null,"ABBREV":"St. M.","POSTAL":"MF","FORMAL_EN":"Saint-Martin (French part)","FORMAL_FR":null,"NAME_CIAWF":"Saint Martin","NOTE_ADM0":"Fr.","NOTE_BRK":null,"NAME_SORT":"St. Martin (French part)","NAME_ALT":null,"MAPCOLOR7":7,"MAPCOLOR8":5,"MAPCOLOR9":9,"MAPCOLOR13":11,"POP_EST":32125,"POP_RANK":7,"GDP_MD_EST":561.5,"POP_YEAR":2017,"LASTCENSUS":-99,"GDP_YEAR":2016,"ECONOMY":"6. Developing region","INCOME_GRP":"2. High income: nonOECD","WIKIPEDIA":0,"FIPS_10_":"RN","ISO_A2":"MF","ISO_A3":"MAF","ISO_A3_EH":"MAF","ISO_N3":"663","UN_A3":"663","WB_A2":"MF","WB_A3":"MAF","WOE_ID":56042305,"WOE_ID_EH":56042305,"WOE_NOTE":"Exact WOE match as country","ADM0_A3_IS":"MAF","ADM0_A3_US":"MAF","ADM0_A3_UN":-99,"ADM0_A3_WB":-99,"CONTINENT":"North America","REGION_UN":"Americas","SUBREGION":"Caribbean","REGION_WB":"Latin America & Caribbean","NAME_LEN":9,"LONG_LEN":12,"ABBREV_LEN":6,"TINY":4,"HOMEPART":-99,"MIN_ZOOM":0,"MIN_LABEL":5,"MAX_LABEL":10,"NE_ID":1159320639,"WIKIDATAID":"Q126125","NAME_AR":"تجمع سان مارتين","NAME_BN":null,"NAME_DE":"Saint-Martin","NAME_EN":"Saint Martin","NAME_ES":"San Martín","NAME_FR":"Saint-Martin","NAME_EL":"Άγιος Μαρτίνος","NAME_HI":null,"NAME_HU":"Saint-Martin","NAME_ID":"Saint Martin","NAME_IT":"Saint-Martin","NAME_JA":"サン・マルタン","NAME_KO":"생마르탱","NAME_NL":"Sint-Maarten","NAME_PL":"Saint-Martin","NAME_PT":"São Martinho","NAME_RU":"Сен-Мартен","NAME_SV":"Saint Martin","NAME_TR":"Saint Martin","NAME_VI":"Saint-Martin","NAME_ZH":"法屬聖馬丁"},"bbox":[-63.06039,18.071159,-63.06039,18.071159],"geometry":{"type":"Point","coordinates":[-63.06039,18.071159]}},{"type":"Feature","properties":{"scalerank":6,"featurecla":"Admin-0 Tiny Countries","sr_label_i":4,"sr_label_o":4,"LABELRANK":6,"SOVEREIGNT":"United Kingdom","SOV_A3":"GB1","ADM0_DIF":1,"LEVEL":2,"TYPE":"Dependency","ADMIN":"Anguilla","ADM0_A3":"AIA","GEOU_DIF":0,"GEOUNIT":"Anguilla","GU_A3":"AIA","SU_DIF":0,"SUBUNIT":"Anguilla","SU_A3":"AIA","BRK_DIFF":0,"NAME":"Anguilla","NAME_LONG":"Anguilla","BRK_A3":"AIA","BRK_NAME":"Anguilla","BRK_GROUP":null,"ABBREV":"Ang.","POSTAL":"AI","FORMAL_EN":null,"FORMAL_FR":null,"NAME_CIAWF":"Anguilla","NOTE_ADM0":"U.K.","NOTE_BRK":null,"NAME_SORT":"Anguilla","NAME_ALT":null,"MAPCOLOR7":6,"MAPCOLOR8":6,"MAPCOLOR9":6,"MAPCOLOR13":3,"POP_EST":17087,"POP_RANK":6,"GDP_MD_EST":175.4,"POP_YEAR":2017,"LASTCENSUS":-99,"GDP_YEAR":2009,"ECONOMY":"6. Developing region","INCOME_GRP":"3. Upper middle income","WIKIPEDIA":-99,"FIPS_10_":"AV","ISO_A2":"AI","ISO_A3":"AIA","ISO_A3_EH":"AIA","ISO_N3":"660","UN_A3":"660","WB_A2":"-99","WB_A3":"-99","WOE_ID":23424751,"WOE_ID_EH":23424751,"WOE_NOTE":"Exact WOE match as country","ADM0_A3_IS":"AIA","ADM0_A3_US":"AIA","ADM0_A3_UN":-99,"ADM0_A3_WB":-99,"CONTINENT":"North America","REGION_UN":"Americas","SUBREGION":"Caribbean","REGION_WB":"Latin America & Caribbean","NAME_LEN":8,"LONG_LEN":8,"ABBREV_LEN":4,"TINY":-99,"HOMEPART":-99,"MIN_ZOOM":0,"MIN_LABEL":5,"MAX_LABEL":10,"NE_ID":1159320703,"WIKIDATAID":"Q25228","NAME_AR":"أنغويلا","NAME_BN":"এ্যাঙ্গুইলা","NAME_DE":"Anguilla","NAME_EN":"Anguilla","NAME_ES":"Anguila","NAME_FR":"Anguilla","NAME_EL":"Ανγκουίλα","NAME_HI":"अंगुइला","NAME_HU":"Anguilla","NAME_ID":"Anguilla","NAME_IT":"Anguilla","NAME_JA":"アンギラ","NAME_KO":"앵귈라","NAME_NL":"Anguilla","NAME_PL":"Anguilla","NAME_PT":"Anguilla","NAME_RU":"Ангилья","NAME_SV":"Anguilla","NAME_TR":"Anguilla","NAME_VI":"Anguilla","NAME_ZH":"安圭拉"},"bbox":[-63.052636,18.228321,-63.052636,18.228321],"geometry":{"type":"Point","coordinates":[-63.052636,18.228321]}},{"type":"Feature","properties":{"scalerank":4,"featurecla":"Admin-0 Tiny Countries","sr_label_i":2,"sr_label_o":5,"LABELRANK":5,"SOVEREIGNT":"France","SOV_A3":"FR1","ADM0_DIF":1,"LEVEL":3,"TYPE":"Geo unit","ADMIN":"France","ADM0_A3":"FRA","GEOU_DIF":1,"GEOUNIT":"Guadeloupe","GU_A3":"GLP","SU_DIF":0,"SUBUNIT":"Guadeloupe","SU_A3":"GLP","BRK_DIFF":0,"NAME":"Guadeloupe","NAME_LONG":"Guadeloupe","BRK_A3":"GLP","BRK_NAME":"Guadeloupe","BRK_GROUP":null,"ABBREV":"Guad.","POSTAL":"GP","FORMAL_EN":"Department of Guadeloupe","FORMAL_FR":null,"NAME_CIAWF":null,"NOTE_ADM0":"Fr.","NOTE_BRK":null,"NAME_SORT":"Guadeloupe","NAME_ALT":null,"MAPCOLOR7":7,"MAPCOLOR8":5,"MAPCOLOR9":9,"MAPCOLOR13":11,"POP_EST":481238.05,"POP_RANK":10,"GDP_MD_EST":4219.28,"POP_YEAR":2017,"LASTCENSUS":-99,"GDP_YEAR":2016,"ECONOMY":"1. Developed region: G7","INCOME_GRP":"3. Upper middle income","WIKIPEDIA":-99,"FIPS_10_":"GP","ISO_A2":"GP","ISO_A3":"GLP","ISO_A3_EH":"GLP","ISO_N3":"312","UN_A3":"312","WB_A2":"-99","WB_A3":"-99","WOE_ID":23424831,"WOE_ID_EH":23424831,"WOE_NOTE":"Exact WOE match as country","ADM0_A3_IS":"GLP","ADM0_A3_US":"FRA","ADM0_A3_UN":-99,"ADM0_A3_WB":-99,"CONTINENT":"North America","REGION_UN":"Americas","SUBREGION":"Caribbean","REGION_WB":"Latin America & Caribbean","NAME_LEN":10,"LONG_LEN":10,"ABBREV_LEN":5,"TINY":-99,"HOMEPART":-99,"MIN_ZOOM":0,"MIN_LABEL":5,"MAX_LABEL":10,"NE_ID":1159320653,"WIKIDATAID":"Q17012","NAME_AR":"غوادلوب","NAME_BN":"গুয়াদলুপ","NAME_DE":"Guadeloupe","NAME_EN":"Guadeloupe","NAME_ES":"Guadalupe","NAME_FR":"Guadeloupe","NAME_EL":"Γουαδελούπη","NAME_HI":"गुआदेलूप","NAME_HU":"Guadeloupe","NAME_ID":"Guadeloupe","NAME_IT":"Guadalupa","NAME_JA":"グアドループ","NAME_KO":"과들루프","NAME_NL":"Guadeloupe","NAME_PL":"Gwadelupa","NAME_PT":"Guadalupe","NAME_RU":"Гваделупа","NAME_SV":"Guadeloupe","NAME_TR":"Guadeloupe","NAME_VI":"Guadeloupe","NAME_ZH":"瓜德罗普"},"bbox":[-61.666024,16.179995,-61.666024,16.179995],"geometry":{"type":"Point","coordinates":[-61.666024,16.179995]}},{"type":"Feature","properties":{"scalerank":6,"featurecla":"Admin-0 Tiny Countries","sr_label_i":4,"sr_label_o":4,"LABELRANK":6,"SOVEREIGNT":"Dominica","SOV_A3":"DMA","ADM0_DIF":0,"LEVEL":2,"TYPE":"Sovereign country","ADMIN":"Dominica","ADM0_A3":"DMA","GEOU_DIF":0,"GEOUNIT":"Dominica","GU_A3":"DMA","SU_DIF":0,"SUBUNIT":"Dominica","SU_A3":"DMA","BRK_DIFF":0,"NAME":"Dominica","NAME_LONG":"Dominica","BRK_A3":"DMA","BRK_NAME":"Dominica","BRK_GROUP":null,"ABBREV":"D'inca","POSTAL":"DM","FORMAL_EN":"Commonwealth of Dominica","FORMAL_FR":null,"NAME_CIAWF":"Dominica","NOTE_ADM0":null,"NOTE_BRK":null,"NAME_SORT":"Dominica","NAME_ALT":null,"MAPCOLOR7":4,"MAPCOLOR8":5,"MAPCOLOR9":2,"MAPCOLOR13":12,"POP_EST":73897,"POP_RANK":8,"GDP_MD_EST":812,"POP_YEAR":2017,"LASTCENSUS":2011,"GDP_YEAR":2016,"ECONOMY":"6. Developing region","INCOME_GRP":"3. Upper middle income","WIKIPEDIA":-99,"FIPS_10_":"DO","ISO_A2":"DM","ISO_A3":"DMA","ISO_A3_EH":"DMA","ISO_N3":"212","UN_A3":"212","WB_A2":"DM","WB_A3":"DMA","WOE_ID":23424798,"WOE_ID_EH":23424798,"WOE_NOTE":"Exact WOE match as country","ADM0_A3_IS":"DMA","ADM0_A3_US":"DMA","ADM0_A3_UN":-99,"ADM0_A3_WB":-99,"CONTINENT":"North America","REGION_UN":"Americas","SUBREGION":"Caribbean","REGION_WB":"Latin America & Caribbean","NAME_LEN":8,"LONG_LEN":8,"ABBREV_LEN":6,"TINY":4,"HOMEPART":1,"MIN_ZOOM":0,"MIN_LABEL":4,"MAX_LABEL":9,"NE_ID":1159320543,"WIKIDATAID":"Q784","NAME_AR":"دومينيكا","NAME_BN":"ডোমিনিকা","NAME_DE":"Dominica","NAME_EN":"Dominica","NAME_ES":"Dominica","NAME_FR":"Dominique","NAME_EL":"Δομινίκα","NAME_HI":"डोमिनिका","NAME_HU":"Dominikai Közösség","NAME_ID":"Dominika","NAME_IT":"Dominica","NAME_JA":"ドミニカ国","NAME_KO":"도미니카 연방","NAME_NL":"Dominica","NAME_PL":"Dominika","NAME_PT":"Dominica","NAME_RU":"Доминика","NAME_SV":"Dominica","NAME_TR":"Dominika","NAME_VI":"Dominica","NAME_ZH":"多米尼克"},"bbox":[-61.353676,15.431584,-61.353676,15.431584],"geometry":{"type":"Point","coordinates":[-61.353676,15.431584]}},{"type":"Feature","properties":{"scalerank":4,"featurecla":"Admin-0 Tiny Countries","sr_label_i":3,"sr_label_o":5,"LABELRANK":5,"SOVEREIGNT":"France","SOV_A3":"FR1","ADM0_DIF":1,"LEVEL":3,"TYPE":"Geo unit","ADMIN":"France","ADM0_A3":"FRA","GEOU_DIF":1,"GEOUNIT":"Martinique","GU_A3":"MTQ","SU_DIF":0,"SUBUNIT":"Martinique","SU_A3":"MTQ","BRK_DIFF":0,"NAME":"Martinique","NAME_LONG":"Martinique","BRK_A3":"MTQ","BRK_NAME":"Martinique","BRK_GROUP":null,"ABBREV":"Mtq.","POSTAL":"MQ","FORMAL_EN":"Department of Martinique","FORMAL_FR":null,"NAME_CIAWF":null,"NOTE_ADM0":"Fr.","NOTE_BRK":null,"NAME_SORT":"Martinique","NAME_ALT":null,"MAPCOLOR7":7,"MAPCOLOR8":5,"MAPCOLOR9":9,"MAPCOLOR13":11,"POP_EST":463546.73,"POP_RANK":10,"GDP_MD_EST":7346.81,"POP_YEAR":2017,"LASTCENSUS":-99,"GDP_YEAR":2016,"ECONOMY":"1. Developed region: G7","INCOME_GRP":"1. High income: OECD","WIKIPEDIA":-99,"FIPS_10_":"MB","ISO_A2":"MQ","ISO_A3":"MTQ","ISO_A3_EH":"MTQ","ISO_N3":"474","UN_A3":"474","WB_A2":"-99","WB_A3":"-99","WOE_ID":23424884,"WOE_ID_EH":23424884,"WOE_NOTE":"Exact WOE match as country","ADM0_A3_IS":"MTQ","ADM0_A3_US":"FRA","ADM0_A3_UN":-99,"ADM0_A3_WB":-99,"CONTINENT":"North America","REGION_UN":"Americas","SUBREGION":"Caribbean","REGION_WB":"Latin America & Caribbean","NAME_LEN":10,"LONG_LEN":10,"ABBREV_LEN":4,"TINY":-99,"HOMEPART":-99,"MIN_ZOOM":0,"MIN_LABEL":5,"MAX_LABEL":10,"NE_ID":1159320657,"WIKIDATAID":"Q17054","NAME_AR":"مارتينيك","NAME_BN":"মার্তিনিক","NAME_DE":"Martinique","NAME_EN":"Martinique","NAME_ES":"Martinica","NAME_FR":"Martinique","NAME_EL":"Μαρτινίκα","NAME_HI":"मार्टीनिक","NAME_HU":"Martinique","NAME_ID":"Martinik","NAME_IT":"Martinica","NAME_JA":"マルティニーク","NAME_KO":"마르티니크","NAME_NL":"Martinique","NAME_PL":"Martynika","NAME_PT":"Martinica","NAME_RU":"Мартиника","NAME_SV":"Martinique","NAME_TR":"Martinique","NAME_VI":"Martinique","NAME_ZH":"馬提尼克"},"bbox":[-61.029687,14.684816,-61.029687,14.684816],"geometry":{"type":"Point","coordinates":[-61.029687,14.684816]}},{"type":"Feature","properties":{"scalerank":6,"featurecla":"Admin-0 Tiny Countries","sr_label_i":4,"sr_label_o":4,"LABELRANK":6,"SOVEREIGNT":"Saint Lucia","SOV_A3":"LCA","ADM0_DIF":0,"LEVEL":2,"TYPE":"Sovereign country","ADMIN":"Saint Lucia","ADM0_A3":"LCA","GEOU_DIF":0,"GEOUNIT":"Saint Lucia","GU_A3":"LCA","SU_DIF":0,"SUBUNIT":"Saint Lucia","SU_A3":"LCA","BRK_DIFF":0,"NAME":"Saint Lucia","NAME_LONG":"Saint Lucia","BRK_A3":"LCA","BRK_NAME":"Saint Lucia","BRK_GROUP":null,"ABBREV":"S.L.","POSTAL":"LC","FORMAL_EN":"Saint Lucia","FORMAL_FR":null,"NAME_CIAWF":"Saint Lucia","NOTE_ADM0":null,"NOTE_BRK":null,"NAME_SORT":"St. Lucia","NAME_ALT":null,"MAPCOLOR7":3,"MAPCOLOR8":4,"MAPCOLOR9":3,"MAPCOLOR13":4,"POP_EST":164994,"POP_RANK":9,"GDP_MD_EST":2083,"POP_YEAR":2017,"LASTCENSUS":2010,"GDP_YEAR":2016,"ECONOMY":"6. Developing region","INCOME_GRP":"3. Upper middle income","WIKIPEDIA":-99,"FIPS_10_":"ST","ISO_A2":"LC","ISO_A3":"LCA","ISO_A3_EH":"LCA","ISO_N3":"662","UN_A3":"662","WB_A2":"LC","WB_A3":"LCA","WOE_ID":23424951,"WOE_ID_EH":23424951,"WOE_NOTE":"Exact WOE match as country","ADM0_A3_IS":"LCA","ADM0_A3_US":"LCA","ADM0_A3_UN":-99,"ADM0_A3_WB":-99,"CONTINENT":"North America","REGION_UN":"Americas","SUBREGION":"Caribbean","REGION_WB":"Latin America & Caribbean","NAME_LEN":11,"LONG_LEN":11,"ABBREV_LEN":4,"TINY":4,"HOMEPART":1,"MIN_ZOOM":0,"MIN_LABEL":5,"MAX_LABEL":9.5,"NE_ID":1159321019,"WIKIDATAID":"Q760","NAME_AR":"سانت لوسيا","NAME_BN":"সেন্ট লুসিয়া","NAME_DE":"St. Lucia","NAME_EN":"Saint Lucia","NAME_ES":"Santa Lucía","NAME_FR":"Sainte-Lucie","NAME_EL":"Αγία Λουκία","NAME_HI":"सेंट लूसिया","NAME_HU":"Saint Lucia","NAME_ID":"Saint Lucia","NAME_IT":"Saint Lucia","NAME_JA":"セントルシア","NAME_KO":"세인트루시아","NAME_NL":"Saint Lucia","NAME_PL":"Saint Lucia","NAME_PT":"Santa Lúcia","NAME_RU":"Сент-Люсия","NAME_SV":"Saint Lucia","NAME_TR":"Saint Lucia","NAME_VI":"Saint Lucia","NAME_ZH":"圣卢西亚"},"bbox":[-60.977964,13.878097,-60.977964,13.878097],"geometry":{"type":"Point","coordinates":[-60.977964,13.878097]}},{"type":"Feature","properties":{"scalerank":6,"featurecla":"Admin-0 Tiny Countries","sr_label_i":4,"sr_label_o":4,"LABELRANK":6,"SOVEREIGNT":"Saint Vincent and the Grenadines","SOV_A3":"VCT","ADM0_DIF":0,"LEVEL":2,"TYPE":"Sovereign country","ADMIN":"Saint Vincent and the Grenadines","ADM0_A3":"VCT","GEOU_DIF":0,"GEOUNIT":"Saint Vincent and the Grenadines","GU_A3":"VCT","SU_DIF":0,"SUBUNIT":"Saint Vincent and the Grenadines","SU_A3":"VCT","BRK_DIFF":0,"NAME":"St. Vin. and Gren.","NAME_LONG":"Saint Vincent and the Grenadines","BRK_A3":"VCT","BRK_NAME":"St. Vin. and Gren.","BRK_GROUP":null,"ABBREV":"St.V.G.","POSTAL":"VC","FORMAL_EN":"Saint Vincent and the Grenadines","FORMAL_FR":null,"NAME_CIAWF":"Saint Vincent and the Grenadines","NOTE_ADM0":null,"NOTE_BRK":null,"NAME_SORT":"St. Vincent and the Grenadines","NAME_ALT":null,"MAPCOLOR7":1,"MAPCOLOR8":1,"MAPCOLOR9":5,"MAPCOLOR13":7,"POP_EST":102089,"POP_RANK":9,"GDP_MD_EST":1241,"POP_YEAR":2017,"LASTCENSUS":2011,"GDP_YEAR":2016,"ECONOMY":"6. Developing region","INCOME_GRP":"3. Upper middle income","WIKIPEDIA":-99,"FIPS_10_":"VC","ISO_A2":"VC","ISO_A3":"VCT","ISO_A3_EH":"VCT","ISO_N3":"670","UN_A3":"670","WB_A2":"VC","WB_A3":"VCT","WOE_ID":23424981,"WOE_ID_EH":23424981,"WOE_NOTE":"Exact WOE match as country","ADM0_A3_IS":"VCT","ADM0_A3_US":"VCT","ADM0_A3_UN":-99,"ADM0_A3_WB":-99,"CONTINENT":"North America","REGION_UN":"Americas","SUBREGION":"Caribbean","REGION_WB":"Latin America & Caribbean","NAME_LEN":18,"LONG_LEN":32,"ABBREV_LEN":7,"TINY":-99,"HOMEPART":1,"MIN_ZOOM":0,"MIN_LABEL":5,"MAX_LABEL":10,"NE_ID":1159321409,"WIKIDATAID":"Q757","NAME_AR":"سانت فينسنت والغرينادين","NAME_BN":"সেন্ট ভিনসেন্ট ও গ্রেনাডাইন দ্বীপপুঞ্জ","NAME_DE":"St. Vincent und die Grenadinen","NAME_EN":"Saint Vincent and the Grenadines","NAME_ES":"San Vicente y las Granadinas","NAME_FR":"Saint-Vincent-et-les-Grenadines","NAME_EL":"Άγιος Βικέντιος και Γρεναδίνες","NAME_HI":"सन्त विन्सेण्ट और ग्रेनाडाइन्स","NAME_HU":"Saint Vincent és a Grenadine-szigetek","NAME_ID":"Saint Vincent dan Grenadines","NAME_IT":"Saint Vincent e Grenadine","NAME_JA":"セントビンセント・グレナディーン","NAME_KO":"세인트빈센트 그레나딘","NAME_NL":"Saint Vincent en de Grenadines","NAME_PL":"Saint Vincent i Grenadyny","NAME_PT":"São Vicente e Granadinas","NAME_RU":"Сент-Винсент и Гренадины","NAME_SV":"Saint Vincent och Grenadinerna","NAME_TR":"Saint Vincent ve Grenadinler","NAME_VI":"Saint Vincent và Grenadines","NAME_ZH":"圣文森特和格林纳丁斯"},"bbox":[-61.201711,13.231854,-61.201711,13.231854],"geometry":{"type":"Point","coordinates":[-61.201711,13.231854]}},{"type":"Feature","properties":{"scalerank":6,"featurecla":"Admin-0 Tiny Countries","sr_label_i":4,"sr_label_o":4,"LABELRANK":6,"SOVEREIGNT":"Grenada","SOV_A3":"GRD","ADM0_DIF":0,"LEVEL":2,"TYPE":"Sovereign country","ADMIN":"Grenada","ADM0_A3":"GRD","GEOU_DIF":0,"GEOUNIT":"Grenada","GU_A3":"GRD","SU_DIF":0,"SUBUNIT":"Grenada","SU_A3":"GRD","BRK_DIFF":0,"NAME":"Grenada","NAME_LONG":"Grenada","BRK_A3":"GRD","BRK_NAME":"Grenada","BRK_GROUP":null,"ABBREV":"Gren.","POSTAL":"GD","FORMAL_EN":"Grenada","FORMAL_FR":null,"NAME_CIAWF":"Grenada","NOTE_ADM0":null,"NOTE_BRK":null,"NAME_SORT":"Grenada","NAME_ALT":null,"MAPCOLOR7":2,"MAPCOLOR8":4,"MAPCOLOR9":3,"MAPCOLOR13":6,"POP_EST":111724,"POP_RANK":9,"GDP_MD_EST":1511,"POP_YEAR":2017,"LASTCENSUS":2011,"GDP_YEAR":2016,"ECONOMY":"6. Developing region","INCOME_GRP":"3. Upper middle income","WIKIPEDIA":-99,"FIPS_10_":"GJ","ISO_A2":"GD","ISO_A3":"GRD","ISO_A3_EH":"GRD","ISO_N3":"308","UN_A3":"308","WB_A2":"GD","WB_A3":"GRD","WOE_ID":23424826,"WOE_ID_EH":23424826,"WOE_NOTE":"Exact WOE match as country","ADM0_A3_IS":"GRD","ADM0_A3_US":"GRD","ADM0_A3_UN":-99,"ADM0_A3_WB":-99,"CONTINENT":"North America","REGION_UN":"Americas","SUBREGION":"Caribbean","REGION_WB":"Latin America & Caribbean","NAME_LEN":7,"LONG_LEN":7,"ABBREV_LEN":5,"TINY":-99,"HOMEPART":1,"MIN_ZOOM":0,"MIN_LABEL":4,"MAX_LABEL":9,"NE_ID":1159320813,"WIKIDATAID":"Q769","NAME_AR":"غرينادا","NAME_BN":"গ্রেনাডা","NAME_DE":"Grenada","NAME_EN":"Grenada","NAME_ES":"Granada","NAME_FR":"Grenade","NAME_EL":"Γρενάδα","NAME_HI":"ग्रेनाडा","NAME_HU":"Grenada","NAME_ID":"Grenada","NAME_IT":"Grenada","NAME_JA":"グレナダ","NAME_KO":"그레나다","NAME_NL":"Grenada","NAME_PL":"Grenada","NAME_PT":"Granada","NAME_RU":"Гренада","NAME_SV":"Grenada","NAME_TR":"Grenada","NAME_VI":"Grenada","NAME_ZH":"格林纳达"},"bbox":[-61.676858,12.108371,-61.676858,12.108371],"geometry":{"type":"Point","coordinates":[-61.676858,12.108371]}},{"type":"Feature","properties":{"scalerank":2,"featurecla":"Admin-0 Tiny Countries","sr_label_i":3,"sr_label_o":5,"LABELRANK":5,"SOVEREIGNT":"Barbados","SOV_A3":"BRB","ADM0_DIF":0,"LEVEL":2,"TYPE":"Sovereign country","ADMIN":"Barbados","ADM0_A3":"BRB","GEOU_DIF":0,"GEOUNIT":"Barbados","GU_A3":"BRB","SU_DIF":0,"SUBUNIT":"Barbados","SU_A3":"BRB","BRK_DIFF":0,"NAME":"Barbados","NAME_LONG":"Barbados","BRK_A3":"BRB","BRK_NAME":"Barbados","BRK_GROUP":null,"ABBREV":"Barb.","POSTAL":"BB","FORMAL_EN":"Barbados","FORMAL_FR":null,"NAME_CIAWF":"Barbados","NOTE_ADM0":null,"NOTE_BRK":null,"NAME_SORT":"Barbados","NAME_ALT":null,"MAPCOLOR7":4,"MAPCOLOR8":1,"MAPCOLOR9":5,"MAPCOLOR13":3,"POP_EST":292336,"POP_RANK":10,"GDP_MD_EST":4804,"POP_YEAR":2017,"LASTCENSUS":2010,"GDP_YEAR":2016,"ECONOMY":"6. Developing region","INCOME_GRP":"2. High income: nonOECD","WIKIPEDIA":-99,"FIPS_10_":"BB","ISO_A2":"BB","ISO_A3":"BRB","ISO_A3_EH":"BRB","ISO_N3":"052","UN_A3":"052","WB_A2":"BB","WB_A3":"BRB","WOE_ID":23424754,"WOE_ID_EH":23424754,"WOE_NOTE":"Exact WOE match as country","ADM0_A3_IS":"BRB","ADM0_A3_US":"BRB","ADM0_A3_UN":-99,"ADM0_A3_WB":-99,"CONTINENT":"North America","REGION_UN":"Americas","SUBREGION":"Caribbean","REGION_WB":"Latin America & Caribbean","NAME_LEN":8,"LONG_LEN":8,"ABBREV_LEN":5,"TINY":3,"HOMEPART":1,"MIN_ZOOM":0,"MIN_LABEL":4.5,"MAX_LABEL":9.5,"NE_ID":1159320449,"WIKIDATAID":"Q244","NAME_AR":"باربادوس","NAME_BN":"বার্বাডোস","NAME_DE":"Barbados","NAME_EN":"Barbados","NAME_ES":"Barbados","NAME_FR":"Barbade","NAME_EL":"Μπαρμπάντος","NAME_HI":"बारबाडोस","NAME_HU":"Barbados","NAME_ID":"Barbados","NAME_IT":"Barbados","NAME_JA":"バルバドス","NAME_KO":"바베이도스","NAME_NL":"Barbados","NAME_PL":"Barbados","NAME_PT":"Barbados","NAME_RU":"Барбадос","NAME_SV":"Barbados","NAME_TR":"Barbados","NAME_VI":"Barbados","NAME_ZH":"巴巴多斯"},"bbox":[-59.554306,13.174672,-59.554306,13.174672],"geometry":{"type":"Point","coordinates":[-59.554306,13.174672]}},{"type":"Feature","properties":{"scalerank":2,"featurecla":"Admin-0 Tiny Countries","sr_label_i":2,"sr_label_o":5,"LABELRANK":5,"SOVEREIGNT":"Trinidad and Tobago","SOV_A3":"TTO","ADM0_DIF":0,"LEVEL":2,"TYPE":"Sovereign country","ADMIN":"Trinidad and Tobago","ADM0_A3":"TTO","GEOU_DIF":0,"GEOUNIT":"Trinidad and Tobago","GU_A3":"TTO","SU_DIF":0,"SUBUNIT":"Trinidad and Tobago","SU_A3":"TTO","BRK_DIFF":0,"NAME":"Trinidad and Tobago","NAME_LONG":"Trinidad and Tobago","BRK_A3":"TTO","BRK_NAME":"Trinidad and Tobago","BRK_GROUP":null,"ABBREV":"Tr.T.","POSTAL":"TT","FORMAL_EN":"Republic of Trinidad and Tobago","FORMAL_FR":null,"NAME_CIAWF":"Trinidad and Tobago","NOTE_ADM0":null,"NOTE_BRK":null,"NAME_SORT":"Trinidad and Tobago","NAME_ALT":null,"MAPCOLOR7":5,"MAPCOLOR8":6,"MAPCOLOR9":2,"MAPCOLOR13":5,"POP_EST":1218208,"POP_RANK":12,"GDP_MD_EST":43570,"POP_YEAR":2017,"LASTCENSUS":2011,"GDP_YEAR":2016,"ECONOMY":"6. Developing region","INCOME_GRP":"2. High income: nonOECD","WIKIPEDIA":-99,"FIPS_10_":"TD","ISO_A2":"TT","ISO_A3":"TTO","ISO_A3_EH":"TTO","ISO_N3":"780","UN_A3":"780","WB_A2":"TT","WB_A3":"TTO","WOE_ID":23424958,"WOE_ID_EH":23424958,"WOE_NOTE":"Exact WOE match as country","ADM0_A3_IS":"TTO","ADM0_A3_US":"TTO","ADM0_A3_UN":-99,"ADM0_A3_WB":-99,"CONTINENT":"North America","REGION_UN":"Americas","SUBREGION":"Caribbean","REGION_WB":"Latin America & Caribbean","NAME_LEN":19,"LONG_LEN":19,"ABBREV_LEN":5,"TINY":2,"HOMEPART":1,"MIN_ZOOM":0,"MIN_LABEL":4.5,"MAX_LABEL":9.5,"NE_ID":1159321321,"WIKIDATAID":"Q754","NAME_AR":"ترينيداد وتوباغو","NAME_BN":"ত্রিনিদাদ ও টোবাগো","NAME_DE":"Trinidad und Tobago","NAME_EN":"Trinidad and Tobago","NAME_ES":"Trinidad y Tobago","NAME_FR":"Trinité-et-Tobago","NAME_EL":"Τρινιντάντ και Τομπάγκο","NAME_HI":"त्रिनिदाद और टोबैगो","NAME_HU":"Trinidad és Tobago","NAME_ID":"Trinidad dan Tobago","NAME_IT":"Trinidad e Tobago","NAME_JA":"トリニダード・トバゴ","NAME_KO":"트리니다드 토바고","NAME_NL":"Trinidad en Tobago","NAME_PL":"Trynidad i Tobago","NAME_PT":"Trinidad e Tobago","NAME_RU":"Тринидад и Тобаго","NAME_SV":"Trinidad och Tobago","NAME_TR":"Trinidad ve Tobago","NAME_VI":"Trinidad và Tobago","NAME_ZH":"千里達及托巴哥"},"bbox":[-61.255189,10.436803,-61.255189,10.436803],"geometry":{"type":"Point","coordinates":[-61.255189,10.436803]}},{"type":"Feature","properties":{"scalerank":2,"featurecla":"Admin-0 Tiny Countries","sr_label_i":3,"sr_label_o":4,"LABELRANK":6,"SOVEREIGNT":"São Tomé and Principe","SOV_A3":"STP","ADM0_DIF":0,"LEVEL":2,"TYPE":"Sovereign country","ADMIN":"São Tomé and Principe","ADM0_A3":"STP","GEOU_DIF":0,"GEOUNIT":"São Tomé and Principe","GU_A3":"STP","SU_DIF":0,"SUBUNIT":"São Tomé and Principe","SU_A3":"STP","BRK_DIFF":0,"NAME":"São Tomé and Principe","NAME_LONG":"São Tomé and Principe","BRK_A3":"STP","BRK_NAME":"Sao Tome and Principe","BRK_GROUP":null,"ABBREV":"S.T.P.","POSTAL":"ST","FORMAL_EN":"Democratic Republic of São Tomé and Principe","FORMAL_FR":null,"NAME_CIAWF":"Sao Tome and Principe","NOTE_ADM0":null,"NOTE_BRK":null,"NAME_SORT":"Sao Tome and Principe","NAME_ALT":null,"MAPCOLOR7":1,"MAPCOLOR8":6,"MAPCOLOR9":1,"MAPCOLOR13":7,"POP_EST":201025,"POP_RANK":10,"GDP_MD_EST":694,"POP_YEAR":2017,"LASTCENSUS":2001,"GDP_YEAR":2016,"ECONOMY":"7. Least developed region","INCOME_GRP":"4. Lower middle income","WIKIPEDIA":-99,"FIPS_10_":"TP","ISO_A2":"ST","ISO_A3":"STP","ISO_A3_EH":"STP","ISO_N3":"678","UN_A3":"678","WB_A2":"ST","WB_A3":"STP","WOE_ID":23424966,"WOE_ID_EH":23424966,"WOE_NOTE":"Exact WOE match as country","ADM0_A3_IS":"STP","ADM0_A3_US":"STP","ADM0_A3_UN":-99,"ADM0_A3_WB":-99,"CONTINENT":"Africa","REGION_UN":"Africa","SUBREGION":"Middle Africa","REGION_WB":"Sub-Saharan Africa","NAME_LEN":21,"LONG_LEN":21,"ABBREV_LEN":6,"TINY":3,"HOMEPART":1,"MIN_ZOOM":0,"MIN_LABEL":5,"MAX_LABEL":10,"NE_ID":1159321273,"WIKIDATAID":"Q1039","NAME_AR":"ساو تومي وبرينسيب","NAME_BN":"সাঁউ তুমি ও প্রিন্সিপি","NAME_DE":"São Tomé und Príncipe","NAME_EN":"São Tomé and Príncipe","NAME_ES":"Santo Tomé y Príncipe","NAME_FR":"Sao Tomé-et-Principe","NAME_EL":"Σάο Τομέ και Πρίνσιπε","NAME_HI":"साओ तोमे और प्रिन्सिपी","NAME_HU":"São Tomé és Príncipe","NAME_ID":"Sao Tome dan Principe","NAME_IT":"São Tomé e Príncipe","NAME_JA":"サントメ・プリンシペ","NAME_KO":"상투메 프린시페","NAME_NL":"Sao Tomé en Principe","NAME_PL":"Wyspy Świętego Tomasza i Książęca","NAME_PT":"São Tomé e Príncipe","NAME_RU":"Сан-Томе и Принсипи","NAME_SV":"São Tomé och Príncipe","NAME_TR":"São Tomé ve Príncipe","NAME_VI":"São Tomé và Príncipe","NAME_ZH":"圣多美和普林西比"},"bbox":[6.617199,0.246807,6.617199,0.246807],"geometry":{"type":"Point","coordinates":[6.617199,0.246807]}},{"type":"Feature","properties":{"scalerank":2,"featurecla":"Admin-0 Tiny Countries","sr_label_i":3,"sr_label_o":6,"LABELRANK":6,"SOVEREIGNT":"United Kingdom","SOV_A3":"GB1","ADM0_DIF":1,"LEVEL":4,"TYPE":"Geo subunit","ADMIN":"Saint Helena","ADM0_A3":"SHN","GEOU_DIF":0,"GEOUNIT":"Saint Helena","GU_A3":"SHN","SU_DIF":1,"SUBUNIT":"Ascension","SU_A3":"BAC","BRK_DIFF":0,"NAME":"Ascension","NAME_LONG":"Ascension","BRK_A3":"BAC","BRK_NAME":"Ascension","BRK_GROUP":null,"ABBREV":"Asc.","POSTAL":"AS","FORMAL_EN":null,"FORMAL_FR":null,"NAME_CIAWF":null,"NOTE_ADM0":"U.K.","NOTE_BRK":null,"NAME_SORT":"Ascension","NAME_ALT":null,"MAPCOLOR7":6,"MAPCOLOR8":6,"MAPCOLOR9":6,"MAPCOLOR13":3,"POP_EST":963.03,"POP_RANK":2,"GDP_MD_EST":93.97,"POP_YEAR":2017,"LASTCENSUS":-99,"GDP_YEAR":2016,"ECONOMY":"6. Developing region","INCOME_GRP":"4. Lower middle income","WIKIPEDIA":-99,"FIPS_10_":"-99","ISO_A2":"-99","ISO_A3":"-99","ISO_A3_EH":"-99","ISO_N3":"-99","UN_A3":"-099","WB_A2":"-99","WB_A3":"-99","WOE_ID":20069822,"WOE_ID_EH":20069822,"WOE_NOTE":"WOE admin-1 (territory) match.","ADM0_A3_IS":"SHN","ADM0_A3_US":"SHN","ADM0_A3_UN":-99,"ADM0_A3_WB":-99,"CONTINENT":"Seven seas (open ocean)","REGION_UN":"Seven seas (open ocean)","SUBREGION":"Seven seas (open ocean)","REGION_WB":"Antarctica","NAME_LEN":9,"LONG_LEN":9,"ABBREV_LEN":4,"TINY":3,"HOMEPART":-99,"MIN_ZOOM":0,"MIN_LABEL":5,"MAX_LABEL":10,"NE_ID":1159320751,"WIKIDATAID":"Q46197","NAME_AR":"جزيرة أسينشين","NAME_BN":"আসেনশন দ্বীপ","NAME_DE":"Ascension","NAME_EN":"Ascension Island","NAME_ES":"Isla Ascensión","NAME_FR":"île de l'Ascension","NAME_EL":"Νήσος Αναλήψεως","NAME_HI":"असेन्शियन द्वीप","NAME_HU":"Ascension-sziget","NAME_ID":"Ascension","NAME_IT":"Isola di Ascensione","NAME_JA":"アセンション島","NAME_KO":"어센션 섬","NAME_NL":"Ascension","NAME_PL":"Wyspa Wniebowstąpienia","NAME_PT":"Ilha de Ascensão","NAME_RU":"Остров Вознесения","NAME_SV":"Ascension","NAME_TR":"Ascension Adası","NAME_VI":"Đảo Ascension","NAME_ZH":"阿森松岛"},"bbox":[-14.362068,-7.939247,-14.362068,-7.939247],"geometry":{"type":"Point","coordinates":[-14.362068,-7.939247]}},{"type":"Feature","properties":{"scalerank":2,"featurecla":"Admin-0 Tiny Countries","sr_label_i":2,"sr_label_o":6,"LABELRANK":6,"SOVEREIGNT":"United Kingdom","SOV_A3":"GB1","ADM0_DIF":1,"LEVEL":2,"TYPE":"Dependency","ADMIN":"Saint Helena","ADM0_A3":"SHN","GEOU_DIF":0,"GEOUNIT":"Saint Helena","GU_A3":"SHN","SU_DIF":0,"SUBUNIT":"Saint Helena","SU_A3":"SHN","BRK_DIFF":0,"NAME":"Saint Helena","NAME_LONG":"Saint Helena","BRK_A3":"SHN","BRK_NAME":"Saint Helena","BRK_GROUP":null,"ABBREV":"St.H.","POSTAL":"SH","FORMAL_EN":null,"FORMAL_FR":null,"NAME_CIAWF":"Saint Helena, Ascension, and Tristan da Cunha","NOTE_ADM0":"U.K.","NOTE_BRK":null,"NAME_SORT":"St. Helena","NAME_ALT":null,"MAPCOLOR7":6,"MAPCOLOR8":6,"MAPCOLOR9":6,"MAPCOLOR13":3,"POP_EST":7828,"POP_RANK":5,"GDP_MD_EST":31.1,"POP_YEAR":2017,"LASTCENSUS":-99,"GDP_YEAR":2010,"ECONOMY":"6. Developing region","INCOME_GRP":"4. Lower middle income","WIKIPEDIA":-99,"FIPS_10_":"SH","ISO_A2":"SH","ISO_A3":"SHN","ISO_A3_EH":"SHN","ISO_N3":"654","UN_A3":"654","WB_A2":"-99","WB_A3":"-99","WOE_ID":23424944,"WOE_ID_EH":23424944,"WOE_NOTE":"Exact WOE match as country","ADM0_A3_IS":"SHN","ADM0_A3_US":"SHN","ADM0_A3_UN":-99,"ADM0_A3_WB":-99,"CONTINENT":"Seven seas (open ocean)","REGION_UN":"Africa","SUBREGION":"Western Africa","REGION_WB":"Sub-Saharan Africa","NAME_LEN":12,"LONG_LEN":12,"ABBREV_LEN":5,"TINY":-99,"HOMEPART":-99,"MIN_ZOOM":0,"MIN_LABEL":5,"MAX_LABEL":10,"NE_ID":1159320733,"WIKIDATAID":"Q34497","NAME_AR":"سانت هيلينا","NAME_BN":"সেন্ট হেলেনা","NAME_DE":"St. Helena","NAME_EN":"Saint Helena","NAME_ES":"Isla Santa Elena","NAME_FR":"Sainte-Hélène","NAME_EL":"Νήσος Αγίας Ελένης","NAME_HI":"सन्त हेलेना","NAME_HU":"Szent Ilona","NAME_ID":"Saint Helena","NAME_IT":"Sant'Elena","NAME_JA":"セントヘレナ","NAME_KO":"세인트헬레나","NAME_NL":"Sint-Helena","NAME_PL":"Wyspa Świętej Heleny","NAME_PT":"Santa Helena","NAME_RU":"Остров Святой Елены","NAME_SV":"Sankta Helena","NAME_TR":"Saint Helena","NAME_VI":"Saint Helena","NAME_ZH":"圣赫勒拿岛"},"bbox":[-5.716296,-15.963222,-5.716296,-15.963222],"geometry":{"type":"Point","coordinates":[-5.716296,-15.963222]}},{"type":"Feature","properties":{"scalerank":2,"featurecla":"Admin-0 Tiny Countries","sr_label_i":3,"sr_label_o":5,"LABELRANK":5,"SOVEREIGNT":"Malta","SOV_A3":"MLT","ADM0_DIF":0,"LEVEL":2,"TYPE":"Sovereign country","ADMIN":"Malta","ADM0_A3":"MLT","GEOU_DIF":0,"GEOUNIT":"Malta","GU_A3":"MLT","SU_DIF":0,"SUBUNIT":"Malta","SU_A3":"MLT","BRK_DIFF":0,"NAME":"Malta","NAME_LONG":"Malta","BRK_A3":"MLT","BRK_NAME":"Malta","BRK_GROUP":null,"ABBREV":"Malta","POSTAL":"M","FORMAL_EN":"Republic of Malta","FORMAL_FR":null,"NAME_CIAWF":"Malta","NOTE_ADM0":null,"NOTE_BRK":null,"NAME_SORT":"Malta","NAME_ALT":null,"MAPCOLOR7":1,"MAPCOLOR8":4,"MAPCOLOR9":1,"MAPCOLOR13":8,"POP_EST":416338,"POP_RANK":10,"GDP_MD_EST":16320,"POP_YEAR":2017,"LASTCENSUS":2005,"GDP_YEAR":2016,"ECONOMY":"2. Developed region: nonG7","INCOME_GRP":"2. High income: nonOECD","WIKIPEDIA":-99,"FIPS_10_":"MT","ISO_A2":"MT","ISO_A3":"MLT","ISO_A3_EH":"MLT","ISO_N3":"470","UN_A3":"470","WB_A2":"MT","WB_A3":"MLT","WOE_ID":23424897,"WOE_ID_EH":23424897,"WOE_NOTE":"Exact WOE match as country","ADM0_A3_IS":"MLT","ADM0_A3_US":"MLT","ADM0_A3_UN":-99,"ADM0_A3_WB":-99,"CONTINENT":"Europe","REGION_UN":"Europe","SUBREGION":"Southern Europe","REGION_WB":"Middle East & North Africa","NAME_LEN":5,"LONG_LEN":5,"ABBREV_LEN":5,"TINY":3,"HOMEPART":1,"MIN_ZOOM":0,"MIN_LABEL":4,"MAX_LABEL":9,"NE_ID":1159321065,"WIKIDATAID":"Q233","NAME_AR":"مالطا","NAME_BN":"মাল্টা","NAME_DE":"Malta","NAME_EN":"Malta","NAME_ES":"Malta","NAME_FR":"Malte","NAME_EL":"Μάλτα","NAME_HI":"माल्टा","NAME_HU":"Málta","NAME_ID":"Malta","NAME_IT":"Malta","NAME_JA":"マルタ","NAME_KO":"몰타","NAME_NL":"Malta","NAME_PL":"Malta","NAME_PT":"Malta","NAME_RU":"Мальта","NAME_SV":"Malta","NAME_TR":"Malta","NAME_VI":"Malta","NAME_ZH":"马耳他"},"bbox":[14.438179,35.882081,14.438179,35.882081],"geometry":{"type":"Point","coordinates":[14.438179,35.882081]}},{"type":"Feature","properties":{"scalerank":2,"featurecla":"Admin-0 Tiny Countries","sr_label_i":2,"sr_label_o":2,"LABELRANK":4,"SOVEREIGNT":"Bahrain","SOV_A3":"BHR","ADM0_DIF":0,"LEVEL":2,"TYPE":"Sovereign country","ADMIN":"Bahrain","ADM0_A3":"BHR","GEOU_DIF":0,"GEOUNIT":"Bahrain","GU_A3":"BHR","SU_DIF":0,"SUBUNIT":"Bahrain","SU_A3":"BHR","BRK_DIFF":0,"NAME":"Bahrain","NAME_LONG":"Bahrain","BRK_A3":"BHR","BRK_NAME":"Bahrain","BRK_GROUP":null,"ABBREV":"Bahr.","POSTAL":"BH","FORMAL_EN":"Kingdom of Bahrain","FORMAL_FR":null,"NAME_CIAWF":"Bahrain","NOTE_ADM0":null,"NOTE_BRK":null,"NAME_SORT":"Bahrain","NAME_ALT":null,"MAPCOLOR7":1,"MAPCOLOR8":1,"MAPCOLOR9":1,"MAPCOLOR13":9,"POP_EST":1410942,"POP_RANK":12,"GDP_MD_EST":66370,"POP_YEAR":2017,"LASTCENSUS":2010,"GDP_YEAR":2016,"ECONOMY":"6. Developing region","INCOME_GRP":"2. High income: nonOECD","WIKIPEDIA":-99,"FIPS_10_":"BA","ISO_A2":"BH","ISO_A3":"BHR","ISO_A3_EH":"BHR","ISO_N3":"048","UN_A3":"048","WB_A2":"BH","WB_A3":"BHR","WOE_ID":23424753,"WOE_ID_EH":23424753,"WOE_NOTE":"Exact WOE match as country","ADM0_A3_IS":"BHR","ADM0_A3_US":"BHR","ADM0_A3_UN":-99,"ADM0_A3_WB":-99,"CONTINENT":"Asia","REGION_UN":"Asia","SUBREGION":"Western Asia","REGION_WB":"Middle East & North Africa","NAME_LEN":7,"LONG_LEN":7,"ABBREV_LEN":5,"TINY":2,"HOMEPART":1,"MIN_ZOOM":0,"MIN_LABEL":4,"MAX_LABEL":9,"NE_ID":1159320413,"WIKIDATAID":"Q398","NAME_AR":"البحرين","NAME_BN":"বাহরাইন","NAME_DE":"Bahrain","NAME_EN":"Bahrain","NAME_ES":"Baréin","NAME_FR":"Bahreïn","NAME_EL":"Μπαχρέιν","NAME_HI":"बहरीन","NAME_HU":"Bahrein","NAME_ID":"Bahrain","NAME_IT":"Bahrein","NAME_JA":"バーレーン","NAME_KO":"바레인","NAME_NL":"Bahrein","NAME_PL":"Bahrajn","NAME_PT":"Bahrein","NAME_RU":"Бахрейн","NAME_SV":"Bahrain","NAME_TR":"Bahreyn","NAME_VI":"Bahrain","NAME_ZH":"巴林"},"bbox":[50.553638,26.069443,50.553638,26.069443],"geometry":{"type":"Point","coordinates":[50.553638,26.069443]}},{"type":"Feature","properties":{"scalerank":2,"featurecla":"Admin-0 Tiny Countries","sr_label_i":2,"sr_label_o":4,"LABELRANK":5,"SOVEREIGNT":"Maldives","SOV_A3":"MDV","ADM0_DIF":0,"LEVEL":2,"TYPE":"Sovereign country","ADMIN":"Maldives","ADM0_A3":"MDV","GEOU_DIF":0,"GEOUNIT":"Maldives","GU_A3":"MDV","SU_DIF":0,"SUBUNIT":"Maldives","SU_A3":"MDV","BRK_DIFF":0,"NAME":"Maldives","NAME_LONG":"Maldives","BRK_A3":"MDV","BRK_NAME":"Maldives","BRK_GROUP":null,"ABBREV":"Mald.","POSTAL":"MV","FORMAL_EN":"Republic of Maldives","FORMAL_FR":null,"NAME_CIAWF":"Maldives","NOTE_ADM0":null,"NOTE_BRK":null,"NAME_SORT":"Maldives","NAME_ALT":null,"MAPCOLOR7":2,"MAPCOLOR8":3,"MAPCOLOR9":1,"MAPCOLOR13":7,"POP_EST":392709,"POP_RANK":10,"GDP_MD_EST":5407,"POP_YEAR":2017,"LASTCENSUS":2011,"GDP_YEAR":2016,"ECONOMY":"6. Developing region","INCOME_GRP":"3. Upper middle income","WIKIPEDIA":-99,"FIPS_10_":"MV","ISO_A2":"MV","ISO_A3":"MDV","ISO_A3_EH":"MDV","ISO_N3":"462","UN_A3":"462","WB_A2":"MV","WB_A3":"MDV","WOE_ID":23424899,"WOE_ID_EH":23424899,"WOE_NOTE":"Exact WOE match as country","ADM0_A3_IS":"MDV","ADM0_A3_US":"B13","ADM0_A3_UN":-99,"ADM0_A3_WB":-99,"CONTINENT":"Seven seas (open ocean)","REGION_UN":"Asia","SUBREGION":"Southern Asia","REGION_WB":"South Asia","NAME_LEN":8,"LONG_LEN":8,"ABBREV_LEN":5,"TINY":2,"HOMEPART":1,"MIN_ZOOM":0,"MIN_LABEL":4,"MAX_LABEL":9,"NE_ID":1159321053,"WIKIDATAID":"Q826","NAME_AR":"جزر المالديف","NAME_BN":"মালদ্বীপ","NAME_DE":"Malediven","NAME_EN":"Maldives","NAME_ES":"Maldivas","NAME_FR":"Maldives","NAME_EL":"Μαλδίβες","NAME_HI":"मालदीव","NAME_HU":"Maldív-szigetek","NAME_ID":"Maladewa","NAME_IT":"Maldive","NAME_JA":"モルディブ","NAME_KO":"몰디브","NAME_NL":"Maldiven","NAME_PL":"Malediwy","NAME_PT":"Maldivas","NAME_RU":"Мальдивы","NAME_SV":"Maldiverna","NAME_TR":"Maldivler","NAME_VI":"Maldives","NAME_ZH":"马尔代夫"},"bbox":[73.502231,4.186659,73.502231,4.186659],"geometry":{"type":"Point","coordinates":[73.502231,4.186659]}},{"type":"Feature","properties":{"scalerank":2,"featurecla":"Admin-0 Tiny Countries","sr_label_i":2,"sr_label_o":6,"LABELRANK":5,"SOVEREIGNT":"United Kingdom","SOV_A3":"GB1","ADM0_DIF":1,"LEVEL":2,"TYPE":"Dependency","ADMIN":"British Indian Ocean Territory","ADM0_A3":"IOT","GEOU_DIF":0,"GEOUNIT":"British Indian Ocean Territory","GU_A3":"IOT","SU_DIF":0,"SUBUNIT":"British Indian Ocean Territory","SU_A3":"IOT","BRK_DIFF":1,"NAME":"Br. Indian Ocean Ter.","NAME_LONG":"British Indian Ocean Territory","BRK_A3":"B69","BRK_NAME":"Br. Indian Ocean Ter.","BRK_GROUP":null,"ABBREV":"I.O.T.","POSTAL":"IO","FORMAL_EN":null,"FORMAL_FR":null,"NAME_CIAWF":null,"NOTE_ADM0":"U.K.","NOTE_BRK":"Admin. by U.K.; Claimed by Mauritius and Seychelles","NAME_SORT":"British Indian Ocean Territory","NAME_ALT":null,"MAPCOLOR7":6,"MAPCOLOR8":6,"MAPCOLOR9":6,"MAPCOLOR13":3,"POP_EST":4000,"POP_RANK":4,"GDP_MD_EST":160,"POP_YEAR":2013,"LASTCENSUS":-99,"GDP_YEAR":2013,"ECONOMY":"2. Developed region: nonG7","INCOME_GRP":"2. High income: nonOECD","WIKIPEDIA":-99,"FIPS_10_":"IO","ISO_A2":"IO","ISO_A3":"IOT","ISO_A3_EH":"IOT","ISO_N3":"086","UN_A3":"-099","WB_A2":"-99","WB_A3":"-99","WOE_ID":23424849,"WOE_ID_EH":23424849,"WOE_NOTE":"Exact WOE match as country","ADM0_A3_IS":"IOT","ADM0_A3_US":"IOT","ADM0_A3_UN":-99,"ADM0_A3_WB":-99,"CONTINENT":"Seven seas (open ocean)","REGION_UN":"Seven seas (open ocean)","SUBREGION":"Seven seas (open ocean)","REGION_WB":"Sub-Saharan Africa","NAME_LEN":21,"LONG_LEN":30,"ABBREV_LEN":6,"TINY":5,"HOMEPART":-99,"MIN_ZOOM":0,"MIN_LABEL":5,"MAX_LABEL":9.5,"NE_ID":1159320723,"WIKIDATAID":"Q43448","NAME_AR":"إقليم المحيط الهندي البريطاني","NAME_BN":"ব্রিটিশ ভারত মহাসাগরীয় এলাকা","NAME_DE":"Britisches Territorium im Indischen Ozean","NAME_EN":"British Indian Ocean Territory","NAME_ES":"Territorio Británico del Océano Índico","NAME_FR":"Territoire britannique de l'océan Indien","NAME_EL":"Βρετανικό Έδαφος Ινδικού Ωκεανού","NAME_HI":"ब्रिटिश हिंद महासागर क्षेत्र","NAME_HU":"Brit Indiai-óceáni Terület","NAME_ID":"Wilayah Samudra Hindia Britania","NAME_IT":"Territorio britannico dell'oceano Indiano","NAME_JA":"イギリス領インド洋地域","NAME_KO":"영국령 인도양 지역","NAME_NL":"Brits Indische Oceaanterritorium","NAME_PL":"Brytyjskie Terytorium Oceanu Indyjskiego","NAME_PT":"Território Britânico do Oceano Índico","NAME_RU":"Британская территория в Индийском океане","NAME_SV":"Brittiska territoriet i Indiska oceanen","NAME_TR":"Britanya Hint Okyanusu Toprakları","NAME_VI":"Lãnh thổ Ấn Độ Dương thuộc Anh","NAME_ZH":"英屬印度洋領地"},"bbox":[72.478729,-7.340706,72.478729,-7.340706],"geometry":{"type":"Point","coordinates":[72.478729,-7.340706]}},{"type":"Feature","properties":{"scalerank":2,"featurecla":"Admin-0 Tiny Countries","sr_label_i":3,"sr_label_o":3,"LABELRANK":6,"SOVEREIGNT":"Singapore","SOV_A3":"SGP","ADM0_DIF":0,"LEVEL":2,"TYPE":"Sovereign country","ADMIN":"Singapore","ADM0_A3":"SGP","GEOU_DIF":0,"GEOUNIT":"Singapore","GU_A3":"SGP","SU_DIF":0,"SUBUNIT":"Singapore","SU_A3":"SGP","BRK_DIFF":0,"NAME":"Singapore","NAME_LONG":"Singapore","BRK_A3":"SGP","BRK_NAME":"Singapore","BRK_GROUP":null,"ABBREV":"Sing.","POSTAL":"SG","FORMAL_EN":"Republic of Singapore","FORMAL_FR":null,"NAME_CIAWF":"Singapore","NOTE_ADM0":null,"NOTE_BRK":null,"NAME_SORT":"Singapore","NAME_ALT":null,"MAPCOLOR7":5,"MAPCOLOR8":3,"MAPCOLOR9":7,"MAPCOLOR13":3,"POP_EST":5888926,"POP_RANK":13,"GDP_MD_EST":487900,"POP_YEAR":2017,"LASTCENSUS":2010,"GDP_YEAR":2016,"ECONOMY":"6. Developing region","INCOME_GRP":"2. High income: nonOECD","WIKIPEDIA":-99,"FIPS_10_":"SN","ISO_A2":"SG","ISO_A3":"SGP","ISO_A3_EH":"SGP","ISO_N3":"702","UN_A3":"702","WB_A2":"SG","WB_A3":"SGP","WOE_ID":23424948,"WOE_ID_EH":23424948,"WOE_NOTE":"Exact WOE match as country","ADM0_A3_IS":"SGP","ADM0_A3_US":"SGP","ADM0_A3_UN":-99,"ADM0_A3_WB":-99,"CONTINENT":"Asia","REGION_UN":"Asia","SUBREGION":"South-Eastern Asia","REGION_WB":"East Asia & Pacific","NAME_LEN":9,"LONG_LEN":9,"ABBREV_LEN":5,"TINY":3,"HOMEPART":1,"MIN_ZOOM":0,"MIN_LABEL":4,"MAX_LABEL":9,"NE_ID":1159321247,"WIKIDATAID":"Q334","NAME_AR":"سنغافورة","NAME_BN":"সিঙ্গাপুর","NAME_DE":"Singapur","NAME_EN":"Singapore","NAME_ES":"Singapur","NAME_FR":"Singapour","NAME_EL":"Σιγκαπούρη","NAME_HI":"सिंगापुर","NAME_HU":"Szingapúr","NAME_ID":"Singapura","NAME_IT":"Singapore","NAME_JA":"シンガポール","NAME_KO":"싱가포르","NAME_NL":"Singapore","NAME_PL":"Singapur","NAME_PT":"Singapura","NAME_RU":"Сингапур","NAME_SV":"Singapore","NAME_TR":"Singapur","NAME_VI":"Singapore","NAME_ZH":"新加坡"},"bbox":[103.81482,1.359364,103.81482,1.359364],"geometry":{"type":"Point","coordinates":[103.81482,1.359364]}},{"type":"Feature","properties":{"scalerank":2,"featurecla":"Admin-0 Tiny Countries","sr_label_i":2,"sr_label_o":2,"LABELRANK":6,"SOVEREIGNT":"Brunei","SOV_A3":"BRN","ADM0_DIF":0,"LEVEL":2,"TYPE":"Sovereign country","ADMIN":"Brunei","ADM0_A3":"BRN","GEOU_DIF":0,"GEOUNIT":"Brunei","GU_A3":"BRN","SU_DIF":0,"SUBUNIT":"Brunei","SU_A3":"BRN","BRK_DIFF":0,"NAME":"Brunei","NAME_LONG":"Brunei Darussalam","BRK_A3":"BRN","BRK_NAME":"Brunei","BRK_GROUP":null,"ABBREV":"Brunei","POSTAL":"BN","FORMAL_EN":"Negara Brunei Darussalam","FORMAL_FR":null,"NAME_CIAWF":"Brunei","NOTE_ADM0":null,"NOTE_BRK":null,"NAME_SORT":"Brunei","NAME_ALT":null,"MAPCOLOR7":4,"MAPCOLOR8":6,"MAPCOLOR9":6,"MAPCOLOR13":12,"POP_EST":443593,"POP_RANK":10,"GDP_MD_EST":33730,"POP_YEAR":2017,"LASTCENSUS":2001,"GDP_YEAR":2016,"ECONOMY":"6. Developing region","INCOME_GRP":"2. High income: nonOECD","WIKIPEDIA":-99,"FIPS_10_":"BX","ISO_A2":"BN","ISO_A3":"BRN","ISO_A3_EH":"BRN","ISO_N3":"096","UN_A3":"096","WB_A2":"BN","WB_A3":"BRN","WOE_ID":23424773,"WOE_ID_EH":23424773,"WOE_NOTE":"Exact WOE match as country","ADM0_A3_IS":"BRN","ADM0_A3_US":"BRN","ADM0_A3_UN":-99,"ADM0_A3_WB":-99,"CONTINENT":"Asia","REGION_UN":"Asia","SUBREGION":"South-Eastern Asia","REGION_WB":"East Asia & Pacific","NAME_LEN":6,"LONG_LEN":17,"ABBREV_LEN":6,"TINY":2,"HOMEPART":1,"MIN_ZOOM":0,"MIN_LABEL":4,"MAX_LABEL":9,"NE_ID":1159320451,"WIKIDATAID":"Q921","NAME_AR":"بروناي","NAME_BN":"ব্রুনাই","NAME_DE":"Brunei","NAME_EN":"Brunei","NAME_ES":"Brunéi","NAME_FR":"Brunei","NAME_EL":"Μπρουνέι","NAME_HI":"ब्रुनेई","NAME_HU":"Brunei","NAME_ID":"Brunei Darussalam","NAME_IT":"Brunei","NAME_JA":"ブルネイ","NAME_KO":"브루나이","NAME_NL":"Brunei","NAME_PL":"Brunei","NAME_PT":"Brunei","NAME_RU":"Бруней","NAME_SV":"Brunei","NAME_TR":"Brunei","NAME_VI":"Brunei","NAME_ZH":"文莱"},"bbox":[114.567455,4.434669,114.567455,4.434669],"geometry":{"type":"Point","coordinates":[114.567455,4.434669]}},{"type":"Feature","properties":{"scalerank":2,"featurecla":"Admin-0 Tiny Countries","sr_label_i":2,"sr_label_o":6,"LABELRANK":6,"SOVEREIGNT":"Palau","SOV_A3":"PLW","ADM0_DIF":0,"LEVEL":2,"TYPE":"Sovereign country","ADMIN":"Palau","ADM0_A3":"PLW","GEOU_DIF":0,"GEOUNIT":"Palau","GU_A3":"PLW","SU_DIF":0,"SUBUNIT":"Palau","SU_A3":"PLW","BRK_DIFF":0,"NAME":"Palau","NAME_LONG":"Palau","BRK_A3":"PLW","BRK_NAME":"Palau","BRK_GROUP":null,"ABBREV":"Palau","POSTAL":"PW","FORMAL_EN":"Republic of Palau","FORMAL_FR":null,"NAME_CIAWF":"Palau","NOTE_ADM0":null,"NOTE_BRK":null,"NAME_SORT":"Palau","NAME_ALT":null,"MAPCOLOR7":2,"MAPCOLOR8":5,"MAPCOLOR9":1,"MAPCOLOR13":12,"POP_EST":21431,"POP_RANK":7,"GDP_MD_EST":276,"POP_YEAR":2017,"LASTCENSUS":2010,"GDP_YEAR":2016,"ECONOMY":"6. Developing region","INCOME_GRP":"3. Upper middle income","WIKIPEDIA":-99,"FIPS_10_":"PS","ISO_A2":"PW","ISO_A3":"PLW","ISO_A3_EH":"PLW","ISO_N3":"585","UN_A3":"585","WB_A2":"PW","WB_A3":"PLW","WOE_ID":23424927,"WOE_ID_EH":23424927,"WOE_NOTE":"Exact WOE match as country","ADM0_A3_IS":"PLW","ADM0_A3_US":"PLW","ADM0_A3_UN":-99,"ADM0_A3_WB":-99,"CONTINENT":"Oceania","REGION_UN":"Oceania","SUBREGION":"Micronesia","REGION_WB":"East Asia & Pacific","NAME_LEN":5,"LONG_LEN":5,"ABBREV_LEN":5,"TINY":2,"HOMEPART":1,"MIN_ZOOM":0,"MIN_LABEL":5,"MAX_LABEL":10,"NE_ID":1159321171,"WIKIDATAID":"Q695","NAME_AR":"بالاو","NAME_BN":"পালাউ","NAME_DE":"Palau","NAME_EN":"Palau","NAME_ES":"Palaos","NAME_FR":"Palaos","NAME_EL":"Παλάου","NAME_HI":"पलाउ","NAME_HU":"Palau","NAME_ID":"Palau","NAME_IT":"Palau","NAME_JA":"パラオ","NAME_KO":"팔라우","NAME_NL":"Palau","NAME_PL":"Palau","NAME_PT":"Palau","NAME_RU":"Палау","NAME_SV":"Palau","NAME_TR":"Palau","NAME_VI":"Palau","NAME_ZH":"帛琉"},"bbox":[134.579241,7.507494,134.579241,7.507494],"geometry":{"type":"Point","coordinates":[134.579241,7.507494]}},{"type":"Feature","properties":{"scalerank":2,"featurecla":"Admin-0 Tiny Countries","sr_label_i":3,"sr_label_o":6,"LABELRANK":6,"SOVEREIGNT":"United States of America","SOV_A3":"US1","ADM0_DIF":1,"LEVEL":2,"TYPE":"Dependency","ADMIN":"Northern Mariana Islands","ADM0_A3":"MNP","GEOU_DIF":0,"GEOUNIT":"Northern Mariana Islands","GU_A3":"MNP","SU_DIF":0,"SUBUNIT":"Northern Mariana Islands","SU_A3":"MNP","BRK_DIFF":0,"NAME":"N. Mariana Is.","NAME_LONG":"Northern Mariana Islands","BRK_A3":"MNP","BRK_NAME":"N. Mariana Is.","BRK_GROUP":null,"ABBREV":"N.M.I.","POSTAL":"MP","FORMAL_EN":"Commonwealth of the Northern Mariana Islands","FORMAL_FR":null,"NAME_CIAWF":"Northern Mariana Islands","NOTE_ADM0":"Commonwealth of U.S.A.","NOTE_BRK":null,"NAME_SORT":"Northern Mariana Islands","NAME_ALT":null,"MAPCOLOR7":4,"MAPCOLOR8":5,"MAPCOLOR9":1,"MAPCOLOR13":1,"POP_EST":52263,"POP_RANK":8,"GDP_MD_EST":682,"POP_YEAR":2017,"LASTCENSUS":2010,"GDP_YEAR":2013,"ECONOMY":"6. Developing region","INCOME_GRP":"2. High income: nonOECD","WIKIPEDIA":-99,"FIPS_10_":"CQ","ISO_A2":"MP","ISO_A3":"MNP","ISO_A3_EH":"MNP","ISO_N3":"580","UN_A3":"580","WB_A2":"MP","WB_A3":"MNP","WOE_ID":23424788,"WOE_ID_EH":23424788,"WOE_NOTE":"Exact WOE match as country","ADM0_A3_IS":"MNP","ADM0_A3_US":"MNP","ADM0_A3_UN":-99,"ADM0_A3_WB":-99,"CONTINENT":"Oceania","REGION_UN":"Oceania","SUBREGION":"Micronesia","REGION_WB":"East Asia & Pacific","NAME_LEN":14,"LONG_LEN":24,"ABBREV_LEN":6,"TINY":3,"HOMEPART":-99,"MIN_ZOOM":0,"MIN_LABEL":5,"MAX_LABEL":10,"NE_ID":1159321361,"WIKIDATAID":"Q16644","NAME_AR":"جزر ماريانا الشمالية","NAME_BN":"উত্তর মারিয়ানা দ্বীপপুঞ্জ","NAME_DE":"Nördliche Marianen","NAME_EN":"Northern Mariana Islands","NAME_ES":"Islas Marianas del Norte","NAME_FR":"îles Mariannes du Nord","NAME_EL":"Βόρειες Μαριάνες Νήσοι","NAME_HI":"उत्तरी मारियाना द्वीप","NAME_HU":"Északi-Mariana-szigetek","NAME_ID":"Kepulauan Mariana Utara","NAME_IT":"Isole Marianne Settentrionali","NAME_JA":"北マリアナ諸島","NAME_KO":"북마리아나 제도","NAME_NL":"Noordelijke Marianen","NAME_PL":"Mariany Północne","NAME_PT":"Marianas Setentrionais","NAME_RU":"Северные Марианские острова","NAME_SV":"Nordmarianerna","NAME_TR":"Kuzey Mariana Adaları","NAME_VI":"Quần đảo Bắc Mariana","NAME_ZH":"北马里亚纳群岛"},"bbox":[145.739263,15.174637,145.739263,15.174637],"geometry":{"type":"Point","coordinates":[145.739263,15.174637]}},{"type":"Feature","properties":{"scalerank":2,"featurecla":"Admin-0 Tiny Countries","sr_label_i":2,"sr_label_o":6,"LABELRANK":6,"SOVEREIGNT":"United States of America","SOV_A3":"US1","ADM0_DIF":1,"LEVEL":2,"TYPE":"Dependency","ADMIN":"Guam","ADM0_A3":"GUM","GEOU_DIF":0,"GEOUNIT":"Guam","GU_A3":"GUM","SU_DIF":0,"SUBUNIT":"Guam","SU_A3":"GUM","BRK_DIFF":0,"NAME":"Guam","NAME_LONG":"Guam","BRK_A3":"GUM","BRK_NAME":"Guam","BRK_GROUP":null,"ABBREV":"Guam","POSTAL":"GU","FORMAL_EN":"Territory of Guam","FORMAL_FR":null,"NAME_CIAWF":"Guam","NOTE_ADM0":"U.S.A.","NOTE_BRK":null,"NAME_SORT":"Guam","NAME_ALT":null,"MAPCOLOR7":4,"MAPCOLOR8":5,"MAPCOLOR9":1,"MAPCOLOR13":1,"POP_EST":167358,"POP_RANK":9,"GDP_MD_EST":4882,"POP_YEAR":2017,"LASTCENSUS":2010,"GDP_YEAR":2013,"ECONOMY":"6. Developing region","INCOME_GRP":"2. High income: nonOECD","WIKIPEDIA":-99,"FIPS_10_":"GQ","ISO_A2":"GU","ISO_A3":"GUM","ISO_A3_EH":"GUM","ISO_N3":"316","UN_A3":"316","WB_A2":"GU","WB_A3":"GUM","WOE_ID":23424832,"WOE_ID_EH":23424832,"WOE_NOTE":"Exact WOE match as country","ADM0_A3_IS":"GUM","ADM0_A3_US":"GUM","ADM0_A3_UN":-99,"ADM0_A3_WB":-99,"CONTINENT":"Oceania","REGION_UN":"Oceania","SUBREGION":"Micronesia","REGION_WB":"East Asia & Pacific","NAME_LEN":4,"LONG_LEN":4,"ABBREV_LEN":4,"TINY":2,"HOMEPART":-99,"MIN_ZOOM":0,"MIN_LABEL":3,"MAX_LABEL":10,"NE_ID":1159321359,"WIKIDATAID":"Q16635","NAME_AR":"غوام","NAME_BN":"গুয়াম","NAME_DE":"Guam","NAME_EN":"Guam","NAME_ES":"Guam","NAME_FR":"Guam","NAME_EL":"Γκουάμ","NAME_HI":"गुआम","NAME_HU":"Guam","NAME_ID":"Guam","NAME_IT":"Guam","NAME_JA":"グアム","NAME_KO":"괌","NAME_NL":"Guam","NAME_PL":"Guam","NAME_PT":"Guam","NAME_RU":"Гуам","NAME_SV":"Guam","NAME_TR":"Guam","NAME_VI":"Guam","NAME_ZH":"關島"},"bbox":[144.770038,13.459685,144.770038,13.459685],"geometry":{"type":"Point","coordinates":[144.770038,13.459685]}},{"type":"Feature","properties":{"scalerank":2,"featurecla":"Admin-0 Tiny Countries","sr_label_i":3,"sr_label_o":6,"LABELRANK":6,"SOVEREIGNT":"Federated States of Micronesia","SOV_A3":"FSM","ADM0_DIF":0,"LEVEL":2,"TYPE":"Sovereign country","ADMIN":"Federated States of Micronesia","ADM0_A3":"FSM","GEOU_DIF":0,"GEOUNIT":"Federated States of Micronesia","GU_A3":"FSM","SU_DIF":0,"SUBUNIT":"Federated States of Micronesia","SU_A3":"FSM","BRK_DIFF":0,"NAME":"Micronesia","NAME_LONG":"Federated States of Micronesia","BRK_A3":"FSM","BRK_NAME":"Micronesia","BRK_GROUP":null,"ABBREV":"F.S.M.","POSTAL":"FSM","FORMAL_EN":"Federated States of Micronesia","FORMAL_FR":null,"NAME_CIAWF":"Micronesia, Federated States of","NOTE_ADM0":null,"NOTE_BRK":null,"NAME_SORT":"Micronesia, Federated States of","NAME_ALT":null,"MAPCOLOR7":5,"MAPCOLOR8":2,"MAPCOLOR9":4,"MAPCOLOR13":13,"POP_EST":104196,"POP_RANK":9,"GDP_MD_EST":314,"POP_YEAR":2017,"LASTCENSUS":2000,"GDP_YEAR":2016,"ECONOMY":"6. Developing region","INCOME_GRP":"4. Lower middle income","WIKIPEDIA":-99,"FIPS_10_":"FM","ISO_A2":"FM","ISO_A3":"FSM","ISO_A3_EH":"FSM","ISO_N3":"583","UN_A3":"583","WB_A2":"FM","WB_A3":"FSM","WOE_ID":23424815,"WOE_ID_EH":23424815,"WOE_NOTE":"Exact WOE match as country","ADM0_A3_IS":"FSM","ADM0_A3_US":"FSM","ADM0_A3_UN":-99,"ADM0_A3_WB":-99,"CONTINENT":"Oceania","REGION_UN":"Oceania","SUBREGION":"Micronesia","REGION_WB":"East Asia & Pacific","NAME_LEN":10,"LONG_LEN":30,"ABBREV_LEN":6,"TINY":-99,"HOMEPART":1,"MIN_ZOOM":0,"MIN_LABEL":5,"MAX_LABEL":10,"NE_ID":1159320691,"WIKIDATAID":"Q702","NAME_AR":"ولايات ميكرونيسيا المتحدة","NAME_BN":"মাইক্রোনেশিয়া যুক্তরাজ্য","NAME_DE":"Mikronesien","NAME_EN":"Federated States of Micronesia","NAME_ES":"Micronesia","NAME_FR":"Micronésie","NAME_EL":"Μικρονησία","NAME_HI":"माइक्रोनेशिया के संघीकृत राज्य","NAME_HU":"Mikronéziai Szövetségi Államok","NAME_ID":"Mikronesia","NAME_IT":"Stati Federati di Micronesia","NAME_JA":"ミクロネシア連邦","NAME_KO":"미크로네시아 연방","NAME_NL":"Micronesia","NAME_PL":"Mikronezja","NAME_PT":"Micronésia","NAME_RU":"Микронезия","NAME_SV":"Mikronesiens federerade stater","NAME_TR":"Mikronezya","NAME_VI":"Micronesia","NAME_ZH":"密克罗尼西亚联邦"},"bbox":[158.242015,6.885942,158.242015,6.885942],"geometry":{"type":"Point","coordinates":[158.242015,6.885942]}},{"type":"Feature","properties":{"scalerank":2,"featurecla":"Admin-0 Tiny Countries","sr_label_i":2,"sr_label_o":6,"LABELRANK":6,"SOVEREIGNT":"Marshall Islands","SOV_A3":"MHL","ADM0_DIF":0,"LEVEL":2,"TYPE":"Sovereign country","ADMIN":"Marshall Islands","ADM0_A3":"MHL","GEOU_DIF":0,"GEOUNIT":"Marshall Islands","GU_A3":"MHL","SU_DIF":0,"SUBUNIT":"Marshall Islands","SU_A3":"MHL","BRK_DIFF":0,"NAME":"Marshall Is.","NAME_LONG":"Marshall Islands","BRK_A3":"MHL","BRK_NAME":"Marshall Is.","BRK_GROUP":null,"ABBREV":"M. Is.","POSTAL":"MH","FORMAL_EN":"Republic of the Marshall Islands","FORMAL_FR":null,"NAME_CIAWF":"Marshall Islands","NOTE_ADM0":null,"NOTE_BRK":null,"NAME_SORT":"Marshall Islands","NAME_ALT":null,"MAPCOLOR7":2,"MAPCOLOR8":5,"MAPCOLOR9":5,"MAPCOLOR13":3,"POP_EST":74539,"POP_RANK":8,"GDP_MD_EST":180,"POP_YEAR":2017,"LASTCENSUS":2011,"GDP_YEAR":2016,"ECONOMY":"6. Developing region","INCOME_GRP":"4. Lower middle income","WIKIPEDIA":-99,"FIPS_10_":"RM","ISO_A2":"MH","ISO_A3":"MHL","ISO_A3_EH":"MHL","ISO_N3":"584","UN_A3":"584","WB_A2":"MH","WB_A3":"MHL","WOE_ID":23424932,"WOE_ID_EH":23424932,"WOE_NOTE":"Exact WOE match as country","ADM0_A3_IS":"MHL","ADM0_A3_US":"MHL","ADM0_A3_UN":-99,"ADM0_A3_WB":-99,"CONTINENT":"Oceania","REGION_UN":"Oceania","SUBREGION":"Micronesia","REGION_WB":"East Asia & Pacific","NAME_LEN":12,"LONG_LEN":16,"ABBREV_LEN":6,"TINY":2,"HOMEPART":1,"MIN_ZOOM":0,"MIN_LABEL":5,"MAX_LABEL":10,"NE_ID":1159321057,"WIKIDATAID":"Q709","NAME_AR":"جزر مارشال","NAME_BN":"মার্শাল দ্বীপপুঞ্জ","NAME_DE":"Marshallinseln","NAME_EN":"Marshall Islands","NAME_ES":"Islas Marshall","NAME_FR":"îles Marshall","NAME_EL":"Νησιά Μάρσαλ","NAME_HI":"मार्शल द्वीपसमूह","NAME_HU":"Marshall-szigetek","NAME_ID":"Kepulauan Marshall","NAME_IT":"Isole Marshall","NAME_JA":"マーシャル諸島","NAME_KO":"마셜 제도","NAME_NL":"Marshalleilanden","NAME_PL":"Wyspy Marshalla","NAME_PT":"Ilhas Marshall","NAME_RU":"Маршалловы Острова","NAME_SV":"Marshallöarna","NAME_TR":"Marshall Adaları","NAME_VI":"Quần đảo Marshall","NAME_ZH":"馬紹爾群島"},"bbox":[168.728966,7.31346,168.728966,7.31346],"geometry":{"type":"Point","coordinates":[168.728966,7.31346]}},{"type":"Feature","properties":{"scalerank":2,"featurecla":"Admin-0 Tiny Countries","sr_label_i":2,"sr_label_o":6,"LABELRANK":6,"SOVEREIGNT":"Kiribati","SOV_A3":"KIR","ADM0_DIF":0,"LEVEL":2,"TYPE":"Sovereign country","ADMIN":"Kiribati","ADM0_A3":"KIR","GEOU_DIF":0,"GEOUNIT":"Kiribati","GU_A3":"KIR","SU_DIF":0,"SUBUNIT":"Kiribati","SU_A3":"KIR","BRK_DIFF":0,"NAME":"Kiribati","NAME_LONG":"Kiribati","BRK_A3":"KIR","BRK_NAME":"Kiribati","BRK_GROUP":null,"ABBREV":"Kir.","POSTAL":"KI","FORMAL_EN":"Republic of Kiribati","FORMAL_FR":null,"NAME_CIAWF":"Kiribati","NOTE_ADM0":null,"NOTE_BRK":null,"NAME_SORT":"Kiribati","NAME_ALT":null,"MAPCOLOR7":5,"MAPCOLOR8":7,"MAPCOLOR9":6,"MAPCOLOR13":12,"POP_EST":108145,"POP_RANK":9,"GDP_MD_EST":211,"POP_YEAR":2017,"LASTCENSUS":2005,"GDP_YEAR":2016,"ECONOMY":"7. Least developed region","INCOME_GRP":"4. Lower middle income","WIKIPEDIA":-99,"FIPS_10_":"KR","ISO_A2":"KI","ISO_A3":"KIR","ISO_A3_EH":"KIR","ISO_N3":"296","UN_A3":"296","WB_A2":"KI","WB_A3":"KIR","WOE_ID":23424867,"WOE_ID_EH":23424867,"WOE_NOTE":"Exact WOE match as country","ADM0_A3_IS":"KIR","ADM0_A3_US":"KIR","ADM0_A3_UN":-99,"ADM0_A3_WB":-99,"CONTINENT":"Oceania","REGION_UN":"Oceania","SUBREGION":"Micronesia","REGION_WB":"East Asia & Pacific","NAME_LEN":8,"LONG_LEN":8,"ABBREV_LEN":4,"TINY":2,"HOMEPART":1,"MIN_ZOOM":0,"MIN_LABEL":5,"MAX_LABEL":10,"NE_ID":1159320981,"WIKIDATAID":"Q710","NAME_AR":"كيريباتي","NAME_BN":"কিরিবাস","NAME_DE":"Kiribati","NAME_EN":"Kiribati","NAME_ES":"Kiribati","NAME_FR":"Kiribati","NAME_EL":"Κιριμπάτι","NAME_HI":"किरिबाती","NAME_HU":"Kiribati","NAME_ID":"Kiribati","NAME_IT":"Kiribati","NAME_JA":"キリバス","NAME_KO":"키리바시","NAME_NL":"Kiribati","NAME_PL":"Kiribati","NAME_PT":"Kiribati","NAME_RU":"Кирибати","NAME_SV":"Kiribati","NAME_TR":"Kiribati","NAME_VI":"Kiribati","NAME_ZH":"吉里巴斯"},"bbox":[173.135158,1.364258,173.135158,1.364258],"geometry":{"type":"Point","coordinates":[173.135158,1.364258]}},{"type":"Feature","properties":{"scalerank":2,"featurecla":"Admin-0 Tiny Countries","sr_label_i":3,"sr_label_o":6,"LABELRANK":6,"SOVEREIGNT":"Nauru","SOV_A3":"NRU","ADM0_DIF":0,"LEVEL":2,"TYPE":"Sovereign country","ADMIN":"Nauru","ADM0_A3":"NRU","GEOU_DIF":0,"GEOUNIT":"Nauru","GU_A3":"NRU","SU_DIF":0,"SUBUNIT":"Nauru","SU_A3":"NRU","BRK_DIFF":0,"NAME":"Nauru","NAME_LONG":"Nauru","BRK_A3":"NRU","BRK_NAME":"Nauru","BRK_GROUP":null,"ABBREV":"Nauru","POSTAL":"NR","FORMAL_EN":"Republic of Nauru","FORMAL_FR":null,"NAME_CIAWF":"Nauru","NOTE_ADM0":null,"NOTE_BRK":null,"NAME_SORT":"Nauru","NAME_ALT":null,"MAPCOLOR7":3,"MAPCOLOR8":7,"MAPCOLOR9":6,"MAPCOLOR13":9,"POP_EST":9642,"POP_RANK":5,"GDP_MD_EST":150.8,"POP_YEAR":2017,"LASTCENSUS":-99,"GDP_YEAR":2015,"ECONOMY":"6. Developing region","INCOME_GRP":"4. Lower middle income","WIKIPEDIA":-99,"FIPS_10_":"NR","ISO_A2":"NR","ISO_A3":"NRU","ISO_A3_EH":"NRU","ISO_N3":"520","UN_A3":"520","WB_A2":"-99","WB_A3":"-99","WOE_ID":23424912,"WOE_ID_EH":23424912,"WOE_NOTE":"Exact WOE match as country","ADM0_A3_IS":"NRU","ADM0_A3_US":"NRU","ADM0_A3_UN":-99,"ADM0_A3_WB":-99,"CONTINENT":"Oceania","REGION_UN":"Oceania","SUBREGION":"Micronesia","REGION_WB":"East Asia & Pacific","NAME_LEN":5,"LONG_LEN":5,"ABBREV_LEN":5,"TINY":3,"HOMEPART":1,"MIN_ZOOM":0,"MIN_LABEL":5,"MAX_LABEL":10,"NE_ID":1159321123,"WIKIDATAID":"Q697","NAME_AR":"ناورو","NAME_BN":"নাউরু","NAME_DE":"Nauru","NAME_EN":"Nauru","NAME_ES":"Nauru","NAME_FR":"Nauru","NAME_EL":"Ναουρού","NAME_HI":"नौरु","NAME_HU":"Nauru","NAME_ID":"Nauru","NAME_IT":"Nauru","NAME_JA":"ナウル","NAME_KO":"나우루","NAME_NL":"Nauru","NAME_PL":"Nauru","NAME_PT":"Nauru","NAME_RU":"Науру","NAME_SV":"Nauru","NAME_TR":"Nauru","NAME_VI":"Nauru","NAME_ZH":"諾魯"},"bbox":[166.937483,-0.523069,166.937483,-0.523069],"geometry":{"type":"Point","coordinates":[166.937483,-0.523069]}},{"type":"Feature","properties":{"scalerank":2,"featurecla":"Admin-0 Tiny Countries","sr_label_i":5,"sr_label_o":6,"LABELRANK":6,"SOVEREIGNT":"Tuvalu","SOV_A3":"TUV","ADM0_DIF":0,"LEVEL":2,"TYPE":"Sovereign country","ADMIN":"Tuvalu","ADM0_A3":"TUV","GEOU_DIF":0,"GEOUNIT":"Tuvalu","GU_A3":"TUV","SU_DIF":0,"SUBUNIT":"Tuvalu","SU_A3":"TUV","BRK_DIFF":0,"NAME":"Tuvalu","NAME_LONG":"Tuvalu","BRK_A3":"TUV","BRK_NAME":"Tuvalu","BRK_GROUP":null,"ABBREV":"Tuv.","POSTAL":"TV","FORMAL_EN":"Tuvalu","FORMAL_FR":null,"NAME_CIAWF":"Tuvalu","NOTE_ADM0":null,"NOTE_BRK":null,"NAME_SORT":"Tuvalu","NAME_ALT":null,"MAPCOLOR7":1,"MAPCOLOR8":3,"MAPCOLOR9":8,"MAPCOLOR13":5,"POP_EST":11052,"POP_RANK":6,"GDP_MD_EST":39,"POP_YEAR":2017,"LASTCENSUS":2002,"GDP_YEAR":2016,"ECONOMY":"7. Least developed region","INCOME_GRP":"3. Upper middle income","WIKIPEDIA":-99,"FIPS_10_":"TV","ISO_A2":"TV","ISO_A3":"TUV","ISO_A3_EH":"TUV","ISO_N3":"798","UN_A3":"798","WB_A2":"TV","WB_A3":"TUV","WOE_ID":23424970,"WOE_ID_EH":23424970,"WOE_NOTE":"Exact WOE match as country","ADM0_A3_IS":"TUV","ADM0_A3_US":"TUV","ADM0_A3_UN":-99,"ADM0_A3_WB":-99,"CONTINENT":"Oceania","REGION_UN":"Oceania","SUBREGION":"Polynesia","REGION_WB":"East Asia & Pacific","NAME_LEN":6,"LONG_LEN":6,"ABBREV_LEN":4,"TINY":5,"HOMEPART":1,"MIN_ZOOM":0,"MIN_LABEL":5,"MAX_LABEL":10,"NE_ID":1159321333,"WIKIDATAID":"Q672","NAME_AR":"توفالو","NAME_BN":"টুভালু","NAME_DE":"Tuvalu","NAME_EN":"Tuvalu","NAME_ES":"Tuvalu","NAME_FR":"Tuvalu","NAME_EL":"Τουβαλού","NAME_HI":"तुवालू","NAME_HU":"Tuvalu","NAME_ID":"Tuvalu","NAME_IT":"Tuvalu","NAME_JA":"ツバル","NAME_KO":"투발루","NAME_NL":"Tuvalu","NAME_PL":"Tuvalu","NAME_PT":"Tuvalu","NAME_RU":"Тувалу","NAME_SV":"Tuvalu","NAME_TR":"Tuvalu","NAME_VI":"Tuvalu","NAME_ZH":"吐瓦魯"},"bbox":[179.203974,-8.499724,179.203974,-8.499724],"geometry":{"type":"Point","coordinates":[179.203974,-8.499724]}},{"type":"Feature","properties":{"scalerank":1,"featurecla":"Admin-0 Tiny Countries","sr_label_i":2,"sr_label_o":4,"LABELRANK":4,"SOVEREIGNT":"Vanuatu","SOV_A3":"VUT","ADM0_DIF":0,"LEVEL":2,"TYPE":"Sovereign country","ADMIN":"Vanuatu","ADM0_A3":"VUT","GEOU_DIF":0,"GEOUNIT":"Vanuatu","GU_A3":"VUT","SU_DIF":0,"SUBUNIT":"Vanuatu","SU_A3":"VUT","BRK_DIFF":0,"NAME":"Vanuatu","NAME_LONG":"Vanuatu","BRK_A3":"VUT","BRK_NAME":"Vanuatu","BRK_GROUP":null,"ABBREV":"Van.","POSTAL":"VU","FORMAL_EN":"Republic of Vanuatu","FORMAL_FR":null,"NAME_CIAWF":"Vanuatu","NOTE_ADM0":null,"NOTE_BRK":null,"NAME_SORT":"Vanuatu","NAME_ALT":null,"MAPCOLOR7":6,"MAPCOLOR8":3,"MAPCOLOR9":7,"MAPCOLOR13":3,"POP_EST":282814,"POP_RANK":10,"GDP_MD_EST":723,"POP_YEAR":2017,"LASTCENSUS":2009,"GDP_YEAR":2016,"ECONOMY":"7. Least developed region","INCOME_GRP":"4. Lower middle income","WIKIPEDIA":-99,"FIPS_10_":"NH","ISO_A2":"VU","ISO_A3":"VUT","ISO_A3_EH":"VUT","ISO_N3":"548","UN_A3":"548","WB_A2":"VU","WB_A3":"VUT","WOE_ID":23424907,"WOE_ID_EH":23424907,"WOE_NOTE":"Exact WOE match as country","ADM0_A3_IS":"VUT","ADM0_A3_US":"VUT","ADM0_A3_UN":-99,"ADM0_A3_WB":-99,"CONTINENT":"Oceania","REGION_UN":"Oceania","SUBREGION":"Melanesia","REGION_WB":"East Asia & Pacific","NAME_LEN":7,"LONG_LEN":7,"ABBREV_LEN":4,"TINY":2,"HOMEPART":1,"MIN_ZOOM":0,"MIN_LABEL":4,"MAX_LABEL":9,"NE_ID":1159321421,"WIKIDATAID":"Q686","NAME_AR":"فانواتو","NAME_BN":"ভানুয়াটু","NAME_DE":"Vanuatu","NAME_EN":"Vanuatu","NAME_ES":"Vanuatu","NAME_FR":"Vanuatu","NAME_EL":"Βανουάτου","NAME_HI":"वानूआटू","NAME_HU":"Vanuatu","NAME_ID":"Vanuatu","NAME_IT":"Vanuatu","NAME_JA":"バヌアツ","NAME_KO":"바누아투","NAME_NL":"Vanuatu","NAME_PL":"Vanuatu","NAME_PT":"Vanuatu","NAME_RU":"Вануату","NAME_SV":"Vanuatu","NAME_TR":"Vanuatu","NAME_VI":"Vanuatu","NAME_ZH":"萬那杜"},"bbox":[166.927066,-15.367957,166.927066,-15.367957],"geometry":{"type":"Point","coordinates":[166.927066,-15.367957]}},{"type":"Feature","properties":{"scalerank":6,"featurecla":"Admin-0 Tiny Countries","sr_label_i":4,"sr_label_o":5,"LABELRANK":5,"SOVEREIGNT":"Lebanon","SOV_A3":"LBN","ADM0_DIF":0,"LEVEL":2,"TYPE":"Sovereign country","ADMIN":"Lebanon","ADM0_A3":"LBN","GEOU_DIF":0,"GEOUNIT":"Lebanon","GU_A3":"LBN","SU_DIF":0,"SUBUNIT":"Lebanon","SU_A3":"LBN","BRK_DIFF":0,"NAME":"Lebanon","NAME_LONG":"Lebanon","BRK_A3":"LBN","BRK_NAME":"Lebanon","BRK_GROUP":null,"ABBREV":"Leb.","POSTAL":"LB","FORMAL_EN":"Lebanese Republic","FORMAL_FR":null,"NAME_CIAWF":"Lebanon","NOTE_ADM0":null,"NOTE_BRK":null,"NAME_SORT":"Lebanon","NAME_ALT":null,"MAPCOLOR7":4,"MAPCOLOR8":4,"MAPCOLOR9":4,"MAPCOLOR13":12,"POP_EST":6229794,"POP_RANK":13,"GDP_MD_EST":85160,"POP_YEAR":2017,"LASTCENSUS":1970,"GDP_YEAR":2016,"ECONOMY":"6. Developing region","INCOME_GRP":"3. Upper middle income","WIKIPEDIA":-99,"FIPS_10_":"LE","ISO_A2":"LB","ISO_A3":"LBN","ISO_A3_EH":"LBN","ISO_N3":"422","UN_A3":"422","WB_A2":"LB","WB_A3":"LBN","WOE_ID":23424873,"WOE_ID_EH":23424873,"WOE_NOTE":"Exact WOE match as country","ADM0_A3_IS":"LBN","ADM0_A3_US":"LBN","ADM0_A3_UN":-99,"ADM0_A3_WB":-99,"CONTINENT":"Asia","REGION_UN":"Asia","SUBREGION":"Western Asia","REGION_WB":"Middle East & North Africa","NAME_LEN":7,"LONG_LEN":7,"ABBREV_LEN":4,"TINY":4,"HOMEPART":1,"MIN_ZOOM":0,"MIN_LABEL":4,"MAX_LABEL":9,"NE_ID":1159321013,"WIKIDATAID":"Q822","NAME_AR":"لبنان","NAME_BN":"লেবানন","NAME_DE":"Libanon","NAME_EN":"Lebanon","NAME_ES":"Líbano","NAME_FR":"Liban","NAME_EL":"Λίβανος","NAME_HI":"लेबनान","NAME_HU":"Libanon","NAME_ID":"Lebanon","NAME_IT":"Libano","NAME_JA":"レバノン","NAME_KO":"레바논","NAME_NL":"Libanon","NAME_PL":"Liban","NAME_PT":"Líbano","NAME_RU":"Ливан","NAME_SV":"Libanon","NAME_TR":"Lübnan","NAME_VI":"Liban","NAME_ZH":"黎巴嫩"},"bbox":[35.808634,33.874486,35.808634,33.874486],"geometry":{"type":"Point","coordinates":[35.808634,33.874486]}},{"type":"Feature","properties":{"scalerank":6,"featurecla":"Admin-0 Tiny Countries","sr_label_i":6,"sr_label_o":6,"LABELRANK":6,"SOVEREIGNT":"Israel","SOV_A3":"IS1","ADM0_DIF":1,"LEVEL":3,"TYPE":"Geo unit","ADMIN":"Palestine","ADM0_A3":"PSX","GEOU_DIF":1,"GEOUNIT":"West Bank","GU_A3":"WEB","SU_DIF":0,"SUBUNIT":"West Bank","SU_A3":"WEB","BRK_DIFF":1,"NAME":"West Bank","NAME_LONG":"West Bank","BRK_A3":"B54","BRK_NAME":"West Bank","BRK_GROUP":null,"ABBREV":"W.B.","POSTAL":"WB","FORMAL_EN":"West Bank","FORMAL_FR":null,"NAME_CIAWF":"West Bank","NOTE_ADM0":null,"NOTE_BRK":null,"NAME_SORT":"West Bank","NAME_ALT":null,"MAPCOLOR7":3,"MAPCOLOR8":2,"MAPCOLOR9":5,"MAPCOLOR13":8,"POP_EST":2747943,"POP_RANK":12,"GDP_MD_EST":21220,"POP_YEAR":2017,"LASTCENSUS":-99,"GDP_YEAR":2014,"ECONOMY":"6. Developing region","INCOME_GRP":"4. Lower middle income","WIKIPEDIA":-99,"FIPS_10_":"WE","ISO_A2":"-99","ISO_A3":"-99","ISO_A3_EH":"-99","ISO_N3":"275","UN_A3":"-099","WB_A2":"-99","WB_A3":"-99","WOE_ID":23424988,"WOE_ID_EH":23424988,"WOE_NOTE":"WOE admin-1 match.","ADM0_A3_IS":"PSE","ADM0_A3_US":"PSX","ADM0_A3_UN":-99,"ADM0_A3_WB":-99,"CONTINENT":"Asia","REGION_UN":"Asia","SUBREGION":"Western Asia","REGION_WB":"Middle East & North Africa","NAME_LEN":9,"LONG_LEN":9,"ABBREV_LEN":4,"TINY":-99,"HOMEPART":-99,"MIN_ZOOM":0,"MIN_LABEL":6.5,"MAX_LABEL":11,"NE_ID":1159320903,"WIKIDATAID":"Q36678","NAME_AR":"الضفة الغربية","NAME_BN":"পশ্চিম তীর","NAME_DE":"Westjordanland","NAME_EN":"West Bank","NAME_ES":"Cisjordania","NAME_FR":"Cisjordanie","NAME_EL":"Δυτική Όχθη","NAME_HI":"पश्चिमी तट","NAME_HU":"Ciszjordánia","NAME_ID":"Tepi Barat","NAME_IT":"Cisgiordania","NAME_JA":"ヨルダン川西岸地区","NAME_KO":"요르단 강 서안 지구","NAME_NL":"Westelijke Jordaanoever","NAME_PL":"Zachodni Brzeg","NAME_PT":"Cisjordânia","NAME_RU":"Западный берег реки Иордан","NAME_SV":"Västbanken","NAME_TR":"Batı Şeria","NAME_VI":"Bờ Tây","NAME_ZH":"約旦河西岸地區"},"bbox":[35.256649,32.101111,35.256649,32.101111],"geometry":{"type":"Point","coordinates":[35.256649,32.101111]}},{"type":"Feature","properties":{"scalerank":2,"featurecla":"Admin-0 Tiny Countries","sr_label_i":2,"sr_label_o":4,"LABELRANK":5,"SOVEREIGNT":"Mauritius","SOV_A3":"MUS","ADM0_DIF":0,"LEVEL":2,"TYPE":"Sovereign country","ADMIN":"Mauritius","ADM0_A3":"MUS","GEOU_DIF":0,"GEOUNIT":"Mauritius","GU_A3":"MUS","SU_DIF":0,"SUBUNIT":"Mauritius","SU_A3":"MUS","BRK_DIFF":0,"NAME":"Mauritius","NAME_LONG":"Mauritius","BRK_A3":"MUS","BRK_NAME":"Mauritius","BRK_GROUP":null,"ABBREV":"Mus.","POSTAL":"MU","FORMAL_EN":"Republic of Mauritius","FORMAL_FR":null,"NAME_CIAWF":"Mauritius","NOTE_ADM0":null,"NOTE_BRK":null,"NAME_SORT":"Mauritius","NAME_ALT":null,"MAPCOLOR7":1,"MAPCOLOR8":3,"MAPCOLOR9":5,"MAPCOLOR13":7,"POP_EST":1356388,"POP_RANK":12,"GDP_MD_EST":25850,"POP_YEAR":2017,"LASTCENSUS":2011,"GDP_YEAR":2016,"ECONOMY":"6. Developing region","INCOME_GRP":"3. Upper middle income","WIKIPEDIA":-99,"FIPS_10_":"MP","ISO_A2":"MU","ISO_A3":"MUS","ISO_A3_EH":"MUS","ISO_N3":"480","UN_A3":"480","WB_A2":"MU","WB_A3":"MUS","WOE_ID":23424894,"WOE_ID_EH":23424894,"WOE_NOTE":"Exact WOE match as country","ADM0_A3_IS":"MUS","ADM0_A3_US":"MUS","ADM0_A3_UN":-99,"ADM0_A3_WB":-99,"CONTINENT":"Seven seas (open ocean)","REGION_UN":"Africa","SUBREGION":"Eastern Africa","REGION_WB":"Sub-Saharan Africa","NAME_LEN":9,"LONG_LEN":9,"ABBREV_LEN":4,"TINY":2,"HOMEPART":1,"MIN_ZOOM":0,"MIN_LABEL":4,"MAX_LABEL":9,"NE_ID":1159321079,"WIKIDATAID":"Q1027","NAME_AR":"موريشيوس","NAME_BN":"মরিশাস","NAME_DE":"Mauritius","NAME_EN":"Mauritius","NAME_ES":"Mauricio","NAME_FR":"Maurice","NAME_EL":"Μαυρίκιος","NAME_HI":"मॉरिशस","NAME_HU":"Mauritius","NAME_ID":"Mauritius","NAME_IT":"Mauritius","NAME_JA":"モーリシャス","NAME_KO":"모리셔스","NAME_NL":"Mauritius","NAME_PL":"Mauritius","NAME_PT":"Maurícia","NAME_RU":"Маврикий","NAME_SV":"Mauritius","NAME_TR":"Mauritius","NAME_VI":"Mauritius","NAME_ZH":"毛里求斯"},"bbox":[57.58566,-20.302275,57.58566,-20.302275],"geometry":{"type":"Point","coordinates":[57.58566,-20.302275]}},{"type":"Feature","properties":{"scalerank":1,"featurecla":"Admin-0 Tiny Countries","sr_label_i":2,"sr_label_o":6,"LABELRANK":6,"SOVEREIGNT":"France","SOV_A3":"FR1","ADM0_DIF":1,"LEVEL":2,"TYPE":"Dependency","ADMIN":"French Southern and Antarctic Lands","ADM0_A3":"ATF","GEOU_DIF":0,"GEOUNIT":"French Southern and Antarctic Lands","GU_A3":"ATF","SU_DIF":0,"SUBUNIT":"French Southern and Antarctic Lands","SU_A3":"ATF","BRK_DIFF":0,"NAME":"Fr. S. Antarctic Lands","NAME_LONG":"French Southern and Antarctic Lands","BRK_A3":"ATF","BRK_NAME":"Fr. S. and Antarctic Lands","BRK_GROUP":null,"ABBREV":"Fr. S.A.L.","POSTAL":"TF","FORMAL_EN":"Territory of the French Southern and Antarctic Lands","FORMAL_FR":null,"NAME_CIAWF":null,"NOTE_ADM0":"Fr.","NOTE_BRK":null,"NAME_SORT":"French Southern and Antarctic Lands","NAME_ALT":null,"MAPCOLOR7":7,"MAPCOLOR8":5,"MAPCOLOR9":9,"MAPCOLOR13":11,"POP_EST":140,"POP_RANK":1,"GDP_MD_EST":16,"POP_YEAR":2017,"LASTCENSUS":-99,"GDP_YEAR":2016,"ECONOMY":"6. Developing region","INCOME_GRP":"2. High income: nonOECD","WIKIPEDIA":-99,"FIPS_10_":"FS","ISO_A2":"TF","ISO_A3":"ATF","ISO_A3_EH":"ATF","ISO_N3":"260","UN_A3":"-099","WB_A2":"-99","WB_A3":"-99","WOE_ID":28289406,"WOE_ID_EH":28289406,"WOE_NOTE":"Exact WOE match as country","ADM0_A3_IS":"ATF","ADM0_A3_US":"ATF","ADM0_A3_UN":-99,"ADM0_A3_WB":-99,"CONTINENT":"Seven seas (open ocean)","REGION_UN":"Seven seas (open ocean)","SUBREGION":"Seven seas (open ocean)","REGION_WB":"Sub-Saharan Africa","NAME_LEN":22,"LONG_LEN":35,"ABBREV_LEN":10,"TINY":2,"HOMEPART":-99,"MIN_ZOOM":0,"MIN_LABEL":4,"MAX_LABEL":9,"NE_ID":1159320631,"WIKIDATAID":"Q129003","NAME_AR":"أراض فرنسية جنوبية وأنتارتيكية","NAME_BN":null,"NAME_DE":"Französische Süd- und Antarktisgebiete","NAME_EN":"French Southern and Antarctic Lands","NAME_ES":"Tierras Australes y Antárticas Francesas","NAME_FR":"Terres australes et antarctiques françaises","NAME_EL":"Γαλλικά Νότια και Ανταρκτικά Εδάφη","NAME_HI":"दक्षिण फ्रांसीसी और अंटार्कटिक लैंड","NAME_HU":"Francia déli és antarktiszi területek","NAME_ID":"Daratan Selatan dan Antarktika Perancis","NAME_IT":"Terre australi e antartiche francesi","NAME_JA":"フランス領南方・南極地域","NAME_KO":"프랑스령 남방 및 남극","NAME_NL":"Franse Zuidelijke en Antarctische Gebieden","NAME_PL":"Francuskie Terytoria Południowe i Antarktyczne","NAME_PT":"Terras Austrais e Antárticas Francesas","NAME_RU":"Французские Южные и Антарктические территории","NAME_SV":"Franska sydterritorierna","NAME_TR":"Fransız Güney ve Antarktika Toprakları","NAME_VI":"Vùng đất phía Nam và châu Nam Cực thuộc Pháp","NAME_ZH":"法属南部领地"},"bbox":[69.22514,-49.338782,69.22514,-49.338782],"geometry":{"type":"Point","coordinates":[69.22514,-49.338782]}},{"type":"Feature","properties":{"scalerank":2,"featurecla":"Admin-0 Tiny Countries","sr_label_i":2,"sr_label_o":6,"LABELRANK":6,"SOVEREIGNT":"Comoros","SOV_A3":"COM","ADM0_DIF":0,"LEVEL":2,"TYPE":"Sovereign country","ADMIN":"Comoros","ADM0_A3":"COM","GEOU_DIF":0,"GEOUNIT":"Comoros","GU_A3":"COM","SU_DIF":0,"SUBUNIT":"Comoros","SU_A3":"COM","BRK_DIFF":0,"NAME":"Comoros","NAME_LONG":"Comoros","BRK_A3":"COM","BRK_NAME":"Comoros","BRK_GROUP":null,"ABBREV":"Com.","POSTAL":"KM","FORMAL_EN":"Union of the Comoros","FORMAL_FR":null,"NAME_CIAWF":"Comoros","NOTE_ADM0":null,"NOTE_BRK":null,"NAME_SORT":"Comoros","NAME_ALT":null,"MAPCOLOR7":2,"MAPCOLOR8":1,"MAPCOLOR9":4,"MAPCOLOR13":10,"POP_EST":808080,"POP_RANK":11,"GDP_MD_EST":1259,"POP_YEAR":2017,"LASTCENSUS":2003,"GDP_YEAR":2016,"ECONOMY":"7. Least developed region","INCOME_GRP":"5. Low income","WIKIPEDIA":-99,"FIPS_10_":"CN","ISO_A2":"KM","ISO_A3":"COM","ISO_A3_EH":"COM","ISO_N3":"174","UN_A3":"174","WB_A2":"KM","WB_A3":"COM","WOE_ID":23424786,"WOE_ID_EH":23424786,"WOE_NOTE":"Exact WOE match as country","ADM0_A3_IS":"COM","ADM0_A3_US":"COM","ADM0_A3_UN":-99,"ADM0_A3_WB":-99,"CONTINENT":"Africa","REGION_UN":"Africa","SUBREGION":"Eastern Africa","REGION_WB":"Sub-Saharan Africa","NAME_LEN":7,"LONG_LEN":7,"ABBREV_LEN":4,"TINY":2,"HOMEPART":1,"MIN_ZOOM":0,"MIN_LABEL":4,"MAX_LABEL":9,"NE_ID":1159320521,"WIKIDATAID":"Q970","NAME_AR":"جزر القمر","NAME_BN":"কোমোরোস","NAME_DE":"Komoren","NAME_EN":"Comoros","NAME_ES":"Comoras","NAME_FR":"Comores","NAME_EL":"Κομόρες","NAME_HI":"कोमोरोस","NAME_HU":"Comore-szigetek","NAME_ID":"Komoro","NAME_IT":"Comore","NAME_JA":"コモロ","NAME_KO":"코모로","NAME_NL":"Comoren","NAME_PL":"Komory","NAME_PT":"Comores","NAME_RU":"Коморы","NAME_SV":"Komorerna","NAME_TR":"Komorlar","NAME_VI":"Comoros","NAME_ZH":"葛摩"},"bbox":[43.337943,-11.715556,43.337943,-11.715556],"geometry":{"type":"Point","coordinates":[43.337943,-11.715556]}},{"type":"Feature","properties":{"scalerank":3,"featurecla":"Admin-0 Tiny Countries","sr_label_i":2,"sr_label_o":6,"LABELRANK":6,"SOVEREIGNT":"Seychelles","SOV_A3":"SYC","ADM0_DIF":0,"LEVEL":2,"TYPE":"Sovereign country","ADMIN":"Seychelles","ADM0_A3":"SYC","GEOU_DIF":0,"GEOUNIT":"Seychelles","GU_A3":"SYC","SU_DIF":0,"SUBUNIT":"Seychelles","SU_A3":"SYC","BRK_DIFF":0,"NAME":"Seychelles","NAME_LONG":"Seychelles","BRK_A3":"SYC","BRK_NAME":"Seychelles","BRK_GROUP":null,"ABBREV":"Syc.","POSTAL":"SC","FORMAL_EN":"Republic of Seychelles","FORMAL_FR":null,"NAME_CIAWF":"Seychelles","NOTE_ADM0":null,"NOTE_BRK":null,"NAME_SORT":"Seychelles","NAME_ALT":null,"MAPCOLOR7":5,"MAPCOLOR8":8,"MAPCOLOR9":3,"MAPCOLOR13":1,"POP_EST":93920,"POP_RANK":8,"GDP_MD_EST":2608,"POP_YEAR":2017,"LASTCENSUS":2010,"GDP_YEAR":2016,"ECONOMY":"6. Developing region","INCOME_GRP":"3. Upper middle income","WIKIPEDIA":-99,"FIPS_10_":"SE","ISO_A2":"SC","ISO_A3":"SYC","ISO_A3_EH":"SYC","ISO_N3":"690","UN_A3":"690","WB_A2":"SC","WB_A3":"SYC","WOE_ID":23424941,"WOE_ID_EH":23424941,"WOE_NOTE":"Exact WOE match as country","ADM0_A3_IS":"SYC","ADM0_A3_US":"SYC","ADM0_A3_UN":-99,"ADM0_A3_WB":-99,"CONTINENT":"Seven seas (open ocean)","REGION_UN":"Africa","SUBREGION":"Eastern Africa","REGION_WB":"Sub-Saharan Africa","NAME_LEN":10,"LONG_LEN":10,"ABBREV_LEN":4,"TINY":2,"HOMEPART":1,"MIN_ZOOM":0,"MIN_LABEL":5,"MAX_LABEL":10,"NE_ID":1159321291,"WIKIDATAID":"Q1042","NAME_AR":"سيشل","NAME_BN":"সেশেল","NAME_DE":"Seychellen","NAME_EN":"Seychelles","NAME_ES":"Seychelles","NAME_FR":"Seychelles","NAME_EL":"Σεϋχέλλες","NAME_HI":"सेशेल्स","NAME_HU":"Seychelle-szigetek","NAME_ID":"Seychelles","NAME_IT":"Seychelles","NAME_JA":"セーシェル","NAME_KO":"세이셸","NAME_NL":"Seychellen","NAME_PL":"Seszele","NAME_PT":"Seychelles","NAME_RU":"Сейшельские Острова","NAME_SV":"Seychellerna","NAME_TR":"Seyşeller","NAME_VI":"Seychelles","NAME_ZH":"塞舌尔"},"bbox":[46.441629,-9.402058,46.441629,-9.402058],"geometry":{"type":"Point","coordinates":[46.441629,-9.402058]}},{"type":"Feature","properties":{"scalerank":2,"featurecla":"Admin-0 Tiny Countries","sr_label_i":3,"sr_label_o":6,"LABELRANK":6,"SOVEREIGNT":"Denmark","SOV_A3":"DN1","ADM0_DIF":1,"LEVEL":2,"TYPE":"Dependency","ADMIN":"Faroe Islands","ADM0_A3":"FRO","GEOU_DIF":0,"GEOUNIT":"Faroe Islands","GU_A3":"FRO","SU_DIF":0,"SUBUNIT":"Faroe Islands","SU_A3":"FRO","BRK_DIFF":0,"NAME":"Faeroe Is.","NAME_LONG":"Faeroe Islands","BRK_A3":"FRO","BRK_NAME":"Faeroe Islands","BRK_GROUP":null,"ABBREV":"Faeroe Is.","POSTAL":"FO","FORMAL_EN":"Føroyar Is. (Faeroe Is.)","FORMAL_FR":null,"NAME_CIAWF":"Faroe Islands","NOTE_ADM0":"Den.","NOTE_BRK":null,"NAME_SORT":"Faeroe Islands","NAME_ALT":null,"MAPCOLOR7":4,"MAPCOLOR8":1,"MAPCOLOR9":3,"MAPCOLOR13":12,"POP_EST":50730,"POP_RANK":8,"GDP_MD_EST":2001,"POP_YEAR":2017,"LASTCENSUS":2011,"GDP_YEAR":2014,"ECONOMY":"2. Developed region: nonG7","INCOME_GRP":"2. High income: nonOECD","WIKIPEDIA":-99,"FIPS_10_":"FO","ISO_A2":"FO","ISO_A3":"FRO","ISO_A3_EH":"FRO","ISO_N3":"234","UN_A3":"234","WB_A2":"FO","WB_A3":"FRO","WOE_ID":23424816,"WOE_ID_EH":23424816,"WOE_NOTE":"Exact WOE match as country","ADM0_A3_IS":"FRO","ADM0_A3_US":"FRO","ADM0_A3_UN":-99,"ADM0_A3_WB":-99,"CONTINENT":"Europe","REGION_UN":"Europe","SUBREGION":"Northern Europe","REGION_WB":"Europe & Central Asia","NAME_LEN":10,"LONG_LEN":14,"ABBREV_LEN":10,"TINY":3,"HOMEPART":-99,"MIN_ZOOM":0,"MIN_LABEL":4,"MAX_LABEL":9,"NE_ID":1159320549,"WIKIDATAID":"Q4628","NAME_AR":"جزر فارو","NAME_BN":"ফ্যারও দ্বীপপুঞ্জ","NAME_DE":"Färöer","NAME_EN":"Faroe Islands","NAME_ES":"Islas Feroe","NAME_FR":"îles Féroé","NAME_EL":"Νήσοι Φερόες","NAME_HI":"फ़रो द्वीपसमूह","NAME_HU":"Feröer","NAME_ID":"Kepulauan Faroe","NAME_IT":"Fær Øer","NAME_JA":"フェロー諸島","NAME_KO":"페로 제도","NAME_NL":"Faeröer","NAME_PL":"Wyspy Owcze","NAME_PT":"Ilhas Feroe","NAME_RU":"Фарерские острова","NAME_SV":"Färöarna","NAME_TR":"Faroe Adaları","NAME_VI":"Quần đảo Faroe","NAME_ZH":"法罗群岛"},"bbox":[-6.942568,62.191618,-6.942568,62.191618],"geometry":{"type":"Point","coordinates":[-6.942568,62.191618]}},{"type":"Feature","properties":{"scalerank":3,"featurecla":"Admin-0 Tiny Countries","sr_label_i":5,"sr_label_o":6,"LABELRANK":6,"SOVEREIGNT":"Finland","SOV_A3":"FI1","ADM0_DIF":1,"LEVEL":2,"TYPE":"Country","ADMIN":"Aland","ADM0_A3":"ALD","GEOU_DIF":0,"GEOUNIT":"Aland","GU_A3":"ALD","SU_DIF":0,"SUBUNIT":"Aland","SU_A3":"ALD","BRK_DIFF":0,"NAME":"Åland","NAME_LONG":"Åland Islands","BRK_A3":"ALD","BRK_NAME":"Åland","BRK_GROUP":null,"ABBREV":"Åland","POSTAL":"AI","FORMAL_EN":"Åland Islands","FORMAL_FR":null,"NAME_CIAWF":null,"NOTE_ADM0":"Fin.","NOTE_BRK":null,"NAME_SORT":"Aland","NAME_ALT":null,"MAPCOLOR7":4,"MAPCOLOR8":1,"MAPCOLOR9":4,"MAPCOLOR13":6,"POP_EST":27153,"POP_RANK":7,"GDP_MD_EST":1563,"POP_YEAR":2017,"LASTCENSUS":-99,"GDP_YEAR":2016,"ECONOMY":"2. Developed region: nonG7","INCOME_GRP":"1. High income: OECD","WIKIPEDIA":-99,"FIPS_10_":"-99","ISO_A2":"AX","ISO_A3":"ALA","ISO_A3_EH":"ALA","ISO_N3":"248","UN_A3":"248","WB_A2":"-99","WB_A3":"-99","WOE_ID":12577865,"WOE_ID_EH":12577865,"WOE_NOTE":"Exact WOE match as country","ADM0_A3_IS":"ALA","ADM0_A3_US":"ALD","ADM0_A3_UN":-99,"ADM0_A3_WB":-99,"CONTINENT":"Europe","REGION_UN":"Europe","SUBREGION":"Northern Europe","REGION_WB":"Europe & Central Asia","NAME_LEN":5,"LONG_LEN":13,"ABBREV_LEN":5,"TINY":5,"HOMEPART":-99,"MIN_ZOOM":0,"MIN_LABEL":5,"MAX_LABEL":10,"NE_ID":1159320621,"WIKIDATAID":"Q5689","NAME_AR":"جزر أولاند","NAME_BN":"অলান্দ দ্বীপপুঞ্জ","NAME_DE":"Åland","NAME_EN":"Åland Islands","NAME_ES":"Åland","NAME_FR":"Åland","NAME_EL":"Ώλαντ","NAME_HI":"ऑलैण्ड द्वीपसमूह","NAME_HU":"Åland","NAME_ID":"Åland","NAME_IT":"Isole Åland","NAME_JA":"オーランド諸島","NAME_KO":"올란드 제도","NAME_NL":"Åland","NAME_PL":"Wyspy Alandzkie","NAME_PT":"Åland","NAME_RU":"Аландские острова","NAME_SV":"Åland","NAME_TR":"Åland","NAME_VI":"Åland","NAME_ZH":"奥兰群岛"},"bbox":[19.996921,60.234063,19.996921,60.234063],"geometry":{"type":"Point","coordinates":[19.996921,60.234063]}},{"type":"Feature","properties":{"scalerank":2,"featurecla":"Admin-0 Tiny Countries","sr_label_i":2,"sr_label_o":6,"LABELRANK":6,"SOVEREIGNT":"Norway","SOV_A3":"NOR","ADM0_DIF":0,"LEVEL":3,"TYPE":"Geo unit","ADMIN":"Norway","ADM0_A3":"NOR","GEOU_DIF":1,"GEOUNIT":"Jan Mayen","GU_A3":"NJM","SU_DIF":0,"SUBUNIT":"Jan Mayen","SU_A3":"NJM","BRK_DIFF":0,"NAME":"Jan Mayen I.","NAME_LONG":"Jan Mayen Island","BRK_A3":"NJM","BRK_NAME":"Jan Mayen","BRK_GROUP":null,"ABBREV":"J.M.","POSTAL":"JM","FORMAL_EN":null,"FORMAL_FR":null,"NAME_CIAWF":null,"NOTE_ADM0":"Nor.","NOTE_BRK":null,"NAME_SORT":"Jan Mayen I.","NAME_ALT":null,"MAPCOLOR7":5,"MAPCOLOR8":3,"MAPCOLOR9":8,"MAPCOLOR13":12,"POP_EST":20,"POP_RANK":1,"GDP_MD_EST":0,"POP_YEAR":2017,"LASTCENSUS":-99,"GDP_YEAR":2016,"ECONOMY":"7. Least developed region","INCOME_GRP":"5. Low income","WIKIPEDIA":-99,"FIPS_10_":"JN","ISO_A2":"-99","ISO_A3":"-99","ISO_A3_EH":"-99","ISO_N3":"-99","UN_A3":"-099","WB_A2":"-99","WB_A3":"-99","WOE_ID":23424859,"WOE_ID_EH":23424859,"WOE_NOTE":"WOE admin-1 (territory) match.","ADM0_A3_IS":"SJM","ADM0_A3_US":"NOR","ADM0_A3_UN":-99,"ADM0_A3_WB":-99,"CONTINENT":"Europe","REGION_UN":"Europe","SUBREGION":"Northern Europe","REGION_WB":"Europe & Central Asia","NAME_LEN":12,"LONG_LEN":16,"ABBREV_LEN":4,"TINY":-99,"HOMEPART":-99,"MIN_ZOOM":0,"MIN_LABEL":4,"MAX_LABEL":9,"NE_ID":1159321115,"WIKIDATAID":"Q14056","NAME_AR":"يان ماين","NAME_BN":"ইয়ান মায়েন","NAME_DE":"Jan Mayen","NAME_EN":"Jan Mayen","NAME_ES":"Jan Mayen","NAME_FR":"Jan Mayen","NAME_EL":"Γιαν Μαγιέν","NAME_HI":"यान मायेन","NAME_HU":"Jan Mayen-sziget","NAME_ID":"Jan Mayen","NAME_IT":"Jan Mayen","NAME_JA":"ヤンマイエン島","NAME_KO":"얀마옌 섬","NAME_NL":"Jan Mayen","NAME_PL":"Jan Mayen","NAME_PT":"Jan Mayen","NAME_RU":"Ян-Майен","NAME_SV":"Jan Mayen","NAME_TR":"Jan Mayen","NAME_VI":"Jan Mayen","NAME_ZH":"揚馬延島"},"bbox":[-8.420617,71.028249,-8.420617,71.028249],"geometry":{"type":"Point","coordinates":[-8.420617,71.028249]}},{"type":"Feature","properties":{"scalerank":2,"featurecla":"Admin-0 Tiny Countries","sr_label_i":3,"sr_label_o":6,"LABELRANK":4,"SOVEREIGNT":"France","SOV_A3":"FR1","ADM0_DIF":1,"LEVEL":2,"TYPE":"Dependency","ADMIN":"Saint Pierre and Miquelon","ADM0_A3":"SPM","GEOU_DIF":0,"GEOUNIT":"Saint Pierre and Miquelon","GU_A3":"SPM","SU_DIF":0,"SUBUNIT":"Saint Pierre and Miquelon","SU_A3":"SPM","BRK_DIFF":0,"NAME":"St. Pierre and Miquelon","NAME_LONG":"Saint Pierre and Miquelon","BRK_A3":"SPM","BRK_NAME":"St. Pierre and Miquelon","BRK_GROUP":null,"ABBREV":"St. P.M.","POSTAL":"PM","FORMAL_EN":"Saint Pierre and Miquelon","FORMAL_FR":null,"NAME_CIAWF":"Saint Pierre and Miquelon","NOTE_ADM0":"Fr.","NOTE_BRK":null,"NAME_SORT":"St. Pierre and Miquelon","NAME_ALT":null,"MAPCOLOR7":7,"MAPCOLOR8":5,"MAPCOLOR9":9,"MAPCOLOR13":11,"POP_EST":5533,"POP_RANK":5,"GDP_MD_EST":215.3,"POP_YEAR":2017,"LASTCENSUS":-99,"GDP_YEAR":2016,"ECONOMY":"2. Developed region: nonG7","INCOME_GRP":"3. Upper middle income","WIKIPEDIA":-99,"FIPS_10_":"SB","ISO_A2":"PM","ISO_A3":"SPM","ISO_A3_EH":"SPM","ISO_N3":"666","UN_A3":"666","WB_A2":"-99","WB_A3":"-99","WOE_ID":23424939,"WOE_ID_EH":23424939,"WOE_NOTE":"Exact WOE match as country","ADM0_A3_IS":"SPM","ADM0_A3_US":"SPM","ADM0_A3_UN":-99,"ADM0_A3_WB":-99,"CONTINENT":"North America","REGION_UN":"Americas","SUBREGION":"Northern America","REGION_WB":"North America","NAME_LEN":23,"LONG_LEN":25,"ABBREV_LEN":8,"TINY":3,"HOMEPART":-99,"MIN_ZOOM":0,"MIN_LABEL":5,"MAX_LABEL":10,"NE_ID":1159320647,"WIKIDATAID":"Q34617","NAME_AR":"سان بيير وميكلون","NAME_BN":"সাঁ পিয়ের ও মিক‌লোঁ","NAME_DE":"Saint-Pierre und Miquelon","NAME_EN":"Saint Pierre and Miquelon","NAME_ES":"San Pedro y Miquelón","NAME_FR":"Saint-Pierre-et-Miquelon","NAME_EL":"Σαιν Πιερ και Μικελόν","NAME_HI":"साँ-प्येर और मीकेलों","NAME_HU":"Saint-Pierre és Miquelon","NAME_ID":"Saint Pierre dan Miquelon","NAME_IT":"Saint-Pierre e Miquelon","NAME_JA":"サンピエール島・ミクロン島","NAME_KO":"생피에르 미클롱","NAME_NL":"Saint-Pierre en Miquelon","NAME_PL":"Saint-Pierre i Miquelon","NAME_PT":"Saint-Pierre e Miquelon","NAME_RU":"Сен-Пьер и Микелон","NAME_SV":"Saint-Pierre och Miquelon","NAME_TR":"Saint Pierre ve Miquelon","NAME_VI":"Saint-Pierre và Miquelon","NAME_ZH":"圣皮埃尔和密克隆群岛"},"bbox":[-56.315703,46.857466,-56.315703,46.857466],"geometry":{"type":"Point","coordinates":[-56.315703,46.857466]}},{"type":"Feature","properties":{"scalerank":2,"featurecla":"Admin-0 Tiny Countries","sr_label_i":2,"sr_label_o":4,"LABELRANK":6,"SOVEREIGNT":"United Kingdom","SOV_A3":"GB1","ADM0_DIF":1,"LEVEL":2,"TYPE":"Dependency","ADMIN":"Bermuda","ADM0_A3":"BMU","GEOU_DIF":0,"GEOUNIT":"Bermuda","GU_A3":"BMU","SU_DIF":0,"SUBUNIT":"Bermuda","SU_A3":"BMU","BRK_DIFF":0,"NAME":"Bermuda","NAME_LONG":"Bermuda","BRK_A3":"BMU","BRK_NAME":"Bermuda","BRK_GROUP":null,"ABBREV":"Berm.","POSTAL":"BM","FORMAL_EN":"The Bermudas or Somers Isles","FORMAL_FR":null,"NAME_CIAWF":"Bermuda","NOTE_ADM0":"U.K.","NOTE_BRK":null,"NAME_SORT":"Bermuda","NAME_ALT":null,"MAPCOLOR7":6,"MAPCOLOR8":6,"MAPCOLOR9":6,"MAPCOLOR13":3,"POP_EST":70864,"POP_RANK":8,"GDP_MD_EST":5198,"POP_YEAR":2017,"LASTCENSUS":2010,"GDP_YEAR":2013,"ECONOMY":"2. Developed region: nonG7","INCOME_GRP":"2. High income: nonOECD","WIKIPEDIA":-99,"FIPS_10_":"BD","ISO_A2":"BM","ISO_A3":"BMU","ISO_A3_EH":"BMU","ISO_N3":"060","UN_A3":"060","WB_A2":"BM","WB_A3":"BMU","WOE_ID":23424756,"WOE_ID_EH":23424756,"WOE_NOTE":"Exact WOE match as country","ADM0_A3_IS":"BMU","ADM0_A3_US":"BMU","ADM0_A3_UN":-99,"ADM0_A3_WB":-99,"CONTINENT":"North America","REGION_UN":"Americas","SUBREGION":"Northern America","REGION_WB":"North America","NAME_LEN":7,"LONG_LEN":7,"ABBREV_LEN":5,"TINY":4,"HOMEPART":-99,"MIN_ZOOM":0,"MIN_LABEL":4,"MAX_LABEL":9,"NE_ID":1159320705,"WIKIDATAID":"Q23635","NAME_AR":"برمودا","NAME_BN":"বারমুডা","NAME_DE":"Bermuda","NAME_EN":"Bermuda","NAME_ES":"Bermudas","NAME_FR":"Bermudes","NAME_EL":"Βερμούδες","NAME_HI":"बरमूडा","NAME_HU":"Bermuda","NAME_ID":"Bermuda","NAME_IT":"Bermuda","NAME_JA":"バミューダ諸島","NAME_KO":"버뮤다","NAME_NL":"Bermuda","NAME_PL":"Bermudy","NAME_PT":"Bermudas","NAME_RU":"Бермудские Острова","NAME_SV":"Bermuda","NAME_TR":"Bermuda","NAME_VI":"Bermuda","NAME_ZH":"百慕大"},"bbox":[-64.747978,32.307222,-64.747978,32.307222],"geometry":{"type":"Point","coordinates":[-64.747978,32.307222]}},{"type":"Feature","properties":{"scalerank":2,"featurecla":"Admin-0 Tiny Countries","sr_label_i":2,"sr_label_o":6,"LABELRANK":6,"SOVEREIGNT":"Portugal","SOV_A3":"PRT","ADM0_DIF":0,"LEVEL":3,"TYPE":"Geo unit","ADMIN":"Portugal","ADM0_A3":"PRT","GEOU_DIF":1,"GEOUNIT":"Azores","GU_A3":"PAZ","SU_DIF":0,"SUBUNIT":"Azores","SU_A3":"PAZ","BRK_DIFF":0,"NAME":"Azores","NAME_LONG":"Azores","BRK_A3":"PAZ","BRK_NAME":"Azores","BRK_GROUP":null,"ABBREV":"Az.","POSTAL":"AZ","FORMAL_EN":null,"FORMAL_FR":null,"NAME_CIAWF":null,"NOTE_ADM0":"Port.","NOTE_BRK":null,"NAME_SORT":"Azores","NAME_ALT":null,"MAPCOLOR7":1,"MAPCOLOR8":7,"MAPCOLOR9":1,"MAPCOLOR13":4,"POP_EST":235374,"POP_RANK":10,"GDP_MD_EST":4492,"POP_YEAR":0,"LASTCENSUS":-99,"GDP_YEAR":2016,"ECONOMY":"2. Developed region: nonG7","INCOME_GRP":"1. High income: OECD","WIKIPEDIA":-99,"FIPS_10_":"-99","ISO_A2":"-99","ISO_A3":"-99","ISO_A3_EH":"-99","ISO_N3":"-99","UN_A3":"-099","WB_A2":"-99","WB_A3":"-99","WOE_ID":15021776,"WOE_ID_EH":15021776,"WOE_NOTE":"Exact WOE match as country","ADM0_A3_IS":"-99","ADM0_A3_US":"PRT","ADM0_A3_UN":-99,"ADM0_A3_WB":-99,"CONTINENT":"Seven seas (open ocean)","REGION_UN":"Europe","SUBREGION":"Southern Europe","REGION_WB":"Europe & Central Asia","NAME_LEN":6,"LONG_LEN":6,"ABBREV_LEN":3,"TINY":-99,"HOMEPART":-99,"MIN_ZOOM":0,"MIN_LABEL":5,"MAX_LABEL":10,"NE_ID":1159321189,"WIKIDATAID":"Q25263","NAME_AR":"الأزور","NAME_BN":"অ্যাজোরেস","NAME_DE":"Azoren","NAME_EN":"Azores","NAME_ES":"Azores","NAME_FR":"Açores","NAME_EL":"Αζόρες","NAME_HI":"एज़ोरेस","NAME_HU":"Azori-szigetek","NAME_ID":"Azores","NAME_IT":"Azzorre","NAME_JA":"アゾレス諸島","NAME_KO":"아소르스 제도","NAME_NL":"Azoren","NAME_PL":"Azory","NAME_PT":"Açores","NAME_RU":"Азорские острова","NAME_SV":"Azorerna","NAME_TR":"Azorlar","NAME_VI":"Açores","NAME_ZH":"亚速尔群岛"},"bbox":[-28.423474,38.48233,-28.423474,38.48233],"geometry":{"type":"Point","coordinates":[-28.423474,38.48233]}},{"type":"Feature","properties":{"scalerank":2,"featurecla":"Admin-0 Tiny Countries","sr_label_i":2,"sr_label_o":6,"LABELRANK":5,"SOVEREIGNT":"Spain","SOV_A3":"ESP","ADM0_DIF":0,"LEVEL":4,"TYPE":"Geo subunit","ADMIN":"Spain","ADM0_A3":"ESP","GEOU_DIF":0,"GEOUNIT":"Spain","GU_A3":"ESP","SU_DIF":1,"SUBUNIT":"Canary Islands","SU_A3":"ESC","BRK_DIFF":0,"NAME":"Canary Is.","NAME_LONG":"Canary Islands","BRK_A3":"ESC","BRK_NAME":"Canary Is.","BRK_GROUP":null,"ABBREV":"Can. Is.","POSTAL":"CI","FORMAL_EN":null,"FORMAL_FR":null,"NAME_CIAWF":null,"NOTE_ADM0":"Sp.","NOTE_BRK":null,"NAME_SORT":"Canary Islands","NAME_ALT":null,"MAPCOLOR7":4,"MAPCOLOR8":5,"MAPCOLOR9":5,"MAPCOLOR13":5,"POP_EST":2098593,"POP_RANK":12,"GDP_MD_EST":72441.9,"POP_YEAR":2013,"LASTCENSUS":-99,"GDP_YEAR":2016,"ECONOMY":"2. Developed region: nonG7","INCOME_GRP":"1. High income: OECD","WIKIPEDIA":-99,"FIPS_10_":"-99","ISO_A2":"-99","ISO_A3":"-99","ISO_A3_EH":"-99","ISO_N3":"-99","UN_A3":"-099","WB_A2":"-99","WB_A3":"-99","WOE_ID":-99,"WOE_ID_EH":-99,"WOE_NOTE":"Not yet investigated.","ADM0_A3_IS":"ESP","ADM0_A3_US":"ESP","ADM0_A3_UN":-99,"ADM0_A3_WB":-99,"CONTINENT":"Africa","REGION_UN":"Europe","SUBREGION":"Southern Europe","REGION_WB":"Europe & Central Asia","NAME_LEN":10,"LONG_LEN":14,"ABBREV_LEN":8,"TINY":-99,"HOMEPART":-99,"MIN_ZOOM":0,"MIN_LABEL":5,"MAX_LABEL":10,"NE_ID":1159320589,"WIKIDATAID":"Q5813","NAME_AR":"جزر الكناري","NAME_BN":"কানারি দ্বীপপুঞ্জ","NAME_DE":"Kanarische Inseln","NAME_EN":"Canary Islands","NAME_ES":"Canarias","NAME_FR":"Îles Canaries","NAME_EL":"Κανάριες Νήσοι","NAME_HI":"कैनरी द्वीपसमूह","NAME_HU":"Kanári-szigetek","NAME_ID":"Kepulauan Canaria","NAME_IT":"isole Canarie","NAME_JA":"カナリア諸島","NAME_KO":"카나리아 제도","NAME_NL":"Canarische Eilanden","NAME_PL":"Wyspy Kanaryjskie","NAME_PT":"Canárias","NAME_RU":"Канарские острова","NAME_SV":"Kanarieöarna","NAME_TR":"Kanarya Adaları","NAME_VI":"Quần đảo Canaria","NAME_ZH":"加那利群岛"},"bbox":[-16.592772,28.22899,-16.592772,28.22899],"geometry":{"type":"Point","coordinates":[-16.592772,28.22899]}},{"type":"Feature","properties":{"scalerank":2,"featurecla":"Admin-0 Tiny Countries","sr_label_i":3,"sr_label_o":6,"LABELRANK":6,"SOVEREIGNT":"Portugal","SOV_A3":"PRT","ADM0_DIF":0,"LEVEL":3,"TYPE":"Geo unit","ADMIN":"Portugal","ADM0_A3":"PRT","GEOU_DIF":1,"GEOUNIT":"Madeira","GU_A3":"PMD","SU_DIF":0,"SUBUNIT":"Madeira","SU_A3":"PMD","BRK_DIFF":0,"NAME":"Madeira","NAME_LONG":"Madeira","BRK_A3":"PMD","BRK_NAME":"Madeira","BRK_GROUP":null,"ABBREV":"Mad.","POSTAL":"MD","FORMAL_EN":null,"FORMAL_FR":null,"NAME_CIAWF":null,"NOTE_ADM0":"Port.","NOTE_BRK":null,"NAME_SORT":"Madeira","NAME_ALT":null,"MAPCOLOR7":1,"MAPCOLOR8":7,"MAPCOLOR9":1,"MAPCOLOR13":4,"POP_EST":267785,"POP_RANK":10,"GDP_MD_EST":6414,"POP_YEAR":0,"LASTCENSUS":-99,"GDP_YEAR":2016,"ECONOMY":"2. Developed region: nonG7","INCOME_GRP":"1. High income: OECD","WIKIPEDIA":0,"FIPS_10_":"-99","ISO_A2":"-99","ISO_A3":"-99","ISO_A3_EH":"-99","ISO_N3":"-99","UN_A3":"-099","WB_A2":"-99","WB_A3":"-99","WOE_ID":2346570,"WOE_ID_EH":2346570,"WOE_NOTE":"Exact WOE match as country","ADM0_A3_IS":"-99","ADM0_A3_US":"PRT","ADM0_A3_UN":-99,"ADM0_A3_WB":-99,"CONTINENT":"Africa","REGION_UN":"Europe","SUBREGION":"Southern Europe","REGION_WB":"Europe & Central Asia","NAME_LEN":7,"LONG_LEN":7,"ABBREV_LEN":4,"TINY":-99,"HOMEPART":-99,"MIN_ZOOM":0,"MIN_LABEL":5,"MAX_LABEL":10,"NE_ID":1159321191,"WIKIDATAID":"Q26253","NAME_AR":"جزر ماديرا","NAME_BN":null,"NAME_DE":"Autonome Region Madeira","NAME_EN":"Madeira","NAME_ES":"Madeira","NAME_FR":"Madère","NAME_EL":"Μαδέρα","NAME_HI":"मदेरा","NAME_HU":"Madeira-szigetek","NAME_ID":"Madeira","NAME_IT":"Madera","NAME_JA":"マデイラ諸島","NAME_KO":"마데이라 제도","NAME_NL":"Madeira","NAME_PL":"Madera","NAME_PT":"Região Autónoma da Madeira","NAME_RU":"Мадейра","NAME_SV":"Madeira","NAME_TR":"Madeira Adaları","NAME_VI":"Madeira","NAME_ZH":"馬德拉"},"bbox":[-16.959751,32.745365,-16.959751,32.745365],"geometry":{"type":"Point","coordinates":[-16.959751,32.745365]}},{"type":"Feature","properties":{"scalerank":5,"featurecla":"Admin-0 Tiny Countries","sr_label_i":5,"sr_label_o":6,"LABELRANK":6,"SOVEREIGNT":"Luxembourg","SOV_A3":"LUX","ADM0_DIF":0,"LEVEL":2,"TYPE":"Sovereign country","ADMIN":"Luxembourg","ADM0_A3":"LUX","GEOU_DIF":0,"GEOUNIT":"Luxembourg","GU_A3":"LUX","SU_DIF":0,"SUBUNIT":"Luxembourg","SU_A3":"LUX","BRK_DIFF":0,"NAME":"Luxembourg","NAME_LONG":"Luxembourg","BRK_A3":"LUX","BRK_NAME":"Luxembourg","BRK_GROUP":null,"ABBREV":"Lux.","POSTAL":"L","FORMAL_EN":"Grand Duchy of Luxembourg","FORMAL_FR":null,"NAME_CIAWF":"Luxembourg","NOTE_ADM0":null,"NOTE_BRK":null,"NAME_SORT":"Luxembourg","NAME_ALT":null,"MAPCOLOR7":1,"MAPCOLOR8":7,"MAPCOLOR9":3,"MAPCOLOR13":7,"POP_EST":594130,"POP_RANK":11,"GDP_MD_EST":58740,"POP_YEAR":2017,"LASTCENSUS":2011,"GDP_YEAR":2016,"ECONOMY":"2. Developed region: nonG7","INCOME_GRP":"1. High income: OECD","WIKIPEDIA":-99,"FIPS_10_":"LU","ISO_A2":"LU","ISO_A3":"LUX","ISO_A3_EH":"LUX","ISO_N3":"442","UN_A3":"442","WB_A2":"LU","WB_A3":"LUX","WOE_ID":23424881,"WOE_ID_EH":23424881,"WOE_NOTE":"Exact WOE match as country","ADM0_A3_IS":"LUX","ADM0_A3_US":"LUX","ADM0_A3_UN":-99,"ADM0_A3_WB":-99,"CONTINENT":"Europe","REGION_UN":"Europe","SUBREGION":"Western Europe","REGION_WB":"Europe & Central Asia","NAME_LEN":10,"LONG_LEN":10,"ABBREV_LEN":4,"TINY":5,"HOMEPART":1,"MIN_ZOOM":0,"MIN_LABEL":5.7,"MAX_LABEL":10,"NE_ID":1159321031,"WIKIDATAID":"Q32","NAME_AR":"لوكسمبورغ","NAME_BN":"লুক্সেমবুর্গ","NAME_DE":"Luxemburg","NAME_EN":"Luxembourg","NAME_ES":"Luxemburgo","NAME_FR":"Luxembourg","NAME_EL":"Λουξεμβούργο","NAME_HI":"लक्ज़मबर्ग","NAME_HU":"Luxemburg","NAME_ID":"Luksemburg","NAME_IT":"Lussemburgo","NAME_JA":"ルクセンブルク","NAME_KO":"룩셈부르크","NAME_NL":"Luxemburg","NAME_PL":"Luksemburg","NAME_PT":"Luxemburgo","NAME_RU":"Люксембург","NAME_SV":"Luxemburg","NAME_TR":"Lüksemburg","NAME_VI":"Luxembourg","NAME_ZH":"卢森堡"},"bbox":[6.090256,49.763919,6.090256,49.763919],"geometry":{"type":"Point","coordinates":[6.090256,49.763919]}},{"type":"Feature","properties":{"scalerank":4,"featurecla":"Admin-0 Tiny Countries","sr_label_i":5,"sr_label_o":6,"LABELRANK":6,"SOVEREIGNT":"United Kingdom","SOV_A3":"GB1","ADM0_DIF":1,"LEVEL":2,"TYPE":"Country","ADMIN":"Guernsey","ADM0_A3":"GGY","GEOU_DIF":0,"GEOUNIT":"Guernsey","GU_A3":"GGY","SU_DIF":0,"SUBUNIT":"Guernsey","SU_A3":"GGY","BRK_DIFF":0,"NAME":"Guernsey","NAME_LONG":"Guernsey","BRK_A3":"GGY","BRK_NAME":"Guernsey","BRK_GROUP":"Channel Islands","ABBREV":"Guern.","POSTAL":"GG","FORMAL_EN":"Bailiwick of Guernsey","FORMAL_FR":null,"NAME_CIAWF":"Guernsey","NOTE_ADM0":"U.K. crown dependency","NOTE_BRK":null,"NAME_SORT":"Guernsey","NAME_ALT":null,"MAPCOLOR7":6,"MAPCOLOR8":6,"MAPCOLOR9":6,"MAPCOLOR13":3,"POP_EST":66502,"POP_RANK":8,"GDP_MD_EST":3465,"POP_YEAR":2017,"LASTCENSUS":2001,"GDP_YEAR":2015,"ECONOMY":"2. Developed region: nonG7","INCOME_GRP":"2. High income: nonOECD","WIKIPEDIA":-99,"FIPS_10_":"GK","ISO_A2":"GG","ISO_A3":"GGY","ISO_A3_EH":"GGY","ISO_N3":"831","UN_A3":"831","WB_A2":"JG","WB_A3":"CHI","WOE_ID":23424827,"WOE_ID_EH":23424827,"WOE_NOTE":"Exact WOE match as country","ADM0_A3_IS":"GGY","ADM0_A3_US":"GGY","ADM0_A3_UN":-99,"ADM0_A3_WB":-99,"CONTINENT":"Europe","REGION_UN":"Europe","SUBREGION":"Northern Europe","REGION_WB":"Europe & Central Asia","NAME_LEN":8,"LONG_LEN":8,"ABBREV_LEN":6,"TINY":-99,"HOMEPART":-99,"MIN_ZOOM":0,"MIN_LABEL":5,"MAX_LABEL":10,"NE_ID":1159320715,"WIKIDATAID":"Q25230","NAME_AR":"غيرنزي","NAME_BN":null,"NAME_DE":"Guernsey","NAME_EN":"Guernsey","NAME_ES":"Guernsey","NAME_FR":"Guernesey","NAME_EL":"Γκέρνσεϊ","NAME_HI":"ग्वेर्नसे","NAME_HU":"Guernsey Bailiffség","NAME_ID":"Guernsey","NAME_IT":"Guernsey","NAME_JA":"ガーンジー","NAME_KO":"건지 섬","NAME_NL":"Guernsey","NAME_PL":"Guernsey","NAME_PT":"Guernsey","NAME_RU":"Гернси","NAME_SV":"Guernsey","NAME_TR":"Guernsey","NAME_VI":"Guernsey","NAME_ZH":"根西岛"},"bbox":[-2.569139,49.459568,-2.569139,49.459568],"geometry":{"type":"Point","coordinates":[-2.569139,49.459568]}},{"type":"Feature","properties":{"scalerank":4,"featurecla":"Admin-0 Tiny Countries","sr_label_i":5,"sr_label_o":6,"LABELRANK":5,"SOVEREIGNT":"United Kingdom","SOV_A3":"GB1","ADM0_DIF":1,"LEVEL":2,"TYPE":"Dependency","ADMIN":"Gibraltar","ADM0_A3":"GIB","GEOU_DIF":0,"GEOUNIT":"Gibraltar","GU_A3":"GIB","SU_DIF":0,"SUBUNIT":"Gibraltar","SU_A3":"GIB","BRK_DIFF":1,"NAME":"Gibraltar","NAME_LONG":"Gibraltar","BRK_A3":"B55","BRK_NAME":"Gibraltar","BRK_GROUP":null,"ABBREV":"Gib.","POSTAL":"GI","FORMAL_EN":null,"FORMAL_FR":null,"NAME_CIAWF":"Gibraltar","NOTE_ADM0":"U.K.","NOTE_BRK":"Admin. By U.K.; Claimed by Spain","NAME_SORT":"Gibraltar","NAME_ALT":null,"MAPCOLOR7":6,"MAPCOLOR8":6,"MAPCOLOR9":6,"MAPCOLOR13":3,"POP_EST":29396,"POP_RANK":7,"GDP_MD_EST":2044,"POP_YEAR":2017,"LASTCENSUS":-99,"GDP_YEAR":2014,"ECONOMY":"2. Developed region: nonG7","INCOME_GRP":"1. High income: OECD","WIKIPEDIA":-99,"FIPS_10_":"GI","ISO_A2":"GI","ISO_A3":"GIB","ISO_A3_EH":"GIB","ISO_N3":"292","UN_A3":"292","WB_A2":"-99","WB_A3":"-99","WOE_ID":23424825,"WOE_ID_EH":23424825,"WOE_NOTE":"Exact WOE match as country","ADM0_A3_IS":"GIB","ADM0_A3_US":"GIB","ADM0_A3_UN":-99,"ADM0_A3_WB":-99,"CONTINENT":"Europe","REGION_UN":"Europe","SUBREGION":"Southern Europe","REGION_WB":"Europe & Central Asia","NAME_LEN":9,"LONG_LEN":9,"ABBREV_LEN":4,"TINY":5,"HOMEPART":-99,"MIN_ZOOM":0,"MIN_LABEL":5,"MAX_LABEL":9.5,"NE_ID":1159320719,"WIKIDATAID":"Q1410","NAME_AR":"جبل طارق","NAME_BN":"জিব্রাল্টার","NAME_DE":"Gibraltar","NAME_EN":"Gibraltar","NAME_ES":"Gibraltar","NAME_FR":"Gibraltar","NAME_EL":"Γιβραλτάρ","NAME_HI":"जिब्राल्टर","NAME_HU":"Gibraltár","NAME_ID":"Gibraltar","NAME_IT":"Gibilterra","NAME_JA":"ジブラルタル","NAME_KO":"지브롤터","NAME_NL":"Gibraltar","NAME_PL":"Gibraltar","NAME_PT":"Gibraltar","NAME_RU":"Гибралтар","NAME_SV":"Gibraltar","NAME_TR":"Cebelitarık","NAME_VI":"Gibraltar","NAME_ZH":"直布罗陀"},"bbox":[-5.369103,36.127816,-5.369103,36.127816],"geometry":{"type":"Point","coordinates":[-5.369103,36.127816]}},{"type":"Feature","properties":{"scalerank":3,"featurecla":"Admin-0 Tiny Countries","sr_label_i":6,"sr_label_o":6,"LABELRANK":6,"SOVEREIGNT":"United Kingdom","SOV_A3":"GB1","ADM0_DIF":1,"LEVEL":2,"TYPE":"Country","ADMIN":"Jersey","ADM0_A3":"JEY","GEOU_DIF":0,"GEOUNIT":"Jersey","GU_A3":"JEY","SU_DIF":0,"SUBUNIT":"Jersey","SU_A3":"JEY","BRK_DIFF":0,"NAME":"Jersey","NAME_LONG":"Jersey","BRK_A3":"JEY","BRK_NAME":"Jersey","BRK_GROUP":"Channel Islands","ABBREV":"Jey.","POSTAL":"JE","FORMAL_EN":"Bailiwick of Jersey","FORMAL_FR":null,"NAME_CIAWF":"Jersey","NOTE_ADM0":"U.K. crown dependency","NOTE_BRK":null,"NAME_SORT":"Jersey","NAME_ALT":null,"MAPCOLOR7":6,"MAPCOLOR8":6,"MAPCOLOR9":6,"MAPCOLOR13":3,"POP_EST":98840,"POP_RANK":8,"GDP_MD_EST":5080,"POP_YEAR":2017,"LASTCENSUS":2001,"GDP_YEAR":2015,"ECONOMY":"2. Developed region: nonG7","INCOME_GRP":"2. High income: nonOECD","WIKIPEDIA":-99,"FIPS_10_":"JE","ISO_A2":"JE","ISO_A3":"JEY","ISO_A3_EH":"JEY","ISO_N3":"832","UN_A3":"832","WB_A2":"JG","WB_A3":"CHI","WOE_ID":23424857,"WOE_ID_EH":23424857,"WOE_NOTE":"Exact WOE match as country","ADM0_A3_IS":"JEY","ADM0_A3_US":"JEY","ADM0_A3_UN":-99,"ADM0_A3_WB":-99,"CONTINENT":"Europe","REGION_UN":"Europe","SUBREGION":"Northern Europe","REGION_WB":"Europe & Central Asia","NAME_LEN":6,"LONG_LEN":6,"ABBREV_LEN":4,"TINY":-99,"HOMEPART":-99,"MIN_ZOOM":0,"MIN_LABEL":5,"MAX_LABEL":10,"NE_ID":1159320725,"WIKIDATAID":"Q785","NAME_AR":"جيرزي","NAME_BN":"জার্সি","NAME_DE":"Jersey","NAME_EN":"Jersey","NAME_ES":"Jersey","NAME_FR":"Jersey","NAME_EL":"Τζέρσεϊ","NAME_HI":"जर्सी","NAME_HU":"Jersey","NAME_ID":"Jersey","NAME_IT":"Baliato di Jersey","NAME_JA":"ジャージー","NAME_KO":"저지 섬","NAME_NL":"Jersey","NAME_PL":"Jersey","NAME_PT":"Jersey","NAME_RU":"Джерси","NAME_SV":"Jersey","NAME_TR":"Jersey","NAME_VI":"Jersey","NAME_ZH":"澤西島"},"bbox":[-2.132592,49.22976,-2.132592,49.22976],"geometry":{"type":"Point","coordinates":[-2.132592,49.22976]}},{"type":"Feature","properties":{"scalerank":4,"featurecla":"Admin-0 Tiny Countries","sr_label_i":5,"sr_label_o":5,"LABELRANK":6,"SOVEREIGNT":"United Kingdom","SOV_A3":"GB1","ADM0_DIF":1,"LEVEL":2,"TYPE":"Country","ADMIN":"Isle of Man","ADM0_A3":"IMN","GEOU_DIF":0,"GEOUNIT":"Isle of Man","GU_A3":"IMN","SU_DIF":0,"SUBUNIT":"Isle of Man","SU_A3":"IMN","BRK_DIFF":0,"NAME":"Isle of Man","NAME_LONG":"Isle of Man","BRK_A3":"IMN","BRK_NAME":"Isle of Man","BRK_GROUP":null,"ABBREV":"IoMan","POSTAL":"IM","FORMAL_EN":null,"FORMAL_FR":null,"NAME_CIAWF":"Isle of Man","NOTE_ADM0":"U.K. crown dependency","NOTE_BRK":null,"NAME_SORT":"Isle of Man","NAME_ALT":null,"MAPCOLOR7":6,"MAPCOLOR8":6,"MAPCOLOR9":6,"MAPCOLOR13":3,"POP_EST":88815,"POP_RANK":8,"GDP_MD_EST":7428,"POP_YEAR":2017,"LASTCENSUS":2006,"GDP_YEAR":2014,"ECONOMY":"2. Developed region: nonG7","INCOME_GRP":"2. High income: nonOECD","WIKIPEDIA":-99,"FIPS_10_":"IM","ISO_A2":"IM","ISO_A3":"IMN","ISO_A3_EH":"IMN","ISO_N3":"833","UN_A3":"833","WB_A2":"IM","WB_A3":"IMY","WOE_ID":23424847,"WOE_ID_EH":23424847,"WOE_NOTE":"Exact WOE match as country","ADM0_A3_IS":"IMN","ADM0_A3_US":"IMN","ADM0_A3_UN":-99,"ADM0_A3_WB":-99,"CONTINENT":"Europe","REGION_UN":"Europe","SUBREGION":"Northern Europe","REGION_WB":"Europe & Central Asia","NAME_LEN":11,"LONG_LEN":11,"ABBREV_LEN":5,"TINY":-99,"HOMEPART":-99,"MIN_ZOOM":0,"MIN_LABEL":5,"MAX_LABEL":10,"NE_ID":1159320721,"WIKIDATAID":"Q9676","NAME_AR":"جزيرة مان","NAME_BN":"আইল অব ম্যান","NAME_DE":"Isle of Man","NAME_EN":"Isle of Man","NAME_ES":"Isla de Man","NAME_FR":"île de Man","NAME_EL":"Νήσος του Μαν","NAME_HI":"मनुष्य का टापू","NAME_HU":"Man","NAME_ID":"Pulau Man","NAME_IT":"Isola di Man","NAME_JA":"マン島","NAME_KO":"맨 섬","NAME_NL":"Man","NAME_PL":"Wyspa Man","NAME_PT":"Ilha de Man","NAME_RU":"остров Мэн","NAME_SV":"Isle of Man","NAME_TR":"Man Adası","NAME_VI":"Đảo Man","NAME_ZH":"马恩岛"},"bbox":[-4.530992,54.207315,-4.530992,54.207315],"geometry":{"type":"Point","coordinates":[-4.530992,54.207315]}},{"type":"Feature","properties":{"scalerank":5,"featurecla":"Admin-0 Tiny Countries","sr_label_i":6,"sr_label_o":6,"LABELRANK":6,"SOVEREIGNT":"Liechtenstein","SOV_A3":"LIE","ADM0_DIF":0,"LEVEL":2,"TYPE":"Sovereign country","ADMIN":"Liechtenstein","ADM0_A3":"LIE","GEOU_DIF":0,"GEOUNIT":"Liechtenstein","GU_A3":"LIE","SU_DIF":0,"SUBUNIT":"Liechtenstein","SU_A3":"LIE","BRK_DIFF":0,"NAME":"Liechtenstein","NAME_LONG":"Liechtenstein","BRK_A3":"LIE","BRK_NAME":"Liechtenstein","BRK_GROUP":null,"ABBREV":"Liech.","POSTAL":"FL","FORMAL_EN":"Principality of Liechtenstein","FORMAL_FR":null,"NAME_CIAWF":"Liechtenstein","NOTE_ADM0":null,"NOTE_BRK":null,"NAME_SORT":"Liechtenstein","NAME_ALT":null,"MAPCOLOR7":2,"MAPCOLOR8":4,"MAPCOLOR9":2,"MAPCOLOR13":9,"POP_EST":38244,"POP_RANK":7,"GDP_MD_EST":4978,"POP_YEAR":2017,"LASTCENSUS":2010,"GDP_YEAR":2014,"ECONOMY":"2. Developed region: nonG7","INCOME_GRP":"2. High income: nonOECD","WIKIPEDIA":-99,"FIPS_10_":"LS","ISO_A2":"LI","ISO_A3":"LIE","ISO_A3_EH":"LIE","ISO_N3":"438","UN_A3":"438","WB_A2":"LI","WB_A3":"LIE","WOE_ID":23424879,"WOE_ID_EH":23424879,"WOE_NOTE":"Exact WOE match as country","ADM0_A3_IS":"LIE","ADM0_A3_US":"LIE","ADM0_A3_UN":-99,"ADM0_A3_WB":-99,"CONTINENT":"Europe","REGION_UN":"Europe","SUBREGION":"Western Europe","REGION_WB":"Europe & Central Asia","NAME_LEN":13,"LONG_LEN":13,"ABBREV_LEN":6,"TINY":6,"HOMEPART":1,"MIN_ZOOM":0,"MIN_LABEL":5,"MAX_LABEL":10,"NE_ID":1159321021,"WIKIDATAID":"Q347","NAME_AR":"ليختنشتاين","NAME_BN":"লিশটেনস্টাইন","NAME_DE":"Liechtenstein","NAME_EN":"Liechtenstein","NAME_ES":"Liechtenstein","NAME_FR":"Liechtenstein","NAME_EL":"Λίχτενσταϊν","NAME_HI":"लिक्टेन्स्टाइन","NAME_HU":"Liechtenstein","NAME_ID":"Liechtenstein","NAME_IT":"Liechtenstein","NAME_JA":"リヒテンシュタイン","NAME_KO":"리히텐슈타인","NAME_NL":"Liechtenstein","NAME_PL":"Liechtenstein","NAME_PT":"Liechtenstein","NAME_RU":"Лихтенштейн","NAME_SV":"Liechtenstein","NAME_TR":"Lihtenştayn","NAME_VI":"Liechtenstein","NAME_ZH":"列支敦斯登"},"bbox":[9.539139,47.126776,9.539139,47.126776],"geometry":{"type":"Point","coordinates":[9.539139,47.126776]}},{"type":"Feature","properties":{"scalerank":5,"featurecla":"Admin-0 Tiny Countries","sr_label_i":5,"sr_label_o":5,"LABELRANK":6,"SOVEREIGNT":"San Marino","SOV_A3":"SMR","ADM0_DIF":0,"LEVEL":2,"TYPE":"Sovereign country","ADMIN":"San Marino","ADM0_A3":"SMR","GEOU_DIF":0,"GEOUNIT":"San Marino","GU_A3":"SMR","SU_DIF":0,"SUBUNIT":"San Marino","SU_A3":"SMR","BRK_DIFF":0,"NAME":"San Marino","NAME_LONG":"San Marino","BRK_A3":"SMR","BRK_NAME":"San Marino","BRK_GROUP":null,"ABBREV":"S.M.","POSTAL":"RSM","FORMAL_EN":"Republic of San Marino","FORMAL_FR":null,"NAME_CIAWF":"San Marino","NOTE_ADM0":null,"NOTE_BRK":null,"NAME_SORT":"San Marino","NAME_ALT":null,"MAPCOLOR7":2,"MAPCOLOR8":3,"MAPCOLOR9":1,"MAPCOLOR13":6,"POP_EST":33537,"POP_RANK":7,"GDP_MD_EST":2023,"POP_YEAR":2017,"LASTCENSUS":2010,"GDP_YEAR":2016,"ECONOMY":"2. Developed region: nonG7","INCOME_GRP":"2. High income: nonOECD","WIKIPEDIA":-99,"FIPS_10_":"SM","ISO_A2":"SM","ISO_A3":"SMR","ISO_A3_EH":"SMR","ISO_N3":"674","UN_A3":"674","WB_A2":"SM","WB_A3":"SMR","WOE_ID":23424947,"WOE_ID_EH":23424947,"WOE_NOTE":"Exact WOE match as country","ADM0_A3_IS":"SMR","ADM0_A3_US":"SMR","ADM0_A3_UN":-99,"ADM0_A3_WB":-99,"CONTINENT":"Europe","REGION_UN":"Europe","SUBREGION":"Southern Europe","REGION_WB":"Europe & Central Asia","NAME_LEN":10,"LONG_LEN":10,"ABBREV_LEN":4,"TINY":5,"HOMEPART":1,"MIN_ZOOM":0,"MIN_LABEL":5,"MAX_LABEL":10,"NE_ID":1159321255,"WIKIDATAID":"Q238","NAME_AR":"سان مارينو","NAME_BN":"সান মারিনো","NAME_DE":"San Marino","NAME_EN":"San Marino","NAME_ES":"San Marino","NAME_FR":"Saint-Marin","NAME_EL":"Άγιος Μαρίνος","NAME_HI":"सान मारिनो","NAME_HU":"San Marino","NAME_ID":"San Marino","NAME_IT":"San Marino","NAME_JA":"サンマリノ","NAME_KO":"산마리노","NAME_NL":"San Marino","NAME_PL":"San Marino","NAME_PT":"San Marino","NAME_RU":"Сан-Марино","NAME_SV":"San Marino","NAME_TR":"San Marino","NAME_VI":"San Marino","NAME_ZH":"圣马力诺"},"bbox":[12.458794,43.940943,12.458794,43.940943],"geometry":{"type":"Point","coordinates":[12.458794,43.940943]}},{"type":"Feature","properties":{"scalerank":4,"featurecla":"Admin-0 Tiny Countries","sr_label_i":5,"sr_label_o":6,"LABELRANK":6,"SOVEREIGNT":"Vatican","SOV_A3":"VAT","ADM0_DIF":0,"LEVEL":2,"TYPE":"Sovereign country","ADMIN":"Vatican","ADM0_A3":"VAT","GEOU_DIF":0,"GEOUNIT":"Vatican","GU_A3":"VAT","SU_DIF":0,"SUBUNIT":"Vatican","SU_A3":"VAT","BRK_DIFF":0,"NAME":"Vatican","NAME_LONG":"Vatican","BRK_A3":"VAT","BRK_NAME":"Vatican","BRK_GROUP":null,"ABBREV":"Vat.","POSTAL":"V","FORMAL_EN":"State of the Vatican City","FORMAL_FR":null,"NAME_CIAWF":"Holy See (Vatican City)","NOTE_ADM0":null,"NOTE_BRK":null,"NAME_SORT":"Vatican (Holy See)","NAME_ALT":"Holy See","MAPCOLOR7":1,"MAPCOLOR8":3,"MAPCOLOR9":4,"MAPCOLOR13":2,"POP_EST":1000,"POP_RANK":3,"GDP_MD_EST":0,"POP_YEAR":2015,"LASTCENSUS":-99,"GDP_YEAR":0,"ECONOMY":"2. Developed region: nonG7","INCOME_GRP":"2. High income: nonOECD","WIKIPEDIA":0,"FIPS_10_":"VT","ISO_A2":"VA","ISO_A3":"VAT","ISO_A3_EH":"VAT","ISO_N3":"336","UN_A3":"336","WB_A2":"-99","WB_A3":"-99","WOE_ID":23424986,"WOE_ID_EH":23424986,"WOE_NOTE":"Exact WOE match as country","ADM0_A3_IS":"VAT","ADM0_A3_US":"VAT","ADM0_A3_UN":-99,"ADM0_A3_WB":-99,"CONTINENT":"Europe","REGION_UN":"Europe","SUBREGION":"Southern Europe","REGION_WB":"Europe & Central Asia","NAME_LEN":7,"LONG_LEN":7,"ABBREV_LEN":4,"TINY":4,"HOMEPART":1,"MIN_ZOOM":0,"MIN_LABEL":5,"MAX_LABEL":10,"NE_ID":1159321407,"WIKIDATAID":"Q237","NAME_AR":"الفاتيكان","NAME_BN":"ভ্যাটিকান সিটি","NAME_DE":"Vatikanstadt","NAME_EN":"Vatican City","NAME_ES":"Ciudad del Vaticano","NAME_FR":"Vatican","NAME_EL":"Βατικανό","NAME_HI":"वैटिकन नगर","NAME_HU":"Vatikán","NAME_ID":"Vatikan","NAME_IT":"Città del Vaticano","NAME_JA":"バチカン","NAME_KO":"바티칸 시국","NAME_NL":"Vaticaanstad","NAME_PL":"Watykan","NAME_PT":"Vaticano","NAME_RU":"Ватикан","NAME_SV":"Vatikanstaten","NAME_TR":"Vatikan","NAME_VI":"Thành Vatican","NAME_ZH":"梵蒂冈"},"bbox":[12.450447,41.900704,12.450447,41.900704],"geometry":{"type":"Point","coordinates":[12.450447,41.900704]}},{"type":"Feature","properties":{"scalerank":4,"featurecla":"Admin-0 Tiny Countries","sr_label_i":5,"sr_label_o":6,"LABELRANK":6,"SOVEREIGNT":"Monaco","SOV_A3":"MCO","ADM0_DIF":0,"LEVEL":2,"TYPE":"Sovereign country","ADMIN":"Monaco","ADM0_A3":"MCO","GEOU_DIF":0,"GEOUNIT":"Monaco","GU_A3":"MCO","SU_DIF":0,"SUBUNIT":"Monaco","SU_A3":"MCO","BRK_DIFF":0,"NAME":"Monaco","NAME_LONG":"Monaco","BRK_A3":"MCO","BRK_NAME":"Monaco","BRK_GROUP":null,"ABBREV":"Mco.","POSTAL":"MC","FORMAL_EN":"Principality of Monaco","FORMAL_FR":null,"NAME_CIAWF":"Monaco","NOTE_ADM0":null,"NOTE_BRK":null,"NAME_SORT":"Monaco","NAME_ALT":null,"MAPCOLOR7":1,"MAPCOLOR8":1,"MAPCOLOR9":2,"MAPCOLOR13":12,"POP_EST":30645,"POP_RANK":7,"GDP_MD_EST":7672,"POP_YEAR":2017,"LASTCENSUS":2008,"GDP_YEAR":2015,"ECONOMY":"2. Developed region: nonG7","INCOME_GRP":"2. High income: nonOECD","WIKIPEDIA":-99,"FIPS_10_":"MN","ISO_A2":"MC","ISO_A3":"MCO","ISO_A3_EH":"MCO","ISO_N3":"492","UN_A3":"492","WB_A2":"MC","WB_A3":"MCO","WOE_ID":23424892,"WOE_ID_EH":23424892,"WOE_NOTE":"Exact WOE match as country","ADM0_A3_IS":"MCO","ADM0_A3_US":"MCO","ADM0_A3_UN":-99,"ADM0_A3_WB":-99,"CONTINENT":"Europe","REGION_UN":"Europe","SUBREGION":"Western Europe","REGION_WB":"Europe & Central Asia","NAME_LEN":6,"LONG_LEN":6,"ABBREV_LEN":4,"TINY":5,"HOMEPART":1,"MIN_ZOOM":0,"MIN_LABEL":5,"MAX_LABEL":10,"NE_ID":1159321043,"WIKIDATAID":"Q235","NAME_AR":"موناكو","NAME_BN":"মোনাকো","NAME_DE":"Monaco","NAME_EN":"Monaco","NAME_ES":"Mónaco","NAME_FR":"Monaco","NAME_EL":"Μονακό","NAME_HI":"मोनैको","NAME_HU":"Monaco","NAME_ID":"Monako","NAME_IT":"Principato di Monaco","NAME_JA":"モナコ","NAME_KO":"모나코","NAME_NL":"Monaco","NAME_PL":"Monako","NAME_PT":"Mónaco","NAME_RU":"Монако","NAME_SV":"Monaco","NAME_TR":"Monako","NAME_VI":"Monaco","NAME_ZH":"摩纳哥"},"bbox":[7.397135,43.75027,7.397135,43.75027],"geometry":{"type":"Point","coordinates":[7.397135,43.75027]}},{"type":"Feature","properties":{"scalerank":4,"featurecla":"Admin-0 Tiny Countries","sr_label_i":5,"sr_label_o":6,"LABELRANK":6,"SOVEREIGNT":"Andorra","SOV_A3":"AND","ADM0_DIF":0,"LEVEL":2,"TYPE":"Sovereign country","ADMIN":"Andorra","ADM0_A3":"AND","GEOU_DIF":0,"GEOUNIT":"Andorra","GU_A3":"AND","SU_DIF":0,"SUBUNIT":"Andorra","SU_A3":"AND","BRK_DIFF":0,"NAME":"Andorra","NAME_LONG":"Andorra","BRK_A3":"AND","BRK_NAME":"Andorra","BRK_GROUP":null,"ABBREV":"And.","POSTAL":"AND","FORMAL_EN":"Principality of Andorra","FORMAL_FR":null,"NAME_CIAWF":"Andorra","NOTE_ADM0":null,"NOTE_BRK":null,"NAME_SORT":"Andorra","NAME_ALT":null,"MAPCOLOR7":1,"MAPCOLOR8":4,"MAPCOLOR9":1,"MAPCOLOR13":8,"POP_EST":85702,"POP_RANK":8,"GDP_MD_EST":3327,"POP_YEAR":2017,"LASTCENSUS":1989,"GDP_YEAR":2015,"ECONOMY":"2. Developed region: nonG7","INCOME_GRP":"2. High income: nonOECD","WIKIPEDIA":-99,"FIPS_10_":"AN","ISO_A2":"AD","ISO_A3":"AND","ISO_A3_EH":"AND","ISO_N3":"020","UN_A3":"020","WB_A2":"AD","WB_A3":"ADO","WOE_ID":23424744,"WOE_ID_EH":23424744,"WOE_NOTE":"Exact WOE match as country","ADM0_A3_IS":"AND","ADM0_A3_US":"AND","ADM0_A3_UN":-99,"ADM0_A3_WB":-99,"CONTINENT":"Europe","REGION_UN":"Europe","SUBREGION":"Southern Europe","REGION_WB":"Europe & Central Asia","NAME_LEN":7,"LONG_LEN":7,"ABBREV_LEN":4,"TINY":5,"HOMEPART":1,"MIN_ZOOM":0,"MIN_LABEL":5,"MAX_LABEL":10,"NE_ID":1159320327,"WIKIDATAID":"Q228","NAME_AR":"أندورا","NAME_BN":"অ্যান্ডোরা","NAME_DE":"Andorra","NAME_EN":"Andorra","NAME_ES":"Andorra","NAME_FR":"Andorre","NAME_EL":"Ανδόρρα","NAME_HI":"अण्डोरा","NAME_HU":"Andorra","NAME_ID":"Andorra","NAME_IT":"Andorra","NAME_JA":"アンドラ","NAME_KO":"안도라","NAME_NL":"Andorra","NAME_PL":"Andora","NAME_PT":"Andorra","NAME_RU":"Андорра","NAME_SV":"Andorra","NAME_TR":"Andorra","NAME_VI":"Andorra","NAME_ZH":"安道尔"},"bbox":[1.547698,42.536813,1.547698,42.536813],"geometry":{"type":"Point","coordinates":[1.547698,42.536813]}},{"type":"Feature","properties":{"scalerank":6,"featurecla":"Admin-0 Tiny Countries","sr_label_i":3,"sr_label_o":4,"LABELRANK":6,"SOVEREIGNT":"United States of America","SOV_A3":"US1","ADM0_DIF":1,"LEVEL":2,"TYPE":"Dependency","ADMIN":"United States Virgin Islands","ADM0_A3":"VIR","GEOU_DIF":0,"GEOUNIT":"United States Virgin Islands","GU_A3":"VIR","SU_DIF":0,"SUBUNIT":"United States Virgin Islands","SU_A3":"VIR","BRK_DIFF":0,"NAME":"U.S. Virgin Is.","NAME_LONG":"United States Virgin Islands","BRK_A3":"VIR","BRK_NAME":"U.S. Virgin Is.","BRK_GROUP":null,"ABBREV":"V.I. (U.S.)","POSTAL":"VI","FORMAL_EN":"Virgin Islands of the United States","FORMAL_FR":null,"NAME_CIAWF":"Virgin Islands","NOTE_ADM0":"U.S.A.","NOTE_BRK":null,"NAME_SORT":"Virgin Islands (U.S.)","NAME_ALT":null,"MAPCOLOR7":4,"MAPCOLOR8":5,"MAPCOLOR9":1,"MAPCOLOR13":1,"POP_EST":107268,"POP_RANK":9,"GDP_MD_EST":3792,"POP_YEAR":2017,"LASTCENSUS":2010,"GDP_YEAR":2013,"ECONOMY":"6. Developing region","INCOME_GRP":"2. High income: nonOECD","WIKIPEDIA":-99,"FIPS_10_":"VQ","ISO_A2":"VI","ISO_A3":"VIR","ISO_A3_EH":"VIR","ISO_N3":"850","UN_A3":"850","WB_A2":"VI","WB_A3":"VIR","WOE_ID":23424985,"WOE_ID_EH":23424985,"WOE_NOTE":"Exact WOE match as country","ADM0_A3_IS":"VIR","ADM0_A3_US":"VIR","ADM0_A3_UN":-99,"ADM0_A3_WB":-99,"CONTINENT":"North America","REGION_UN":"Americas","SUBREGION":"Caribbean","REGION_WB":"Latin America & Caribbean","NAME_LEN":15,"LONG_LEN":28,"ABBREV_LEN":11,"TINY":3,"HOMEPART":-99,"MIN_ZOOM":0,"MIN_LABEL":5,"MAX_LABEL":10,"NE_ID":1159321371,"WIKIDATAID":"Q11703","NAME_AR":"جزر العذراء الأمريكية","NAME_BN":"মার্কিন ভার্জিন দ্বীপপুঞ্জ","NAME_DE":"Amerikanische Jungferninseln","NAME_EN":"United States Virgin Islands","NAME_ES":"Islas Vírgenes de los Estados Unidos","NAME_FR":"îles Vierges des États-Unis","NAME_EL":"Αμερικανικές Παρθένοι Νήσοι","NAME_HI":"संयुक्त राज्य वर्जिन द्वीपसमूह","NAME_HU":"Amerikai Virgin-szigetek","NAME_ID":"Kepulauan Virgin Amerika Serikat","NAME_IT":"Isole Vergini americane","NAME_JA":"アメリカ領ヴァージン諸島","NAME_KO":"미국령 버진아일랜드","NAME_NL":"Amerikaanse Maagdeneilanden","NAME_PL":"Wyspy Dziewicze Stanów Zjednoczonych","NAME_PT":"Ilhas Virgens Americanas","NAME_RU":"Американские Виргинские острова","NAME_SV":"Amerikanska Jungfruöarna","NAME_TR":"ABD Virjin Adaları","NAME_VI":"Quần đảo Virgin thuộc Mỹ","NAME_ZH":"美屬維爾京群島"},"bbox":[-64.912388,18.348537,-64.912388,18.348537],"geometry":{"type":"Point","coordinates":[-64.912388,18.348537]}},{"type":"Feature","properties":{"scalerank":6,"featurecla":"Admin-0 Tiny Countries","sr_label_i":6,"sr_label_o":6,"LABELRANK":6,"SOVEREIGNT":"Israel","SOV_A3":"IS1","ADM0_DIF":1,"LEVEL":3,"TYPE":"Geo unit","ADMIN":"Palestine","ADM0_A3":"PSX","GEOU_DIF":1,"GEOUNIT":"Gaza","GU_A3":"GAZ","SU_DIF":0,"SUBUNIT":"Gaza","SU_A3":"GAZ","BRK_DIFF":1,"NAME":"Gaza","NAME_LONG":"Gaza","BRK_A3":"B53","BRK_NAME":"Gaza","BRK_GROUP":null,"ABBREV":"Gaza","POSTAL":"GZ","FORMAL_EN":"Gaza Strip","FORMAL_FR":null,"NAME_CIAWF":"Gaza Strip","NOTE_ADM0":null,"NOTE_BRK":null,"NAME_SORT":"Gaza Strip","NAME_ALT":null,"MAPCOLOR7":3,"MAPCOLOR8":2,"MAPCOLOR9":5,"MAPCOLOR13":8,"POP_EST":1795183,"POP_RANK":12,"GDP_MD_EST":0.77,"POP_YEAR":2017,"LASTCENSUS":-99,"GDP_YEAR":2016,"ECONOMY":"7. Least developed region","INCOME_GRP":"5. Low income","WIKIPEDIA":-99,"FIPS_10_":"GZ","ISO_A2":"-99","ISO_A3":"-99","ISO_A3_EH":"-99","ISO_N3":"275","UN_A3":"-099","WB_A2":"-99","WB_A3":"-99","WOE_ID":23424838,"WOE_ID_EH":23424838,"WOE_NOTE":"WOE admin-1 match.","ADM0_A3_IS":"PSE","ADM0_A3_US":"PSX","ADM0_A3_UN":-99,"ADM0_A3_WB":-99,"CONTINENT":"Asia","REGION_UN":"Asia","SUBREGION":"Western Asia","REGION_WB":"Middle East & North Africa","NAME_LEN":4,"LONG_LEN":4,"ABBREV_LEN":4,"TINY":-99,"HOMEPART":-99,"MIN_ZOOM":0,"MIN_LABEL":6.5,"MAX_LABEL":11,"NE_ID":1159320901,"WIKIDATAID":"Q39760","NAME_AR":"قطاع غزة","NAME_BN":"গাজা ভূখণ্ড","NAME_DE":"Gazastreifen","NAME_EN":"Gaza Strip","NAME_ES":"Franja de Gaza","NAME_FR":"bande de Gaza","NAME_EL":"Λωρίδα της Γάζας","NAME_HI":"ग़ज़ा पट्टी","NAME_HU":"Gázai övezet","NAME_ID":"Jalur Gaza","NAME_IT":"Striscia di Gaza","NAME_JA":"ガザ地区","NAME_KO":"가자 지구","NAME_NL":"Gazastrook","NAME_PL":"Strefa Gazy","NAME_PT":"Faixa de Gaza","NAME_RU":"сектор Газа","NAME_SV":"Gazaremsan","NAME_TR":"Gazze Şeridi","NAME_VI":"Dải Gaza","NAME_ZH":"加沙地带"},"bbox":[34.37664,31.426756,34.37664,31.426756],"geometry":{"type":"Point","coordinates":[34.37664,31.426756]}},{"type":"Feature","properties":{"scalerank":6,"featurecla":"Admin-0 Tiny Countries","sr_label_i":4,"sr_label_o":4,"LABELRANK":6,"SOVEREIGNT":"France","SOV_A3":"FR1","ADM0_DIF":1,"LEVEL":2,"TYPE":"Dependency","ADMIN":"Saint Barthelemy","ADM0_A3":"BLM","GEOU_DIF":0,"GEOUNIT":"Saint Barthelemy","GU_A3":"BLM","SU_DIF":0,"SUBUNIT":"Saint Barthelemy","SU_A3":"BLM","BRK_DIFF":0,"NAME":"St-Barthélemy","NAME_LONG":"Saint-Barthélemy","BRK_A3":"BLM","BRK_NAME":"St-Barthélemy","BRK_GROUP":null,"ABBREV":"St. B.","POSTAL":"BL","FORMAL_EN":"Saint-Barthélemy","FORMAL_FR":null,"NAME_CIAWF":"Saint Barthelemy","NOTE_ADM0":"Fr.","NOTE_BRK":null,"NAME_SORT":"St-Barthélemy","NAME_ALT":null,"MAPCOLOR7":7,"MAPCOLOR8":5,"MAPCOLOR9":9,"MAPCOLOR13":11,"POP_EST":7184,"POP_RANK":5,"GDP_MD_EST":255,"POP_YEAR":2017,"LASTCENSUS":-99,"GDP_YEAR":2016,"ECONOMY":"2. Developed region: nonG7","INCOME_GRP":"1. High income: OECD","WIKIPEDIA":-99,"FIPS_10_":"TB","ISO_A2":"BL","ISO_A3":"BLM","ISO_A3_EH":"BLM","ISO_N3":"652","UN_A3":"652","WB_A2":"-99","WB_A3":"-99","WOE_ID":56042304,"WOE_ID_EH":56042304,"WOE_NOTE":"Exact WOE match as country","ADM0_A3_IS":"BLM","ADM0_A3_US":"BLM","ADM0_A3_UN":-99,"ADM0_A3_WB":-99,"CONTINENT":"North America","REGION_UN":"Americas","SUBREGION":"Caribbean","REGION_WB":"Latin America & Caribbean","NAME_LEN":13,"LONG_LEN":16,"ABBREV_LEN":6,"TINY":4,"HOMEPART":-99,"MIN_ZOOM":0,"MIN_LABEL":5.7,"MAX_LABEL":10,"NE_ID":1159320633,"WIKIDATAID":"Q25362","NAME_AR":"سان بارتيلمي","NAME_BN":"সেন্ট-বার্থেলেমি","NAME_DE":"Saint-Barthélemy","NAME_EN":"Saint-Barthélemy","NAME_ES":"San Bartolomé","NAME_FR":"Saint-Barthélemy","NAME_EL":"Άγιος Βαρθολομαίος","NAME_HI":"सेंट बार्थेलेमी","NAME_HU":"Saint-Barthélemy","NAME_ID":"Saint-Barthélemy","NAME_IT":"Saint-Barthélemy","NAME_JA":"サン・バルテルミー島","NAME_KO":"생바르텔레미","NAME_NL":"Saint-Barthélemy","NAME_PL":"Saint-Barthélemy","NAME_PT":"Coletividade de São Bartolomeu","NAME_RU":"Сен-Бартелеми","NAME_SV":"Saint-Barthélemy","NAME_TR":"Saint Barthélemy","NAME_VI":"Saint-Barthélemy","NAME_ZH":"聖巴泰勒米島"},"bbox":[-62.843919,17.90026,-62.843919,17.90026],"geometry":{"type":"Point","coordinates":[-62.843919,17.90026]}},{"type":"Feature","properties":{"scalerank":6,"featurecla":"Admin-0 Tiny Countries","sr_label_i":4,"sr_label_o":4,"LABELRANK":6,"SOVEREIGNT":"Netherlands","SOV_A3":"NL1","ADM0_DIF":1,"LEVEL":2,"TYPE":"Country","ADMIN":"Sint Maarten","ADM0_A3":"SXM","GEOU_DIF":0,"GEOUNIT":"Sint Maarten","GU_A3":"SXM","SU_DIF":0,"SUBUNIT":"Sint Maarten","SU_A3":"SXM","BRK_DIFF":0,"NAME":"Sint Maarten","NAME_LONG":"Sint Maarten","BRK_A3":"SXM","BRK_NAME":"Sint Maarten","BRK_GROUP":null,"ABBREV":"St. M.","POSTAL":"SX","FORMAL_EN":"Sint Maarten (Dutch part)","FORMAL_FR":null,"NAME_CIAWF":"Sint Maarten","NOTE_ADM0":"Neth.","NOTE_BRK":null,"NAME_SORT":"St. Maarten (Dutch part)","NAME_ALT":null,"MAPCOLOR7":4,"MAPCOLOR8":2,"MAPCOLOR9":2,"MAPCOLOR13":9,"POP_EST":42083,"POP_RANK":7,"GDP_MD_EST":365.8,"POP_YEAR":2017,"LASTCENSUS":-99,"GDP_YEAR":2014,"ECONOMY":"6. Developing region","INCOME_GRP":"2. High income: nonOECD","WIKIPEDIA":-99,"FIPS_10_":"NT","ISO_A2":"SX","ISO_A3":"SXM","ISO_A3_EH":"SXM","ISO_N3":"534","UN_A3":"534","WB_A2":"SX","WB_A3":"SXM","WOE_ID":-90,"WOE_ID_EH":23425000,"WOE_NOTE":"Expired subunits of Netherlands Antilles (23424914).","ADM0_A3_IS":"SXM","ADM0_A3_US":"SXM","ADM0_A3_UN":-99,"ADM0_A3_WB":-99,"CONTINENT":"North America","REGION_UN":"Americas","SUBREGION":"Caribbean","REGION_WB":"Latin America & Caribbean","NAME_LEN":12,"LONG_LEN":12,"ABBREV_LEN":6,"TINY":4,"HOMEPART":-99,"MIN_ZOOM":0,"MIN_LABEL":5,"MAX_LABEL":10,"NE_ID":1159321103,"WIKIDATAID":"Q26273","NAME_AR":"سينت مارتن","NAME_BN":"সিন্ট মার্টেন","NAME_DE":"Sint Maarten","NAME_EN":"Sint Maarten","NAME_ES":"Sint Maarten","NAME_FR":"Saint-Martin","NAME_EL":"Άγιος Μαρτίνος","NAME_HI":"सिंट मार्टेन","NAME_HU":"Sint Maarten","NAME_ID":"Sint Maarten","NAME_IT":"Sint Maarten","NAME_JA":"シント・マールテン","NAME_KO":"신트마르턴","NAME_NL":"Sint Maarten","NAME_PL":"Sint Maarten","NAME_PT":"São Martinho","NAME_RU":"Синт-Мартен","NAME_SV":"Sint Maarten","NAME_TR":"Sint Maarten","NAME_VI":"Sint Maarten","NAME_ZH":"荷屬聖馬丁"},"bbox":[-63.081062,18.008025,-63.081062,18.008025],"geometry":{"type":"Point","coordinates":[-63.081062,18.008025]}},{"type":"Feature","properties":{"scalerank":2,"featurecla":"Admin-0 Tiny Countries","sr_label_i":3,"sr_label_o":6,"LABELRANK":4,"SOVEREIGNT":"United Kingdom","SOV_A3":"GB1","ADM0_DIF":1,"LEVEL":2,"TYPE":"Dependency","ADMIN":"South Georgia and the Islands","ADM0_A3":"SGS","GEOU_DIF":0,"GEOUNIT":"South Georgia and the Islands","GU_A3":"SGS","SU_DIF":0,"SUBUNIT":"South Georgia and the Islands","SU_A3":"SGS","BRK_DIFF":0,"NAME":"S. Geo. and the Is.","NAME_LONG":"South Georgia and the Islands","BRK_A3":"SGS","BRK_NAME":"S. Geo. and the Is.","BRK_GROUP":null,"ABBREV":"S.G. & Is.","POSTAL":"GS","FORMAL_EN":"South Georgia and the Islands","FORMAL_FR":null,"NAME_CIAWF":null,"NOTE_ADM0":"U.K.","NOTE_BRK":null,"NAME_SORT":"South Georgia and the Islands","NAME_ALT":null,"MAPCOLOR7":6,"MAPCOLOR8":6,"MAPCOLOR9":6,"MAPCOLOR13":3,"POP_EST":30,"POP_RANK":1,"GDP_MD_EST":0.3,"POP_YEAR":2017,"LASTCENSUS":-99,"GDP_YEAR":2016,"ECONOMY":"7. Least developed region","INCOME_GRP":"5. Low income","WIKIPEDIA":-99,"FIPS_10_":"SX","ISO_A2":"GS","ISO_A3":"SGS","ISO_A3_EH":"SGS","ISO_N3":"239","UN_A3":"-099","WB_A2":"-99","WB_A3":"-99","WOE_ID":23424955,"WOE_ID_EH":23424955,"WOE_NOTE":"Exact WOE match as country","ADM0_A3_IS":"SGS","ADM0_A3_US":"SGS","ADM0_A3_UN":-99,"ADM0_A3_WB":-99,"CONTINENT":"Seven seas (open ocean)","REGION_UN":"Seven seas (open ocean)","SUBREGION":"Seven seas (open ocean)","REGION_WB":"Antarctica","NAME_LEN":19,"LONG_LEN":29,"ABBREV_LEN":10,"TINY":3,"HOMEPART":-99,"MIN_ZOOM":0,"MIN_LABEL":5,"MAX_LABEL":9,"NE_ID":1159320731,"WIKIDATAID":"Q35086","NAME_AR":"جورجيا الجنوبية وجزر ساندويتش الجنوبية","NAME_BN":"দক্ষিণ জর্জিয়া ও দক্ষিণ স্যন্ডউইচ দ্বীপপুঞ্জ","NAME_DE":"Südgeorgien und die Südlichen Sandwichinseln","NAME_EN":"South Georgia and the South Sandwich Islands","NAME_ES":"Islas Georgias del Sur y Sándwich del Sur","NAME_FR":"Géorgie du Sud-et-les Îles Sandwich du Sud","NAME_EL":"Νήσοι Νότια Γεωργία και Νότιες Σάντουιτς","NAME_HI":"दक्षिण जॉर्जिया एवं दक्षिण सैंडविच द्वीप समूह","NAME_HU":"Déli-Georgia és Déli-Sandwich-szigetek","NAME_ID":"Georgia Selatan dan Kepulauan Sandwich Selatan","NAME_IT":"Georgia del Sud e isole Sandwich meridionali","NAME_JA":"サウスジョージア・サウスサンドウィッチ諸島","NAME_KO":"사우스조지아 사우스샌드위치 제도","NAME_NL":"Zuid-Georgia en de Zuidelijke Sandwicheilanden","NAME_PL":"Georgia Południowa i Sandwich Południowy","NAME_PT":"Ilhas Geórgia do Sul e Sandwich do Sul","NAME_RU":"Южная Георгия и Южные Сандвичевы острова","NAME_SV":"Sydgeorgien och Sydsandwichöarna","NAME_TR":"Güney Georgia ve Güney Sandwich Adaları","NAME_VI":"Nam Georgia và Quần đảo Nam Sandwich","NAME_ZH":"南喬治亞島與南桑威奇群島"},"bbox":[-36.792143,-54.274479,-36.792143,-54.274479],"geometry":{"type":"Point","coordinates":[-36.792143,-54.274479]}},{"type":"Feature","properties":{"scalerank":5,"featurecla":"Admin-0 Tiny Countries","sr_label_i":5,"sr_label_o":6,"LABELRANK":6,"SOVEREIGNT":"Netherlands","SOV_A3":"NL1","ADM0_DIF":1,"LEVEL":3,"TYPE":"Geo unit","ADMIN":"Netherlands","ADM0_A3":"NLD","GEOU_DIF":1,"GEOUNIT":"Caribbean Netherlands","GU_A3":"NLY","SU_DIF":0,"SUBUNIT":"Caribbean Netherlands","SU_A3":"NLY","BRK_DIFF":0,"NAME":"Caribbean Netherlands","NAME_LONG":"Caribbean Netherlands","BRK_A3":"NLY","BRK_NAME":"Caribbean Netherlands","BRK_GROUP":null,"ABBREV":"BES Is.","POSTAL":"NC","FORMAL_EN":"Bonaire, Sint Eustatius, and Saba","FORMAL_FR":null,"NAME_CIAWF":null,"NOTE_ADM0":"Neth.","NOTE_BRK":null,"NAME_SORT":"Caribbean Netherlands","NAME_ALT":null,"MAPCOLOR7":4,"MAPCOLOR8":2,"MAPCOLOR9":2,"MAPCOLOR13":9,"POP_EST":21133,"POP_RANK":7,"GDP_MD_EST":1077.14,"POP_YEAR":0,"LASTCENSUS":-99,"GDP_YEAR":2013,"ECONOMY":"2. Developed region: nonG7","INCOME_GRP":"1. High income: OECD","WIKIPEDIA":0,"FIPS_10_":"-99","ISO_A2":"BQ","ISO_A3":"BES","ISO_A3_EH":"BES","ISO_N3":"535","UN_A3":"-099","WB_A2":"-99","WB_A3":"-99","WOE_ID":-99,"WOE_ID_EH":23424914,"WOE_NOTE":"Eh is NE mapunit match; WOE out of date, should ignore: Curacao (24549810).","ADM0_A3_IS":"BES","ADM0_A3_US":"NLD","ADM0_A3_UN":-99,"ADM0_A3_WB":-99,"CONTINENT":"North America","REGION_UN":"Americas","SUBREGION":"Caribbean","REGION_WB":"Latin America & Caribbean","NAME_LEN":21,"LONG_LEN":21,"ABBREV_LEN":7,"TINY":-99,"HOMEPART":-99,"MIN_ZOOM":0,"MIN_LABEL":7.7,"MAX_LABEL":11,"NE_ID":1159321107,"WIKIDATAID":"Q27561","NAME_AR":"الجزر الكاريبية الهولندية","NAME_BN":null,"NAME_DE":"Karibische Niederlande","NAME_EN":"Caribbean Netherlands","NAME_ES":"Caribe Neerlandés","NAME_FR":"Pays-Bas caribéens","NAME_EL":"Καραϊβικές Κάτω Χώρες","NAME_HI":null,"NAME_HU":"Karibi Hollandia","NAME_ID":"Kepulauan BES","NAME_IT":"Paesi Bassi caraibici","NAME_JA":"ボネール、シント・ユースタティウスおよびサバ","NAME_KO":"카리브 네덜란드","NAME_NL":"Caribisch Nederland","NAME_PL":"Niderlandy Karaibskie","NAME_PT":"Países Baixos Caribenhos","NAME_RU":"Бонэйр","NAME_SV":"Karibiska Nederländerna","NAME_TR":"Karayip Hollandası","NAME_VI":"Caribe Hà Lan","NAME_ZH":"荷蘭加勒比區"},"bbox":[-68.252057,12.182538,-68.252057,12.182538],"geometry":{"type":"Point","coordinates":[-68.252057,12.182538]}},{"type":"Feature","properties":{"scalerank":3,"featurecla":"Admin-0 Tiny Countries","sr_label_i":3,"sr_label_o":6,"LABELRANK":4,"SOVEREIGNT":"China","SOV_A3":"CH1","ADM0_DIF":1,"LEVEL":2,"TYPE":"Country","ADMIN":"Hong Kong S.A.R.","ADM0_A3":"HKG","GEOU_DIF":0,"GEOUNIT":"Hong Kong S.A.R.","GU_A3":"HKG","SU_DIF":0,"SUBUNIT":"Hong Kong S.A.R.","SU_A3":"HKG","BRK_DIFF":0,"NAME":"Hong Kong","NAME_LONG":"Hong Kong","BRK_A3":"HKG","BRK_NAME":"Hong Kong","BRK_GROUP":null,"ABBREV":"H.K.","POSTAL":"HK","FORMAL_EN":"Hong Kong Special Administrative Region, PRC","FORMAL_FR":null,"NAME_CIAWF":"Hong Kong","NOTE_ADM0":"China","NOTE_BRK":null,"NAME_SORT":"Hong Kong SAR, China","NAME_ALT":null,"MAPCOLOR7":4,"MAPCOLOR8":4,"MAPCOLOR9":4,"MAPCOLOR13":3,"POP_EST":7191503,"POP_RANK":13,"GDP_MD_EST":427400,"POP_YEAR":2017,"LASTCENSUS":2006,"GDP_YEAR":2016,"ECONOMY":"6. Developing region","INCOME_GRP":"2. High income: nonOECD","WIKIPEDIA":0,"FIPS_10_":"HK","ISO_A2":"HK","ISO_A3":"HKG","ISO_A3_EH":"HKG","ISO_N3":"344","UN_A3":"344","WB_A2":"HK","WB_A3":"HKG","WOE_ID":24865698,"WOE_ID_EH":24865698,"WOE_NOTE":"Exact WOE match as country","ADM0_A3_IS":"HKG","ADM0_A3_US":"HKG","ADM0_A3_UN":-99,"ADM0_A3_WB":-99,"CONTINENT":"Asia","REGION_UN":"Asia","SUBREGION":"Eastern Asia","REGION_WB":"East Asia & Pacific","NAME_LEN":9,"LONG_LEN":9,"ABBREV_LEN":4,"TINY":-99,"HOMEPART":-99,"MIN_ZOOM":0,"MIN_LABEL":4,"MAX_LABEL":9,"NE_ID":1159320473,"WIKIDATAID":"Q8646","NAME_AR":"هونغ كونغ","NAME_BN":"হংকং","NAME_DE":"Hongkong","NAME_EN":"Hong Kong","NAME_ES":"Hong Kong","NAME_FR":"Hong Kong","NAME_EL":"Χονγκ Κονγκ","NAME_HI":"हांगकांग","NAME_HU":"Hongkong","NAME_ID":"Hong Kong","NAME_IT":"Hong Kong","NAME_JA":"香港","NAME_KO":"홍콩","NAME_NL":"Hongkong","NAME_PL":"Hongkong","NAME_PT":"Hong Kong","NAME_RU":"Гонконг","NAME_SV":"Hongkong","NAME_TR":"Hong Kong","NAME_VI":"Hồng Kông","NAME_ZH":"香港"},"bbox":[114.107922,22.437012,114.107922,22.437012],"geometry":{"type":"Point","coordinates":[114.107922,22.437012]}},{"type":"Feature","properties":{"scalerank":5,"featurecla":"Admin-0 Tiny Countries","sr_label_i":5,"sr_label_o":6,"LABELRANK":4,"SOVEREIGNT":"China","SOV_A3":"CH1","ADM0_DIF":1,"LEVEL":2,"TYPE":"Country","ADMIN":"Macao S.A.R","ADM0_A3":"MAC","GEOU_DIF":0,"GEOUNIT":"Macao S.A.R","GU_A3":"MAC","SU_DIF":0,"SUBUNIT":"Macao S.A.R","SU_A3":"MAC","BRK_DIFF":0,"NAME":"Macao","NAME_LONG":"Macao","BRK_A3":"MAC","BRK_NAME":"Macao","BRK_GROUP":null,"ABBREV":"Mac.","POSTAL":"MO","FORMAL_EN":"Macao Special Administrative Region, PRC","FORMAL_FR":null,"NAME_CIAWF":"Macau","NOTE_ADM0":"China","NOTE_BRK":null,"NAME_SORT":"Macao SAR, China","NAME_ALT":null,"MAPCOLOR7":4,"MAPCOLOR8":4,"MAPCOLOR9":4,"MAPCOLOR13":3,"POP_EST":601969,"POP_RANK":11,"GDP_MD_EST":63220,"POP_YEAR":2017,"LASTCENSUS":2011,"GDP_YEAR":2016,"ECONOMY":"6. Developing region","INCOME_GRP":"2. High income: nonOECD","WIKIPEDIA":-99,"FIPS_10_":"MC","ISO_A2":"MO","ISO_A3":"MAC","ISO_A3_EH":"MAC","ISO_N3":"446","UN_A3":"446","WB_A2":"MO","WB_A3":"MAC","WOE_ID":20070017,"WOE_ID_EH":20070017,"WOE_NOTE":"Exact WOE match as country","ADM0_A3_IS":"MAC","ADM0_A3_US":"MAC","ADM0_A3_UN":-99,"ADM0_A3_WB":-99,"CONTINENT":"Asia","REGION_UN":"Asia","SUBREGION":"Eastern Asia","REGION_WB":"East Asia & Pacific","NAME_LEN":5,"LONG_LEN":5,"ABBREV_LEN":4,"TINY":-99,"HOMEPART":-99,"MIN_ZOOM":0,"MIN_LABEL":4,"MAX_LABEL":9,"NE_ID":1159320475,"WIKIDATAID":"Q14773","NAME_AR":"ماكاو","NAME_BN":"মাকাও","NAME_DE":"Macau","NAME_EN":"Macau","NAME_ES":"Macao","NAME_FR":"Macao","NAME_EL":"Μακάου","NAME_HI":"मकाउ","NAME_HU":"Makaó","NAME_ID":"Makau","NAME_IT":"Macao","NAME_JA":"マカオ","NAME_KO":"마카오","NAME_NL":"Macau","NAME_PL":"Makau","NAME_PT":"Macau","NAME_RU":"Макао","NAME_SV":"Macao","NAME_TR":"Makao","NAME_VI":"Ma Cao","NAME_ZH":"澳門"},"bbox":[113.549639,22.15425,113.549639,22.15425],"geometry":{"type":"Point","coordinates":[113.549639,22.15425]}}],"bbox":[-176.164162151349,-54.2744788636953,179.203974226234,71.0282488064325]}
